
{
"type": "FeatureCollection",
"name": "africa_rwanda_building.geojson",
"crs": { "type": "name", "properties": { "name": "urn:ogc:def:crs:OGC:1.3:CRS84" } },
"features": [
{"type":"Feature","properties":{"osm_id":25796157,"timestamp":1588720003,"name":"Kigali Genocide Memorial","name:en":"Kigali Genocide Memorial","tourism":"museum","building":"yes"},"geometry":{"type":"Point","coordinates":[30.0601667,-1.9312656]}}
,{"type":"Feature","properties":{"osm_id":25796310,"timestamp":1594478202,"name":"Kigali Business Centre","building":"retail"},"geometry":{"type":"Point","coordinates":[30.0916134,-1.9524210499999999]}}
,{"type":"Feature","properties":{"osm_id":25824993,"timestamp":1392836096,"name":"Union Trade Centre","building":"yes"},"geometry":{"type":"Point","coordinates":[30.0613362,-1.9455992]}}
,{"type":"Feature","properties":{"osm_id":56820056,"timestamp":1400269009,"name":"Classrooms","building":"school"},"geometry":{"type":"Point","coordinates":[30.0874915,-1.9129813]}}
,{"type":"Feature","properties":{"osm_id":56820057,"timestamp":1400269012,"name":"Storage","building":"yes"},"geometry":{"type":"Point","coordinates":[30.086618350000002,-1.9120534999999999]}}
,{"type":"Feature","properties":{"osm_id":56820058,"timestamp":1400269008,"name":"Classrooms","building":"school"},"geometry":{"type":"Point","coordinates":[30.08760765,-1.9126446499999998]}}
,{"type":"Feature","properties":{"osm_id":56820060,"timestamp":1400269009,"name":"Classrooms","building":"school"},"geometry":{"type":"Point","coordinates":[30.086469100000002,-1.9120301]}}
,{"type":"Feature","properties":{"osm_id":56820064,"timestamp":1400269012,"name":"Library","building":"school"},"geometry":{"type":"Point","coordinates":[30.087123,-1.9129306499999998]}}
,{"type":"Feature","properties":{"osm_id":56820066,"timestamp":1400269009,"name":"Classrooms","building":"school"},"geometry":{"type":"Point","coordinates":[30.0874429,-1.9119941]}}
,{"type":"Feature","properties":{"osm_id":56820068,"timestamp":1400269009,"name":"Classrooms","building":"school"},"geometry":{"type":"Point","coordinates":[30.08765095,-1.912484]}}
,{"type":"Feature","properties":{"osm_id":56820071,"timestamp":1400269009,"name":"Classrooms","building":"school"},"geometry":{"type":"Point","coordinates":[30.086767899999998,-1.91170535]}}
,{"type":"Feature","properties":{"osm_id":56820078,"timestamp":1400269008,"name":"Classrooms","building":"school"},"geometry":{"type":"Point","coordinates":[30.0864945,-1.9124631]}}
,{"type":"Feature","properties":{"osm_id":56820080,"timestamp":1400269008,"name":"Classrooms","building":"school"},"geometry":{"type":"Point","coordinates":[30.08707845,-1.9117845]}}
,{"type":"Feature","properties":{"osm_id":56820081,"timestamp":1400269009,"name":"Classrooms","building":"school"},"geometry":{"type":"Point","coordinates":[30.08737265,-1.91249845]}}
,{"type":"Feature","properties":{"osm_id":56820083,"timestamp":1400269009,"name":"Classrooms","building":"school"},"geometry":{"type":"Point","coordinates":[30.086815,-1.9127147500000001]}}
,{"type":"Feature","properties":{"osm_id":56820088,"timestamp":1400269012,"name":"Old Classrooms","building":"school"},"geometry":{"type":"Point","coordinates":[30.08703905,-1.91230125]}}
,{"type":"Feature","properties":{"osm_id":104589152,"timestamp":1583906681,"name":"Kigali International Airport","building":"yes"},"geometry":{"type":"Point","coordinates":[30.134822800000002,-1.9636388999999999]}}
,{"type":"Feature","properties":{"osm_id":106235473,"timestamp":1590196613,"name":"British High Commission","office":"diplomatic","building":"yes"},"geometry":{"type":"Point","coordinates":[30.09158745,-1.9476385999999999]}}
,{"type":"Feature","properties":{"osm_id":106235513,"timestamp":1369166768,"name":"Aurore House","building":"yes","addr:city":"Kigali","addr:place":"Kacyiru","addr:country":"RW"},"geometry":{"type":"Point","coordinates":[30.0913981,-1.9469753]}}
,{"type":"Feature","properties":{"osm_id":106276992,"timestamp":1468062242,"name":"Telecom House","building":"office"},"geometry":{"type":"Point","coordinates":[30.0895611,-1.9445044500000002]}}
,{"type":"Feature","properties":{"osm_id":106280239,"timestamp":1343490940,"name":"MINECOFIN","building":"yes"},"geometry":{"type":"Point","coordinates":[30.061207500000002,-1.94801935]}}
,{"type":"Feature","properties":{"osm_id":106340981,"timestamp":1472206983,"name":"Église de la Sainte Famille","amenity":"place_of_worship","building":"public","addr:street":"KN1"},"geometry":{"type":"Point","coordinates":[30.06355715,-1.9446037999999999]}}
,{"type":"Feature","properties":{"osm_id":106357413,"timestamp":1433954517,"name":"Kigali International Christian School (KICS)","building":"school"},"geometry":{"type":"Point","coordinates":[30.0914574,-1.92706995]}}
,{"type":"Feature","properties":{"osm_id":106393637,"timestamp":1343491660,"name":"LA BONNE ADDRESS","building":"yes"},"geometry":{"type":"Point","coordinates":[30.0609718,-1.946111]}}
,{"type":"Feature","properties":{"osm_id":106506371,"timestamp":1509394627,"name":"International Criminal Tribunal for Rwanda - Kigali Liaison Office","building":"yes","addr:housename":"Amahoro Hotel"},"geometry":{"type":"Point","coordinates":[30.111782,-1.9574092]}}
,{"type":"Feature","properties":{"osm_id":106508241,"timestamp":1456569502,"name":"Adventist University of Central Africa","building":"university"},"geometry":{"type":"Point","coordinates":[30.1430996,-1.9453107]}}
,{"type":"Feature","properties":{"osm_id":106512296,"timestamp":1343491270,"name":"Banque Commerciale du Rwanda","building":"yes"},"geometry":{"type":"Point","coordinates":[30.0614449,-1.9486985]}}
,{"type":"Feature","properties":{"osm_id":106512311,"timestamp":1368004705,"name":"SORAS","building":"yes"},"geometry":{"type":"Point","coordinates":[30.061800599999998,-1.95159945]}}
,{"type":"Feature","properties":{"osm_id":106524871,"timestamp":1538339916,"name":"Jehovah's Witnesses Rwanda Branch Office","name:en":"Branch Office of Jehovah's Witnesses","building":"office"},"geometry":{"type":"Point","coordinates":[30.114231750000002,-1.9578695499999998]}}
,{"type":"Feature","properties":{"osm_id":106609107,"timestamp":1361628237,"name":"Onatracom Mosque","building":"yes","addr:street":"BIRYOGO"},"geometry":{"type":"Point","coordinates":[30.05992475,-1.9633032]}}
,{"type":"Feature","properties":{"osm_id":107543400,"timestamp":1550767517,"name":"Rwanda Mines Petroleum and Gas board","building":"commercial"},"geometry":{"type":"Point","coordinates":[30.0610506,-1.95476125]}}
,{"type":"Feature","properties":{"osm_id":116771491,"timestamp":1457948101,"name":"Nobilis Appartments","tourism":"motel","building":"apartments"},"geometry":{"type":"Point","coordinates":[30.0687735,-1.95121025]}}
,{"type":"Feature","properties":{"osm_id":118746021,"timestamp":1345910288,"name":"Rwanda Development Board (RDB)","building":"office"},"geometry":{"type":"Point","coordinates":[30.102606350000002,-1.95283945]}}
,{"type":"Feature","properties":{"osm_id":119604067,"timestamp":1579541407,"name":"School of engineering office","building":"yes","addr:city":"Kigali","addr:postcode":"250"},"geometry":{"type":"Point","coordinates":[30.06430985,-1.95713005]}}
,{"type":"Feature","properties":{"osm_id":119911737,"timestamp":1589363130,"name":"Coffeeshop Company","amenity":"cafe","building":"yes"},"geometry":{"type":"Point","coordinates":[30.059761,-1.9507853]}}
,{"type":"Feature","properties":{"osm_id":120283432,"timestamp":1439896317,"name":"MP Travel & Tours Ltd","office":"travel_agent","building":"yes","addr:city":"Kigali","addr:street":"KN 74 St","addr:postcode":"5011 Kigali-Rwanda"},"geometry":{"type":"Point","coordinates":[30.0592355,-1.94747005]}}
,{"type":"Feature","properties":{"osm_id":120283493,"timestamp":1343490433,"name":"Rubangura","building":"yes"},"geometry":{"type":"Point","coordinates":[30.0598073,-1.94285315]}}
,{"type":"Feature","properties":{"osm_id":124721327,"timestamp":1364652079,"name":"Energy Water and Sanitation Authority head office","building":"office"},"geometry":{"type":"Point","coordinates":[30.05807935,-1.9441598999999998]}}
,{"type":"Feature","properties":{"osm_id":125496678,"timestamp":1343487169,"name":"ININD HOUSE","building":"yes"},"geometry":{"type":"Point","coordinates":[30.1033522,-1.96633695]}}
,{"type":"Feature","properties":{"osm_id":125762389,"timestamp":1540655621,"name":"Kigali Anglican Theological College","building":"yes"},"geometry":{"type":"Point","coordinates":[30.2174311,-1.988519]}}
,{"type":"Feature","properties":{"osm_id":125896248,"timestamp":1387765974,"name":"Sonatubes","shop":"hardware","building":"yes"},"geometry":{"type":"Point","coordinates":[30.1022579,-1.96872235]}}
,{"type":"Feature","properties":{"osm_id":125898407,"timestamp":1537972731,"name":"Parliament","building":"government"},"geometry":{"type":"Point","coordinates":[30.0988307,-1.9523641999999999]}}
,{"type":"Feature","properties":{"osm_id":125898408,"timestamp":1364653342,"name":"King Faisal Hospital","building":"yes"},"geometry":{"type":"Point","coordinates":[30.0953884,-1.94362535]}}
,{"type":"Feature","properties":{"osm_id":127097434,"timestamp":1445202016,"name":"Institute for Policy Analysis and Research, Rwanda","building":"yes","addr:city":"Kigali","addr:street":"KG 627 St","addr:housenumber":"4"},"geometry":{"type":"Point","coordinates":[30.08499385,-1.95909575]}}
,{"type":"Feature","properties":{"osm_id":127097451,"timestamp":1445411225,"name":"USAID. Private Sector Driven Agriculture Growth Project","building":"yes","addr:city":"Kigali","addr:street":"KG 4 Av","addr:housenumber":"9"},"geometry":{"type":"Point","coordinates":[30.08428105,-1.9590798]}}
,{"type":"Feature","properties":{"osm_id":127120278,"timestamp":1445202013,"name":"Mamba Club","building":"yes"},"geometry":{"type":"Point","coordinates":[30.081762750000003,-1.9547390500000001]}}
,{"type":"Feature","properties":{"osm_id":127120289,"timestamp":1445610493,"name":"ADEPR","building":"yes","addr:city":"Kigali","addr:street":"KG 28 Av","addr:housenumber":"37"},"geometry":{"type":"Point","coordinates":[30.08059175,-1.9558778]}}
,{"type":"Feature","properties":{"osm_id":127120300,"timestamp":1445610493,"name":"ADEPR","building":"yes","addr:city":"Kigali","addr:street":"KG 28 Av","addr:housenumber":"39"},"geometry":{"type":"Point","coordinates":[30.0806653,-1.9561356]}}
,{"type":"Feature","properties":{"osm_id":127120310,"timestamp":1464766917,"name":"ADEPR Kimihurura","amenity":"place_of_worship","building":"yes","addr:city":"Kigali","addr:street":"KG 674 St","addr:housenumber":"30"},"geometry":{"type":"Point","coordinates":[30.08120675,-1.95601555]}}
,{"type":"Feature","properties":{"osm_id":127122811,"timestamp":1549556491,"name":"Cloud 9","amenity":"restaurant","name:fr":"Blife","building":"yes","addr:city":"Kigali","addr:street":"KG 680 St","addr:housenumber":"6"},"geometry":{"type":"Point","coordinates":[30.080998649999998,-1.954247]}}
,{"type":"Feature","properties":{"osm_id":127122813,"timestamp":1549556494,"name":"L'epicerie","amenity":"restaurant","building":"yes","addr:city":"Kigali","addr:street":"KG 674 St","addr:housenumber":"22"},"geometry":{"type":"Point","coordinates":[30.0809894,-1.95401475]}}
,{"type":"Feature","properties":{"osm_id":127195546,"timestamp":1509394627,"name":"Shokola Restaurant","building":"yes"},"geometry":{"type":"Point","coordinates":[30.09335325,-1.9514158]}}
,{"type":"Feature","properties":{"osm_id":127195561,"timestamp":1394023915,"name":"Embassy of The Netherlands","building":"office"},"geometry":{"type":"Point","coordinates":[30.09212795,-1.95036615]}}
,{"type":"Feature","properties":{"osm_id":127195571,"timestamp":1343488254,"name":"Ubumwe House","shop":"mall","building":"office"},"geometry":{"type":"Point","coordinates":[30.0908114,-1.95178895]}}
,{"type":"Feature","properties":{"osm_id":127199999,"timestamp":1600185860,"building":"school","name":"Bâtiment Administrative"},"geometry":{"type":"Point","coordinates":[30.069219150000002,-1.9607675]}}
,{"type":"Feature","properties":{"osm_id":127200027,"timestamp":1361627000,"name":"Ecole Francaise Antoine de Saint Exupery","amenity":"school","building":"yes"},"geometry":{"type":"Point","coordinates":[30.0691705,-1.9603468]}}
,{"type":"Feature","properties":{"osm_id":127261265,"timestamp":1364652250,"name":"Energy Water and Sanitation Authority","building":"office"},"geometry":{"type":"Point","coordinates":[30.05729635,-1.9441838]}}
,{"type":"Feature","properties":{"osm_id":127532462,"timestamp":1377438881,"name":"Kigali City Hall","amenity":"townhall","building":"yes"},"geometry":{"type":"Point","coordinates":[30.060312500000002,-1.94847445]}}
,{"type":"Feature","properties":{"osm_id":129209672,"timestamp":1509394627,"name":"ADB High School","amenity":"school","building":"school"},"geometry":{"type":"Point","coordinates":[30.10450255,-1.9429647]}}
,{"type":"Feature","properties":{"osm_id":130444174,"timestamp":1392835060,"name":"Rwanda National Police","amenity":"police","building":"yes"},"geometry":{"type":"Point","coordinates":[30.0515265,-1.9392713000000001]}}
,{"type":"Feature","properties":{"osm_id":132273655,"timestamp":1317763037,"name":"MTN Centre","amenity":"public_building","building":"yes"},"geometry":{"type":"Point","coordinates":[30.10343015,-1.94077605]}}
,{"type":"Feature","properties":{"osm_id":132277388,"timestamp":1317765034,"name":"Apartment","building":"yes"},"geometry":{"type":"Point","coordinates":[30.1048123,-1.93923015]}}
,{"type":"Feature","properties":{"osm_id":132277477,"timestamp":1321886627,"name":"Apartment","building":"yes"},"geometry":{"type":"Point","coordinates":[30.1046713,-1.93937695]}}
,{"type":"Feature","properties":{"osm_id":133951762,"timestamp":1509394627,"name":"Lycee de Kigali Gymnasium","amenity":"school","building":"yes"},"geometry":{"type":"Point","coordinates":[30.06875655,-1.962319]}}
,{"type":"Feature","properties":{"osm_id":133951775,"timestamp":1433949881,"name":"Maxi Center","building":"garage"},"geometry":{"type":"Point","coordinates":[30.075592200000003,-1.9534433]}}
,{"type":"Feature","properties":{"osm_id":134990572,"timestamp":1445460162,"name":"Petit Bassan Hotel","building":"yes","addr:city":"Kigali","addr:street":"KG 672 St","addr:housenumber":"18"},"geometry":{"type":"Point","coordinates":[30.080553350000002,-1.9526206]}}
,{"type":"Feature","properties":{"osm_id":137838061,"timestamp":1489273579,"name":"Oxygen Restaurant & Bar","tourism":"motel","building":"hotel"},"geometry":{"type":"Point","coordinates":[30.06158705,-1.9416315499999999]}}
,{"type":"Feature","properties":{"osm_id":138711726,"timestamp":1427662863,"name":"Cooperatives buildings","building":"yes"},"geometry":{"type":"Point","coordinates":[30.0448547,-1.9420281]}}
,{"type":"Feature","properties":{"osm_id":150331958,"timestamp":1343490692,"name":"Prestor House","shop":"mall","building":"office","addr:housename":"Prestor House"},"geometry":{"type":"Point","coordinates":[30.09305275,-1.9509142499999998]}}
,{"type":"Feature","properties":{"osm_id":156167101,"timestamp":1343489373,"name":"MAGERWA WAREHOUSE 2","building":"yes"},"geometry":{"type":"Point","coordinates":[30.08560405,-1.9748358499999998]}}
,{"type":"Feature","properties":{"osm_id":156167102,"timestamp":1343489311,"name":"MAGERWA WAREHOUSE 4","building":"yes"},"geometry":{"type":"Point","coordinates":[30.0850525,-1.97612085]}}
,{"type":"Feature","properties":{"osm_id":156167104,"timestamp":1343489344,"name":"MAGERWA WAREHOUSE 3","building":"yes"},"geometry":{"type":"Point","coordinates":[30.084394250000003,-1.97577435]}}
,{"type":"Feature","properties":{"osm_id":156167114,"timestamp":1343489360,"name":"MAGERWA WAREHOUSE 1","building":"yes"},"geometry":{"type":"Point","coordinates":[30.08479475,-1.97447365]}}
,{"type":"Feature","properties":{"osm_id":157598393,"timestamp":1551024069,"name":"Kigali City Tower","building":"commercial"},"geometry":{"type":"Point","coordinates":[30.05941055,-1.9437474]}}
,{"type":"Feature","properties":{"osm_id":157621536,"timestamp":1361633147,"name":"JOC Kigali","building":"yes"},"geometry":{"type":"Point","coordinates":[30.063395649999997,-1.9432363499999998]}}
,{"type":"Feature","properties":{"osm_id":157621638,"timestamp":1345910789,"name":"iPOSITA","amenity":"post_office","building":"yes"},"geometry":{"type":"Point","coordinates":[30.0622843,-1.94268065]}}
,{"type":"Feature","properties":{"osm_id":157621649,"timestamp":1361632444,"name":"Hotel Panafrique","building":"public"},"geometry":{"type":"Point","coordinates":[30.0624568,-1.94303195]}}
,{"type":"Feature","properties":{"osm_id":157621797,"timestamp":1398910798,"name":"Sofaru Quincaillerie","building":"yes"},"geometry":{"type":"Point","coordinates":[30.059713950000003,-1.9391737500000001]}}
,{"type":"Feature","properties":{"osm_id":157622208,"timestamp":1575578466,"name":"Old TIGO HEAD QUARTERS","office":"telecom","building":"office"},"geometry":{"type":"Point","coordinates":[30.05876255,-1.9393252]}}
,{"type":"Feature","properties":{"osm_id":170311638,"timestamp":1495894123,"name":"MPPD Warehouse, Kigali","building":"warehouse"},"geometry":{"type":"Point","coordinates":[30.077052799999997,-1.9335672]}}
,{"type":"Feature","properties":{"osm_id":170311641,"timestamp":1495007920,"name":"Kacyiru Hospital","building":"hospital"},"geometry":{"type":"Point","coordinates":[30.074697899999997,-1.93294505]}}
,{"type":"Feature","properties":{"osm_id":173152817,"timestamp":1532337105,"name":"Residence PRIMA 2000","tourism":"hotel","building":"yes"},"geometry":{"type":"Point","coordinates":[30.0889258,-1.94510695]}}
,{"type":"Feature","properties":{"osm_id":173160979,"timestamp":1590196613,"name":"Rwanda Directorate General of Immigration","building":"public"},"geometry":{"type":"Point","coordinates":[30.0808533,-1.9376141]}}
,{"type":"Feature","properties":{"osm_id":173161066,"timestamp":1343398633,"name":"MINEDUC","amenity":"public_building","building":"yes","addr:housename":"MINEDUC"},"geometry":{"type":"Point","coordinates":[30.079866600000003,-1.93701185]}}
,{"type":"Feature","properties":{"osm_id":173162984,"timestamp":1371731137,"name":"Gasabo District Office","amenity":"public_building","building":"yes"},"geometry":{"type":"Point","coordinates":[30.078399150000003,-1.9381002999999999]}}
,{"type":"Feature","properties":{"osm_id":173163335,"timestamp":1561484932,"name":"Library","building":"public"},"geometry":{"type":"Point","coordinates":[30.0787485,-1.9346523]}}
,{"type":"Feature","properties":{"osm_id":173164161,"timestamp":1343489982,"name":"Bank Populaire du Rwanda, Kacyiru Branch","amenity":"public_building","building":"yes"},"geometry":{"type":"Point","coordinates":[30.07827125,-1.9388817]}}
,{"type":"Feature","properties":{"osm_id":173164179,"timestamp":1343401929,"name":"Egypt Embassy","building":"yes"},"geometry":{"type":"Point","coordinates":[30.08717255,-1.9420916]}}
,{"type":"Feature","properties":{"osm_id":173164236,"timestamp":1356708812,"name":"infini","building":"yes"},"geometry":{"type":"Point","coordinates":[30.05226425,-1.97917085]}}
,{"type":"Feature","properties":{"osm_id":173165417,"timestamp":1384102947,"name":"Rwandafoam industry","building":"industrial"},"geometry":{"type":"Point","coordinates":[30.0806163,-1.96093515]}}
,{"type":"Feature","properties":{"osm_id":173165703,"timestamp":1519399935,"name":"Blue Star House","landuse":"commercial","building":"yes"},"geometry":{"type":"Point","coordinates":[30.088166899999997,-1.94447875]}}
,{"type":"Feature","properties":{"osm_id":173167030,"timestamp":1343402744,"name":"Kimironko pub","building":"yes"},"geometry":{"type":"Point","coordinates":[30.1310158,-1.94538965]}}
,{"type":"Feature","properties":{"osm_id":173168701,"timestamp":1361627923,"name":"Ciné Elmay (Kwa Mayaka)","building":"yes"},"geometry":{"type":"Point","coordinates":[30.05912345,-1.96476585]}}
,{"type":"Feature","properties":{"osm_id":173267220,"timestamp":1573397880,"name":"Rwanda Social Security Board (RSSB)","building":"public"},"geometry":{"type":"Point","coordinates":[30.068094700000003,-1.9460966]}}
,{"type":"Feature","properties":{"osm_id":173277194,"timestamp":1400097628,"name":"Parking","building":"yes"},"geometry":{"type":"Point","coordinates":[30.0734739,-1.9341400499999999]}}
,{"type":"Feature","properties":{"osm_id":173293813,"timestamp":1393140168,"name":"Kandt Residence","building":"yes"},"geometry":{"type":"Point","coordinates":[30.0532222,-1.9466255000000001]}}
,{"type":"Feature","properties":{"osm_id":173294171,"timestamp":1343489634,"name":"CSS ZIgama HQ Building","building":"yes"},"geometry":{"type":"Point","coordinates":[30.115425799999997,-1.9572393]}}
,{"type":"Feature","properties":{"osm_id":173294172,"timestamp":1343489635,"name":"CSS Zigama HQ Building","building":"yes"},"geometry":{"type":"Point","coordinates":[30.11532245,-1.9573257499999999]}}
,{"type":"Feature","properties":{"osm_id":173299533,"timestamp":1343485501,"name":"Glory House","building":"yes"},"geometry":{"type":"Point","coordinates":[30.08969195,-1.94552725]}}
,{"type":"Feature","properties":{"osm_id":173300294,"timestamp":1371731137,"name":"CESTRAR","amenity":"public_building","building":"yes"},"geometry":{"type":"Point","coordinates":[30.0788083,-1.9382558]}}
,{"type":"Feature","properties":{"osm_id":173301944,"timestamp":1343487640,"name":"SP","building":"yes"},"geometry":{"type":"Point","coordinates":[30.07129175,-1.9586396000000001]}}
,{"type":"Feature","properties":{"osm_id":173301945,"timestamp":1343487779,"name":"NPD Cotraco","building":"yes"},"geometry":{"type":"Point","coordinates":[30.10998215,-1.9744655]}}
,{"type":"Feature","properties":{"osm_id":173302295,"timestamp":1343487882,"name":"OIL Petrol Station","building":"yes"},"geometry":{"type":"Point","coordinates":[30.105038399999998,-1.9648978000000001]}}
,{"type":"Feature","properties":{"osm_id":173302929,"timestamp":1343488087,"name":"classes building 2&3","building":"yes"},"geometry":{"type":"Point","coordinates":[30.0541131,-1.9776997]}}
,{"type":"Feature","properties":{"osm_id":173303175,"timestamp":1343488345,"name":"MAGERWA HQ","building":"yes"},"geometry":{"type":"Point","coordinates":[30.0846976,-1.97774455]}}
,{"type":"Feature","properties":{"osm_id":173303222,"timestamp":1343488400,"name":"Ugandan Restaurant","building":"yes"},"geometry":{"type":"Point","coordinates":[30.1082628,-1.96370055]}}
,{"type":"Feature","properties":{"osm_id":173303245,"timestamp":1343488436,"name":"couvent","building":"residential"},"geometry":{"type":"Point","coordinates":[30.0530187,-1.9773512]}}
,{"type":"Feature","properties":{"osm_id":173303254,"timestamp":1509394627,"name":"Rwanda Plastic Industry","building":"yes"},"geometry":{"type":"Point","coordinates":[30.0949559,-1.98034185]}}
,{"type":"Feature","properties":{"osm_id":173303357,"timestamp":1343488550,"name":"laboratories & classes","building":"yes"},"geometry":{"type":"Point","coordinates":[30.05281315,-1.9785648500000002]}}
,{"type":"Feature","properties":{"osm_id":173303448,"timestamp":1509394627,"name":"Beijing Tangren Restaurant","amenity":"restaurant","building":"yes"},"geometry":{"type":"Point","coordinates":[30.1037556,-1.9548508999999998]}}
,{"type":"Feature","properties":{"osm_id":173303566,"timestamp":1573397880,"name":"Ambassade de la Fédération de Russie","office":"diplomatic","name:en":"Embassy of the Russian Federation","building":"yes","addr:city":"Kigali","addr:country":"RW"},"geometry":{"type":"Point","coordinates":[30.0633877,-1.9540997999999998]}}
,{"type":"Feature","properties":{"osm_id":173303568,"timestamp":1573397880,"name":"Ambassade de la République populaire de Chine","office":"diplomatic","name:en":"Embassy of the People's Republic of China","building":"yes","addr:city":"Kigali","addr:country":"RW"},"geometry":{"type":"Point","coordinates":[30.0614092,-1.95411605]}}
,{"type":"Feature","properties":{"osm_id":173303844,"timestamp":1343488841,"name":"Sector Gisozi office","amenity":"public_building","building":"yes"},"geometry":{"type":"Point","coordinates":[30.07137605,-1.9234865]}}
,{"type":"Feature","properties":{"osm_id":173304203,"timestamp":1343488970,"name":"Le Prestige House","building":"yes"},"geometry":{"type":"Point","coordinates":[30.0891011,-1.96821335]}}
,{"type":"Feature","properties":{"osm_id":173304265,"timestamp":1343488979,"name":"ALPHA PALACA HOTEL","building":"yes"},"geometry":{"type":"Point","coordinates":[30.1132115,-1.961268]}}
,{"type":"Feature","properties":{"osm_id":173305007,"timestamp":1573397880,"name":"Ambassade de la Confédération suisse","office":"diplomatic","name:de":"Botschaft der Schweizerischen Eidgenossenschaft","name:en":"Embassy of the Swiss Confederation","building":"yes"},"geometry":{"type":"Point","coordinates":[30.061515,-1.95347385]}}
,{"type":"Feature","properties":{"osm_id":173305536,"timestamp":1350047228,"name":"Rwanda Revenue Authority","building":"yes"},"geometry":{"type":"Point","coordinates":[30.0845706,-1.9529882]}}
,{"type":"Feature","properties":{"osm_id":173305547,"timestamp":1343489218,"name":"PSF MAIN BUILDING","building":"yes"},"geometry":{"type":"Point","coordinates":[30.0858724,-1.9760988]}}
,{"type":"Feature","properties":{"osm_id":173305913,"timestamp":1576435389,"name":"Rwanda Branch Office of Jehovah's Witnesses","name:fr":"Sièges nationaux des témoins de Jéhovah","building":"apartments"},"geometry":{"type":"Point","coordinates":[30.11322535,-1.9579046]}}
,{"type":"Feature","properties":{"osm_id":173305920,"timestamp":1343489506,"name":"Gender Monitoring Office","amenity":"public_building","building":"yes"},"geometry":{"type":"Point","coordinates":[30.103787750000002,-1.95651555]}}
,{"type":"Feature","properties":{"osm_id":173305948,"timestamp":1384102946,"name":"BANDAG","shop":"car_repair","building":"industrial"},"geometry":{"type":"Point","coordinates":[30.07892475,-1.96170035]}}
,{"type":"Feature","properties":{"osm_id":173306217,"timestamp":1343489782,"name":"Societe Petroliere","building":"yes"},"geometry":{"type":"Point","coordinates":[30.0782615,-1.9602863]}}
,{"type":"Feature","properties":{"osm_id":173306256,"timestamp":1343489828,"name":"SONARWA","building":"yes"},"geometry":{"type":"Point","coordinates":[30.06230425,-1.9548942500000002]}}
,{"type":"Feature","properties":{"osm_id":173306287,"timestamp":1356708810,"name":"OCIR Cafe","building":"yes"},"geometry":{"type":"Point","coordinates":[30.085405899999998,-1.97005505]}}
,{"type":"Feature","properties":{"osm_id":173306288,"timestamp":1343491176,"name":"OCIR Cafe","building":"yes"},"geometry":{"type":"Point","coordinates":[30.0851073,-1.969677]}}
,{"type":"Feature","properties":{"osm_id":173306289,"timestamp":1343490692,"name":"Ocir the","building":"yes"},"geometry":{"type":"Point","coordinates":[30.0850188,-1.9708350000000001]}}
,{"type":"Feature","properties":{"osm_id":173306290,"timestamp":1343491150,"name":"OCIR Cafe","building":"yes"},"geometry":{"type":"Point","coordinates":[30.0852508,-1.97036195]}}
,{"type":"Feature","properties":{"osm_id":173306301,"timestamp":1594478788,"name":"Coordination Office Kigali Partnership Rhineland-Palatinate / Rwanda","building":"yes","addr:city":"Kigali","addr:street":"KN 3 Avenue","addr:housenumber":"25"},"geometry":{"type":"Point","coordinates":[30.062451799999998,-1.9553138]}}
,{"type":"Feature","properties":{"osm_id":173306310,"timestamp":1364653708,"name":"Ebenezer House","building":"yes"},"geometry":{"type":"Point","coordinates":[30.085062399999998,-1.9406749]}}
,{"type":"Feature","properties":{"osm_id":173306345,"timestamp":1343489958,"name":"Cefe Restaurant Olympiade","building":"yes"},"geometry":{"type":"Point","coordinates":[30.115054049999998,-1.9569757]}}
,{"type":"Feature","properties":{"osm_id":173306463,"timestamp":1509394627,"name":"TIGO Service Center","building":"yes"},"geometry":{"type":"Point","coordinates":[30.114949449999997,-1.95684605]}}
,{"type":"Feature","properties":{"osm_id":173306464,"timestamp":1343490177,"name":"MINAFET","building":"yes"},"geometry":{"type":"Point","coordinates":[30.084015,-1.95446025]}}
,{"type":"Feature","properties":{"osm_id":173306465,"timestamp":1509394627,"name":"McMillan English Rwanda","building":"office"},"geometry":{"type":"Point","coordinates":[30.1042196,-1.9574055499999998]}}
,{"type":"Feature","properties":{"osm_id":173306744,"timestamp":1343490268,"name":"VOXIVA Office","building":"office"},"geometry":{"type":"Point","coordinates":[30.07710725,-1.93796385]}}
,{"type":"Feature","properties":{"osm_id":173306753,"timestamp":1343490297,"name":"FARG Rwanda","building":"yes"},"geometry":{"type":"Point","coordinates":[30.115321700000003,-1.9567291]}}
,{"type":"Feature","properties":{"osm_id":173307086,"timestamp":1364652985,"name":"Embassy of Kenya","building":"office"},"geometry":{"type":"Point","coordinates":[30.090298750000002,-1.9460605]}}
,{"type":"Feature","properties":{"osm_id":173307188,"timestamp":1343490450,"name":"GEREZA YA KIGALI 1930","building":"yes"},"geometry":{"type":"Point","coordinates":[30.05392265,-1.9439175]}}
,{"type":"Feature","properties":{"osm_id":173307227,"timestamp":1343490545,"name":"Intersec Security Head Office","building":"office"},"geometry":{"type":"Point","coordinates":[30.0788511,-1.9401027]}}
,{"type":"Feature","properties":{"osm_id":173307423,"timestamp":1343490660,"name":"Car Wash","building":"yes"},"geometry":{"type":"Point","coordinates":[30.0755236,-1.9527098999999999]}}
,{"type":"Feature","properties":{"osm_id":173307497,"timestamp":1500118610,"name":"Discentre","amenity":"fuel","building":"yes"},"geometry":{"type":"Point","coordinates":[30.08891,-1.96865575]}}
,{"type":"Feature","properties":{"osm_id":173307522,"timestamp":1343491558,"name":"Gereza garage","building":"yes"},"geometry":{"type":"Point","coordinates":[30.05482165,-1.94372865]}}
,{"type":"Feature","properties":{"osm_id":173307533,"timestamp":1418910220,"name":"Kicukiro Pension Plaza","amenity":"public_building","building":"yes"},"geometry":{"type":"Point","coordinates":[30.09965235,-1.9694376]}}
,{"type":"Feature","properties":{"osm_id":173307699,"timestamp":1343490879,"name":"Rwanda Trading Company","building":"yes"},"geometry":{"type":"Point","coordinates":[30.08675405,-1.9689816]}}
,{"type":"Feature","properties":{"osm_id":173307828,"timestamp":1343490931,"name":"JSI Office","building":"office"},"geometry":{"type":"Point","coordinates":[30.080908100000002,-1.94119775]}}
,{"type":"Feature","properties":{"osm_id":173307907,"timestamp":1473113842,"name":"Kimisagara Catholic Parish","amenity":"place_of_worship","building":"church"},"geometry":{"type":"Point","coordinates":[30.05467105,-1.9587251]}}
,{"type":"Feature","properties":{"osm_id":173308013,"timestamp":1343491165,"name":"AZ IMPEX","building":"yes"},"geometry":{"type":"Point","coordinates":[30.0788856,-1.9628687]}}
,{"type":"Feature","properties":{"osm_id":173308039,"timestamp":1343491138,"name":"OCIR Cafe","building":"yes"},"geometry":{"type":"Point","coordinates":[30.08502455,-1.9708418499999998]}}
,{"type":"Feature","properties":{"osm_id":173308099,"timestamp":1343491158,"name":"Shilngton","building":"yes"},"geometry":{"type":"Point","coordinates":[30.092838299999997,-1.9743051]}}
,{"type":"Feature","properties":{"osm_id":173308466,"timestamp":1364650116,"name":"New Times","building":"yes"},"geometry":{"type":"Point","coordinates":[30.09625725,-1.9534356000000002]}}
,{"type":"Feature","properties":{"osm_id":173308549,"timestamp":1343491342,"name":"Cinestar","building":"yes"},"geometry":{"type":"Point","coordinates":[30.05994605,-1.9648047499999999]}}
,{"type":"Feature","properties":{"osm_id":173308572,"timestamp":1509394628,"name":"RWACOF MAIN","building":"yes"},"geometry":{"type":"Point","coordinates":[30.0826618,-1.9733779500000002]}}
,{"type":"Feature","properties":{"osm_id":173308667,"timestamp":1471213761,"name":"Kimisagara Restauration Church","amenity":"place_of_worship","building":"church"},"geometry":{"type":"Point","coordinates":[30.05177605,-1.9510787]}}
,{"type":"Feature","properties":{"osm_id":173308754,"timestamp":1343491500,"name":"RWACOF WAREHOUSE","building":"yes"},"geometry":{"type":"Point","coordinates":[30.0832299,-1.9730694500000001]}}
,{"type":"Feature","properties":{"osm_id":173308784,"timestamp":1523198826,"name":"CEMERWA","building":"yes"},"geometry":{"type":"Point","coordinates":[30.089907949999997,-1.91640905]}}
,{"type":"Feature","properties":{"osm_id":173308785,"timestamp":1573397880,"name":"Grand Pension Plaza","building":"public"},"geometry":{"type":"Point","coordinates":[30.060265299999998,-1.94668785]}}
,{"type":"Feature","properties":{"osm_id":173308916,"timestamp":1343491616,"name":"RWANDA MOTORS","building":"yes"},"geometry":{"type":"Point","coordinates":[30.08493165,-1.96514365]}}
,{"type":"Feature","properties":{"osm_id":173310456,"timestamp":1445460165,"name":"Serenity Spa","building":"yes","addr:city":"Kigali","addr:street":"KG 670 St","addr:housenumber":"1"},"geometry":{"type":"Point","coordinates":[30.08163635,-1.9500359500000002]}}
,{"type":"Feature","properties":{"osm_id":173313316,"timestamp":1343493152,"name":"World Vision Head Office","building":"office"},"geometry":{"type":"Point","coordinates":[30.0824744,-1.94150315]}}
,{"type":"Feature","properties":{"osm_id":173313413,"timestamp":1509394628,"name":"Chinese Restaurant","building":"yes"},"geometry":{"type":"Point","coordinates":[30.077771650000003,-1.94162805]}}
,{"type":"Feature","properties":{"osm_id":173315096,"timestamp":1356708809,"name":"Centre Socio Administrative - Umuryango wa abasoma Bibiliya mu Rwanda","building":"yes"},"geometry":{"type":"Point","coordinates":[30.083178750000002,-1.94227845]}}
,{"type":"Feature","properties":{"osm_id":173319486,"timestamp":1343495998,"name":"ABBA House","building":"yes"},"geometry":{"type":"Point","coordinates":[30.05456375,-1.97433455]}}
,{"type":"Feature","properties":{"osm_id":173320061,"timestamp":1343496143,"name":"APARTMENTS","building":"yes"},"geometry":{"type":"Point","coordinates":[30.0550533,-1.9745046]}}
,{"type":"Feature","properties":{"osm_id":173321689,"timestamp":1343496452,"name":"COSMOS HOUSE","building":"yes"},"geometry":{"type":"Point","coordinates":[30.053684,-1.97470835]}}
,{"type":"Feature","properties":{"osm_id":177855460,"timestamp":1445460164,"name":"The Selesians of Don Bosco","building":"yes"},"geometry":{"type":"Point","coordinates":[30.0827927,-1.9495692]}}
,{"type":"Feature","properties":{"osm_id":177858153,"timestamp":1433949953,"name":"Man Truck Showroom","building":"industrial"},"geometry":{"type":"Point","coordinates":[30.0756165,-1.95411585]}}
,{"type":"Feature","properties":{"osm_id":177858154,"timestamp":1433950025,"name":"Sawa City","shop":"supermarket","building":"yes"},"geometry":{"type":"Point","coordinates":[30.0749366,-1.9522989499999999]}}
,{"type":"Feature","properties":{"osm_id":177858883,"timestamp":1345910778,"name":"Airtel","building":"yes"},"geometry":{"type":"Point","coordinates":[30.1107542,-1.9575447]}}
,{"type":"Feature","properties":{"osm_id":177858889,"timestamp":1345910704,"name":"RURA HQ","building":"yes"},"geometry":{"type":"Point","coordinates":[30.06903385,-1.95048355]}}
,{"type":"Feature","properties":{"osm_id":177860055,"timestamp":1494918817,"name":"MININFRA","building":"yes"},"geometry":{"type":"Point","coordinates":[30.07930355,-1.93767775]}}
,{"type":"Feature","properties":{"osm_id":177860082,"timestamp":1345911605,"name":"Nursery Block","building":"school"},"geometry":{"type":"Point","coordinates":[30.106066650000002,-1.94350065]}}
,{"type":"Feature","properties":{"osm_id":177860086,"timestamp":1570299891,"name":"Mijo Hostel","tourism":"hostel","building":"yes","addr:city":"Kigali","addr:street":"KG 672 St","addr:housenumber":"10"},"geometry":{"type":"Point","coordinates":[30.080875650000003,-1.95167615]}}
,{"type":"Feature","properties":{"osm_id":177860087,"timestamp":1445460164,"name":"Bona Fide Law Chambers","building":"yes","addr:city":"Kigali","addr:street":"KN 14 Av","addr:housenumber":"48"},"geometry":{"type":"Point","coordinates":[30.081850250000002,-1.9502253]}}
,{"type":"Feature","properties":{"osm_id":177860098,"timestamp":1534875913,"name":"Afrika Bite","amenity":"restaurant","building":"yes","addr:city":"Kigali","addr:street":"KG 674 St","addr:housenumber":"5"},"geometry":{"type":"Point","coordinates":[30.082467649999998,-1.9515638499999999]}}
,{"type":"Feature","properties":{"osm_id":177860126,"timestamp":1445460164,"name":"Happy Hearts Daycare","building":"yes","addr:city":"Kigali","addr:street":"KG 672 St","addr:housenumber":"3"},"geometry":{"type":"Point","coordinates":[30.0821264,-1.95070885]}}
,{"type":"Feature","properties":{"osm_id":177860134,"timestamp":1445180481,"name":"Zenith Hotel","building":"commercial","addr:city":"Kigali","addr:street":"KG 676 St","addr:housenumber":"12"},"geometry":{"type":"Point","coordinates":[30.082234749999998,-1.9522857999999998]}}
,{"type":"Feature","properties":{"osm_id":177860138,"timestamp":1445335832,"name":"Women for Women","building":"yes","addr:city":"Kigali","addr:street":"KN 14 Av","addr:housenumber":"49"},"geometry":{"type":"Point","coordinates":[30.0833265,-1.9508241000000002]}}
,{"type":"Feature","properties":{"osm_id":177860148,"timestamp":1446142451,"name":"SURF Survivor's Fund. Supporting Survivors of Genocide Against the Tutsi in Rwanda","building":"yes","addr:city":"Kigali","addr:street":"KN 14 Av","addr:housenumber":"47"},"geometry":{"type":"Point","coordinates":[30.08291765,-1.9504692000000001]}}
,{"type":"Feature","properties":{"osm_id":177860152,"timestamp":1455112726,"name":"FXB Rwanda Country Coordination Office","building":"house","addr:city":"Kigali","addr:street":"KG 676 St","addr:housenumber":"6"},"geometry":{"type":"Point","coordinates":[30.08267625,-1.95172965]}}
,{"type":"Feature","properties":{"osm_id":177860153,"timestamp":1445460162,"name":"Legal Aid Forum (LAF)","building":"yes","addr:city":"Kigali","addr:street":"KG 672 St"},"geometry":{"type":"Point","coordinates":[30.08110465,-1.950697]}}
,{"type":"Feature","properties":{"osm_id":177860319,"timestamp":1361627606,"name":"School Canteen","building":"school"},"geometry":{"type":"Point","coordinates":[30.105342450000002,-1.94135345]}}
,{"type":"Feature","properties":{"osm_id":177860650,"timestamp":1361627549,"name":"Green Hills indoor Basketball courts","leisure":"sports_centre","building":"school"},"geometry":{"type":"Point","coordinates":[30.1059495,-1.94252715]}}
,{"type":"Feature","properties":{"osm_id":177860688,"timestamp":1566315642,"name":"Restauration church Remera","amenity":"place_of_worship","building":"yes"},"geometry":{"type":"Point","coordinates":[30.11763595,-1.95472725]}}
,{"type":"Feature","properties":{"osm_id":177861533,"timestamp":1361631256,"name":"Impala Hotel","building":"yes"},"geometry":{"type":"Point","coordinates":[30.0615277,-1.9411543]}}
,{"type":"Feature","properties":{"osm_id":177861557,"timestamp":1345912333,"name":"Umurenge wa Kimironko","amenity":"public_building","building":"yes"},"geometry":{"type":"Point","coordinates":[30.12739905,-1.9449808]}}
,{"type":"Feature","properties":{"osm_id":177861739,"timestamp":1446142451,"name":"Software Center of Excellence","building":"yes","addr:city":"Kigali","addr:street":"KN 14 Av","addr:housenumber":"42"},"geometry":{"type":"Point","coordinates":[30.08025315,-1.9491194]}}
,{"type":"Feature","properties":{"osm_id":177861752,"timestamp":1445460165,"name":"Illu-me","building":"yes","addr:city":"Kigali","addr:street":"KG 670 St","addr:housenumber":"6"},"geometry":{"type":"Point","coordinates":[30.08070955,-1.9501727500000001]}}
,{"type":"Feature","properties":{"osm_id":177862434,"timestamp":1345912897,"name":"New Kigali Designers","building":"yes"},"geometry":{"type":"Point","coordinates":[30.065680049999997,-1.926997]}}
,{"type":"Feature","properties":{"osm_id":182698360,"timestamp":1495007923,"name":"AMIR House","building":"house","addr:city":"Kigali","addr:street":"KG 513 St","addr:housenumber":"13"},"geometry":{"type":"Point","coordinates":[30.080621,-1.93373105]}}
,{"type":"Feature","properties":{"osm_id":182701228,"timestamp":1495007923,"name":"NIYO Arts Gallery","amenity":"arts_centre","building":"yes","addr:city":"Kigali","addr:street":"KG 513 St","addr:housenumber":"9"},"geometry":{"type":"Point","coordinates":[30.0803035,-1.93435135]}}
,{"type":"Feature","properties":{"osm_id":182701300,"timestamp":1495007923,"name":"EAR Kacyiru","amenity":"place_of_worship","building":"church","addr:city":"Kigali","addr:street":"KG 513 St","addr:housenumber":"1"},"geometry":{"type":"Point","coordinates":[30.07959135,-1.93513675]}}
,{"type":"Feature","properties":{"osm_id":187925343,"timestamp":1495007923,"name":"Little Gems Academy","building":"yes"},"geometry":{"type":"Point","coordinates":[30.08055565,-1.9347582]}}
,{"type":"Feature","properties":{"osm_id":187925909,"timestamp":1495007923,"name":"Little Gems Academy","building":"yes"},"geometry":{"type":"Point","coordinates":[30.08073015,-1.9345478]}}
,{"type":"Feature","properties":{"osm_id":193332059,"timestamp":1354117500,"name":"Auxiliary Parish Buildings","building":"yes"},"geometry":{"type":"Point","coordinates":[29.80426585,-2.0491594500000003]}}
,{"type":"Feature","properties":{"osm_id":193332061,"timestamp":1354118093,"name":"Padri Vjeko VTC","amenity":"school","building":"yes"},"geometry":{"type":"Point","coordinates":[29.8041352,-2.0494282]}}
,{"type":"Feature","properties":{"osm_id":193333497,"timestamp":1354341121,"name":"St Mary of Angels Church","amenity":"place_of_worship","building":"yes"},"geometry":{"type":"Point","coordinates":[29.8043111,-2.0486715]}}
,{"type":"Feature","properties":{"osm_id":193407112,"timestamp":1364397978,"name":"Internal Medecine","building":"yes"},"geometry":{"type":"Point","coordinates":[29.2620224,-1.7021324500000001]}}
,{"type":"Feature","properties":{"osm_id":193407119,"timestamp":1364397978,"name":"VIP Clinique","building":"yes"},"geometry":{"type":"Point","coordinates":[29.262192,-1.7016385500000002]}}
,{"type":"Feature","properties":{"osm_id":193407124,"timestamp":1364397978,"name":"Kinetherapie","building":"yes"},"geometry":{"type":"Point","coordinates":[29.26205545,-1.70098655]}}
,{"type":"Feature","properties":{"osm_id":193407135,"timestamp":1364397979,"name":"Social Affairs","building":"yes"},"geometry":{"type":"Point","coordinates":[29.261613699999998,-1.7025016499999999]}}
,{"type":"Feature","properties":{"osm_id":193407161,"timestamp":1364397978,"name":"Pharmacy","building":"yes"},"geometry":{"type":"Point","coordinates":[29.261901899999998,-1.7019596]}}
,{"type":"Feature","properties":{"osm_id":193407163,"timestamp":1364397978,"name":"Pediatrie","building":"yes"},"geometry":{"type":"Point","coordinates":[29.26188715,-1.7008839]}}
,{"type":"Feature","properties":{"osm_id":193407176,"timestamp":1544296731,"name":"Hospital Surgery","building":"yes"},"geometry":{"type":"Point","coordinates":[29.262321,-1.7009278]}}
,{"type":"Feature","properties":{"osm_id":193407202,"timestamp":1497637221,"name":"Gender Based Violence Service","building":"yes"},"geometry":{"type":"Point","coordinates":[29.262163649999998,-1.7013923]}}
,{"type":"Feature","properties":{"osm_id":195072407,"timestamp":1600220015,"building":"yes","name":"Centrale hydroélectrique Rusizi I","name:en":"Ruzizi I Hydro Power Plant","name:fr":"Centrale hydroélectrique Rusizi I"},"geometry":{"type":"Point","coordinates":[28.875086449999998,-2.5090433]}}
,{"type":"Feature","properties":{"osm_id":198225790,"timestamp":1468324386,"name":"Cité de la miséricorde","amenity":"childcare","building":"yes"},"geometry":{"type":"Point","coordinates":[28.94796075,-2.6084591]}}
,{"type":"Feature","properties":{"osm_id":198237995,"timestamp":1586437795,"name":"Eglise Catholique Conforti","amenity":"place_of_worship","building":"church"},"geometry":{"type":"Point","coordinates":[28.8673153,-2.5486253000000003]}}
,{"type":"Feature","properties":{"osm_id":198446252,"timestamp":1600220015,"building":"yes","name":"Centrale hydroélectrique Rusizi II","name:en":"Ruzizi II Hydro Power Plant","name:fr":"Centrale hydroélectrique Rusizi II"},"geometry":{"type":"Point","coordinates":[28.9024943,-2.63332625]}}
,{"type":"Feature","properties":{"osm_id":198465127,"timestamp":1356708809,"name":"infini","building":"yes"},"geometry":{"type":"Point","coordinates":[30.0527753,-1.97918295]}}
,{"type":"Feature","properties":{"osm_id":199181981,"timestamp":1586437795,"name":"Eglise 8e CEPAC Mushehe","amenity":"place_of_worship","building":"church"},"geometry":{"type":"Point","coordinates":[28.88765365,-2.4985855499999996]}}
,{"type":"Feature","properties":{"osm_id":201389579,"timestamp":1430317139,"name":"CAR WASH","building":"yes"},"geometry":{"type":"Point","coordinates":[30.07168705,-1.958254]}}
,{"type":"Feature","properties":{"osm_id":206567272,"timestamp":1361476713,"name":"MTN (Technical) Center, Remera","office":"telecommunication","building":"commercial"},"geometry":{"type":"Point","coordinates":[30.117764,-1.95322325]}}
,{"type":"Feature","properties":{"osm_id":206822200,"timestamp":1495008054,"name":"Umudugudu wa Bwiza","building":"yes"},"geometry":{"type":"Point","coordinates":[30.079185,-1.9310755]}}
,{"type":"Feature","properties":{"osm_id":206838249,"timestamp":1361628629,"name":"Merez 2","building":"yes"},"geometry":{"type":"Point","coordinates":[30.076867550000003,-1.97542815]}}
,{"type":"Feature","properties":{"osm_id":206839136,"timestamp":1361628103,"name":"Chez Camarade","building":"yes"},"geometry":{"type":"Point","coordinates":[30.0765111,-1.9746803000000002]}}
,{"type":"Feature","properties":{"osm_id":206839354,"timestamp":1361628441,"name":"Madjengo Mosque","building":"yes"},"geometry":{"type":"Point","coordinates":[30.05835225,-1.9665661]}}
,{"type":"Feature","properties":{"osm_id":206839949,"timestamp":1361628704,"name":"Kibagabaga Cell/Akagali","amenity":"public_building","building":"yes"},"geometry":{"type":"Point","coordinates":[30.11166795,-1.9331774]}}
,{"type":"Feature","properties":{"osm_id":206840891,"timestamp":1361631378,"name":"Cafe de Gikondo","building":"yes"},"geometry":{"type":"Point","coordinates":[30.0778734,-1.97375435]}}
,{"type":"Feature","properties":{"osm_id":206841323,"timestamp":1361629610,"name":"Esperanza Motel","amenity":"public_building","building":"yes"},"geometry":{"type":"Point","coordinates":[30.076661,-1.9759874]}}
,{"type":"Feature","properties":{"osm_id":206841511,"timestamp":1361629771,"name":"Banque Populaire du Rwanda-Kimironko Branch","building":"yes"},"geometry":{"type":"Point","coordinates":[30.12686815,-1.9486995500000002]}}
,{"type":"Feature","properties":{"osm_id":206841746,"timestamp":1361630020,"name":"MONUC","building":"office"},"geometry":{"type":"Point","coordinates":[30.1107225,-1.92991105]}}
,{"type":"Feature","properties":{"osm_id":206842319,"timestamp":1361630323,"name":"Bank of Kigali-Kimironko Branch","building":"yes"},"geometry":{"type":"Point","coordinates":[30.12707605,-1.94809105]}}
,{"type":"Feature","properties":{"osm_id":206842599,"timestamp":1509394628,"name":"Akagali ka Nyagatovu","amenity":"public_building","building":"yes"},"geometry":{"type":"Point","coordinates":[30.1251447,-1.94864865]}}
,{"type":"Feature","properties":{"osm_id":206844347,"timestamp":1361631378,"name":"No Valu Valu","building":"yes"},"geometry":{"type":"Point","coordinates":[30.07769905,-1.9714142]}}
,{"type":"Feature","properties":{"osm_id":206844514,"timestamp":1509394628,"name":"ENGEN Petrol Station","building":"yes"},"geometry":{"type":"Point","coordinates":[30.12458695,-1.9493755]}}
,{"type":"Feature","properties":{"osm_id":206844531,"timestamp":1361631564,"name":"Nyenyeri Bar","shop":"mall","building":"yes"},"geometry":{"type":"Point","coordinates":[30.07664225,-1.9712946]}}
,{"type":"Feature","properties":{"osm_id":206845042,"timestamp":1541833429,"name":"African Muslim Agency Kigali","building":"yes"},"geometry":{"type":"Point","coordinates":[30.043763900000002,-1.9798010499999998]}}
,{"type":"Feature","properties":{"osm_id":206845331,"timestamp":1581541898,"name":"Presbyterian Church","amenity":"place_of_worship","building":"yes"},"geometry":{"type":"Point","coordinates":[30.07456475,-1.96368535]}}
,{"type":"Feature","properties":{"osm_id":210094021,"timestamp":1598864354,"addr:housenumber":"3","addr:street":"KN 33 Street","building":"yes","name":"Ambassade de France","name:en":"Embassy of France","office":"diplomatic"},"geometry":{"type":"Point","coordinates":[30.0666788,-1.9484407]}}
,{"type":"Feature","properties":{"osm_id":212724424,"timestamp":1544296731,"name":"Maternity Neonatology","building":"yes"},"geometry":{"type":"Point","coordinates":[29.262408100000002,-1.7005164499999998]}}
,{"type":"Feature","properties":{"osm_id":212725947,"timestamp":1392407419,"name":"HIV","building":"yes"},"geometry":{"type":"Point","coordinates":[29.262482650000003,-1.70160695]}}
,{"type":"Feature","properties":{"osm_id":212725974,"timestamp":1544303775,"name":"Centre Culturel de Gisenyi","building":"yes"},"geometry":{"type":"Point","coordinates":[29.25972625,-1.7019389]}}
,{"type":"Feature","properties":{"osm_id":213162531,"timestamp":1544296731,"name":"Oper. Theater","building":"yes"},"geometry":{"type":"Point","coordinates":[29.262572849999998,-1.7012608]}}
,{"type":"Feature","properties":{"osm_id":213162532,"timestamp":1544296731,"name":"Labo. and external consultation","building":"yes"},"geometry":{"type":"Point","coordinates":[29.2627484,-1.70099965]}}
,{"type":"Feature","properties":{"osm_id":213162533,"timestamp":1392407419,"name":"Internal Medecine","building":"yes"},"geometry":{"type":"Point","coordinates":[29.262143549999998,-1.70202935]}}
,{"type":"Feature","properties":{"osm_id":213162534,"timestamp":1392407424,"name":"x ray","building":"yes"},"geometry":{"type":"Point","coordinates":[29.262087700000002,-1.70181135]}}
,{"type":"Feature","properties":{"osm_id":214203626,"timestamp":1446125516,"name":"Rubaneura's Luxuries, Apartments","building":"residential"},"geometry":{"type":"Point","coordinates":[30.0788899,-1.9496995]}}
,{"type":"Feature","properties":{"osm_id":214205835,"timestamp":1434042857,"name":"Kobil Gas Station","building":"commercial"},"geometry":{"type":"Point","coordinates":[30.119847749999998,-1.9603150999999999]}}
,{"type":"Feature","properties":{"osm_id":214212933,"timestamp":1364652079,"name":"Spa-soul space","building":"yes"},"geometry":{"type":"Point","coordinates":[30.09878525,-1.9307606499999999]}}
,{"type":"Feature","properties":{"osm_id":214216364,"timestamp":1364652197,"name":"Energy Water and Sanitation Authority","amenity":"public_building","building":"yes"},"geometry":{"type":"Point","coordinates":[30.0574861,-1.9438278]}}
,{"type":"Feature","properties":{"osm_id":214217639,"timestamp":1364652433,"name":"Prince House","building":"office"},"geometry":{"type":"Point","coordinates":[30.1163177,-1.9595532]}}
,{"type":"Feature","properties":{"osm_id":214224972,"timestamp":1364653798,"name":"South Africa High Commission","building":"yes"},"geometry":{"type":"Point","coordinates":[30.08524695,-1.9411912]}}
,{"type":"Feature","properties":{"osm_id":214225187,"timestamp":1364653839,"name":"Mukunzi's Residence","building":"yes"},"geometry":{"type":"Point","coordinates":[30.10568205,-1.97393475]}}
,{"type":"Feature","properties":{"osm_id":214228633,"timestamp":1364654386,"name":"Blue Building","building":"office"},"geometry":{"type":"Point","coordinates":[30.1107981,-1.9586126]}}
,{"type":"Feature","properties":{"osm_id":214229011,"timestamp":1364654379,"name":"Kacyiru Executive Apartment","building":"apartments"},"geometry":{"type":"Point","coordinates":[30.09071855,-1.9451143499999999]}}
,{"type":"Feature","properties":{"osm_id":214233987,"timestamp":1364655190,"name":"Rwanda Education Board","building":"yes","addr:housename":"Rwanda Education Board"},"geometry":{"type":"Point","coordinates":[30.1196798,-1.9504488]}}
,{"type":"Feature","properties":{"osm_id":225705730,"timestamp":1371225956,"name":"Children Might Foundation","building":"office","addr:city":"Rwamagana"},"geometry":{"type":"Point","coordinates":[30.44398305,-1.9482881]}}
,{"type":"Feature","properties":{"osm_id":225705774,"timestamp":1371226082,"name":"Centre for Champions","building":"school","addr:city":"Rwamagana"},"geometry":{"type":"Point","coordinates":[30.444248549999998,-1.9479220499999998]}}
,{"type":"Feature","properties":{"osm_id":225705775,"timestamp":1371226082,"name":"Centre for Champions","building":"school","addr:city":"Rwamagana"},"geometry":{"type":"Point","coordinates":[30.44423865,-1.94762825]}}
,{"type":"Feature","properties":{"osm_id":225706745,"timestamp":1371226639,"name":"Kabare School","building":"school","addr:city":"Rwamagana"},"geometry":{"type":"Point","coordinates":[30.4511624,-1.88801675]}}
,{"type":"Feature","properties":{"osm_id":225706747,"timestamp":1371226639,"name":"Kabare School","building":"school","addr:city":"Rwamagana"},"geometry":{"type":"Point","coordinates":[30.451639999999998,-1.8879427999999998]}}
,{"type":"Feature","properties":{"osm_id":225706748,"timestamp":1371226639,"name":"Kabare School","building":"school","addr:city":"Rwamagana"},"geometry":{"type":"Point","coordinates":[30.45178395,-1.8878070999999998]}}
,{"type":"Feature","properties":{"osm_id":225706750,"timestamp":1371226639,"name":"Kabare School","building":"school","addr:city":"Rwamagana"},"geometry":{"type":"Point","coordinates":[30.45137555,-1.88780835]}}
,{"type":"Feature","properties":{"osm_id":225706751,"timestamp":1371226639,"name":"Nsinda School","building":"school","addr:city":"Rwamagana"},"geometry":{"type":"Point","coordinates":[30.4413393,-1.9006668]}}
,{"type":"Feature","properties":{"osm_id":225706752,"timestamp":1371226639,"name":"Kabare School","building":"school","addr:city":"Rwamagana"},"geometry":{"type":"Point","coordinates":[30.45135685,-1.88815075]}}
,{"type":"Feature","properties":{"osm_id":225706753,"timestamp":1371226639,"name":"Nsinda School","building":"school","addr:city":"Rwamagana"},"geometry":{"type":"Point","coordinates":[30.4415506,-1.8996538]}}
,{"type":"Feature","properties":{"osm_id":225706755,"timestamp":1371226640,"name":"Kabare School","building":"school","addr:city":"Rwamagana"},"geometry":{"type":"Point","coordinates":[30.4511827,-1.8875742500000001]}}
,{"type":"Feature","properties":{"osm_id":225706756,"timestamp":1371226640,"name":"Kabare School","building":"school","addr:city":"Rwamagana"},"geometry":{"type":"Point","coordinates":[30.451690499999998,-1.8872882500000001]}}
,{"type":"Feature","properties":{"osm_id":225707496,"timestamp":1371226964,"name":"Streets Ahead Childrens Centre","building":"residential","addr:city":"Kabarongo"},"geometry":{"type":"Point","coordinates":[30.557338549999997,-2.01210065]}}
,{"type":"Feature","properties":{"osm_id":225707497,"timestamp":1371226964,"name":"Streets Ahead Childrens Centre","building":"residential","addr:city":"Kayonza"},"geometry":{"type":"Point","coordinates":[30.503261000000002,-1.9010596]}}
,{"type":"Feature","properties":{"osm_id":225707498,"timestamp":1371226965,"name":"Streets Ahead Childrens Centre","building":"residential","addr:city":"Kabarongo"},"geometry":{"type":"Point","coordinates":[30.5573995,-2.0122487]}}
,{"type":"Feature","properties":{"osm_id":226572503,"timestamp":1371738351,"name":"Africa Moses House","building":"residential","addr:city":"Rwamagana"},"geometry":{"type":"Point","coordinates":[30.43567655,-1.87251975]}}
,{"type":"Feature","properties":{"osm_id":233513005,"timestamp":1376485905,"name":"Pharmacie Continentale","building":"yes","addr:city":"Kigali"},"geometry":{"type":"Point","coordinates":[30.1083471,-1.9600439]}}
,{"type":"Feature","properties":{"osm_id":233513214,"timestamp":1376485989,"name":"New Artel","building":"yes","addr:city":"Remera, Kigali"},"geometry":{"type":"Point","coordinates":[30.1096078,-1.95963905]}}
,{"type":"Feature","properties":{"osm_id":234998393,"timestamp":1377856652,"name":"Isimbi","tourism":"hotel","building":"yes"},"geometry":{"type":"Point","coordinates":[30.0588288,-1.9493027]}}
,{"type":"Feature","properties":{"osm_id":235645744,"timestamp":1392926264,"name":"Church Ntarama - Genocid Memorial","amenity":"place_of_worship","building":"yes","historic":"memorial"},"geometry":{"type":"Point","coordinates":[30.05000245,-2.1127069]}}
,{"type":"Feature","properties":{"osm_id":236387918,"timestamp":1378206390,"name":"Alimentation shop","shop":"kiosk","building":"yes"},"geometry":{"type":"Point","coordinates":[30.506629,-1.7926528]}}
,{"type":"Feature","properties":{"osm_id":236387926,"timestamp":1378206390,"name":"BUiiding house","building":"residential"},"geometry":{"type":"Point","coordinates":[30.5202877,-1.8208833]}}
,{"type":"Feature","properties":{"osm_id":236387927,"timestamp":1378206390,"name":"BUiiding house","building":"residential"},"geometry":{"type":"Point","coordinates":[30.516182,-1.8161538]}}
,{"type":"Feature","properties":{"osm_id":236387928,"timestamp":1378206390,"name":"Bar","shop":"beverages","building":"yes"},"geometry":{"type":"Point","coordinates":[30.50650775,-1.792779]}}
,{"type":"Feature","properties":{"osm_id":236387973,"timestamp":1378206393,"name":"Hairdresser","shop":"hairdresser","building":"yes"},"geometry":{"type":"Point","coordinates":[30.506354899999998,-1.7929924]}}
,{"type":"Feature","properties":{"osm_id":236387996,"timestamp":1605569504,"building":"mosque","name":"Mosque"},"geometry":{"type":"Point","coordinates":[30.50235265,-1.8040951500000002]}}
,{"type":"Feature","properties":{"osm_id":236388000,"timestamp":1378206399,"name":"Pentecotist church","amenity":"place_of_worship","building":"residential"},"geometry":{"type":"Point","coordinates":[30.50323145,-1.81435605]}}
,{"type":"Feature","properties":{"osm_id":236388007,"timestamp":1378206400,"name":"Rwimishinya","building":"commercial"},"geometry":{"type":"Point","coordinates":[30.4858089,-1.7798660000000002]}}
,{"type":"Feature","properties":{"osm_id":236388023,"timestamp":1430282659,"name":"Maison de Soeurs des Sacrees Coeurs","building":"yes"},"geometry":{"type":"Point","coordinates":[30.5068263,-1.793539]}}
,{"type":"Feature","properties":{"osm_id":236389789,"timestamp":1400097627,"name":"Medal's House","building":"residential"},"geometry":{"type":"Point","coordinates":[30.491067700000002,-1.7828064000000001]}}
,{"type":"Feature","properties":{"osm_id":236389876,"timestamp":1399057427,"name":"Church Catholic St. Francisco Xavier","building":"yes"},"geometry":{"type":"Point","coordinates":[30.505724999999998,-1.7947339]}}
,{"type":"Feature","properties":{"osm_id":236389906,"timestamp":1430068470,"name":"Shrine St. Marie","building":"yes"},"geometry":{"type":"Point","coordinates":[30.50570545,-1.7942874]}}
,{"type":"Feature","properties":{"osm_id":236391807,"timestamp":1378206661,"name":"jovia's home","building":"residential"},"geometry":{"type":"Point","coordinates":[30.5127353,-1.7818775]}}
,{"type":"Feature","properties":{"osm_id":236391808,"timestamp":1378206661,"name":"kagwisage's home","building":"residential"},"geometry":{"type":"Point","coordinates":[30.51175825,-1.7853605]}}
,{"type":"Feature","properties":{"osm_id":236391822,"timestamp":1378206664,"name":"small toillet","building":"residential"},"geometry":{"type":"Point","coordinates":[30.5152868,-1.8072626999999999]}}
,{"type":"Feature","properties":{"osm_id":236391874,"timestamp":1378210444,"name":"Church","amenity":"place_of_worship","building":"yes"},"geometry":{"type":"Point","coordinates":[30.497177450000002,-1.8049807]}}
,{"type":"Feature","properties":{"osm_id":236391908,"timestamp":1379716752,"name":"rwinkuba bucher","shop":"butcher","building":"yes"},"geometry":{"type":"Point","coordinates":[30.51522405,-1.8083766]}}
,{"type":"Feature","properties":{"osm_id":236533780,"timestamp":1378290675,"name":"Rukara's Sector Building","amenity":"townhall","building":"yes"},"geometry":{"type":"Point","coordinates":[30.50525825,-1.7997431499999998]}}
,{"type":"Feature","properties":{"osm_id":236533781,"timestamp":1378290675,"name":"Rukara's Sector Courthouse","amenity":"courthouse","building":"yes"},"geometry":{"type":"Point","coordinates":[30.5047964,-1.79947185]}}
,{"type":"Feature","properties":{"osm_id":237249231,"timestamp":1378738081,"name":"farm","building":"farm"},"geometry":{"type":"Point","coordinates":[29.720882,-2.593509]}}
,{"type":"Feature","properties":{"osm_id":237255496,"timestamp":1378739638,"name":"ENDP Karubanda","building":"school"},"geometry":{"type":"Point","coordinates":[29.7427104,-2.5938092]}}
,{"type":"Feature","properties":{"osm_id":237255504,"timestamp":1433261730,"name":"Soeurs Oblates du saint Esprit","building":"house","addr:street":"Girinka","addr:housenumber":"072"},"geometry":{"type":"Point","coordinates":[29.7485486,-2.5983338]}}
,{"type":"Feature","properties":{"osm_id":237255505,"timestamp":1457262002,"name":"Emmaus Hostel","tourism":"hotel","building":"commercial","addr:street":"Indatwa Street","addr:housenumber":"00"},"geometry":{"type":"Point","coordinates":[29.7450701,-2.5942488]}}
,{"type":"Feature","properties":{"osm_id":237255508,"timestamp":1433261707,"name":"Elena Guerra","amenity":"school","building":"residential","addr:street":"Ubwuzuzanye"},"geometry":{"type":"Point","coordinates":[29.74758635,-2.59895245]}}
,{"type":"Feature","properties":{"osm_id":237255509,"timestamp":1433261729,"name":"School centre scolaire Elena Guerra","building":"residential","addr:street":"Ubwuzuzanye","addr:housenumber":"071"},"geometry":{"type":"Point","coordinates":[29.747608550000002,-2.5984613000000003]}}
,{"type":"Feature","properties":{"osm_id":237255646,"timestamp":1433261730,"name":"Soeurs de la Vierge Marie du Mont Carmel","amenity":"community_centre","building":"house"},"geometry":{"type":"Point","coordinates":[29.7515541,-2.5974767500000002]}}
,{"type":"Feature","properties":{"osm_id":237255694,"timestamp":1433261729,"name":"Petit Prince","building":"commercial","addr:street":"Taba Road"},"geometry":{"type":"Point","coordinates":[29.74771445,-2.59275835]}}
,{"type":"Feature","properties":{"osm_id":237255711,"timestamp":1433261705,"name":"Bergium Common TVE T","amenity":"office","building":"house","addr:street":"Buye Avenue"},"geometry":{"type":"Point","coordinates":[29.74787705,-2.5944097499999996]}}
,{"type":"Feature","properties":{"osm_id":237255763,"timestamp":1433261729,"name":"Quick Star service Rwanda","amenity":"office","building":"commercial","addr:street":"No name","addr:housenumber":"00"},"geometry":{"type":"Point","coordinates":[29.751978049999998,-2.5961832]}}
,{"type":"Feature","properties":{"osm_id":237255765,"timestamp":1433261706,"name":"Ecole international Des Parents Des Butare","amenity":"school","building":"commercial","addr:street":"Street02","addr:housenumber":"B03"},"geometry":{"type":"Point","coordinates":[29.75065285,-2.59329935]}}
,{"type":"Feature","properties":{"osm_id":237255807,"timestamp":1433261729,"name":"Shop","amenity":"bank","building":"house","addr:street":"Huye road","addr:housenumber":"02"},"geometry":{"type":"Point","coordinates":[29.743222199999998,-2.5951046]}}
,{"type":"Feature","properties":{"osm_id":237256550,"timestamp":1433261729,"name":"Police Station","amenity":"police","building":"house","addr:street":"Taba Road"},"geometry":{"type":"Point","coordinates":[29.74777405,-2.5931143]}}
,{"type":"Feature","properties":{"osm_id":237256551,"timestamp":1433261729,"name":"Petit Prince","building":"commercial","addr:street":"Taba Road"},"geometry":{"type":"Point","coordinates":[29.74767395,-2.5935975]}}
,{"type":"Feature","properties":{"osm_id":237256588,"timestamp":1433261729,"name":"PIASS","amenity":"school","building":"house","addr:street":"Taba Road"},"geometry":{"type":"Point","coordinates":[29.749200350000002,-2.59428595]}}
,{"type":"Feature","properties":{"osm_id":237256595,"timestamp":1433261705,"name":"B1","amenity":"school","building":"house","addr:street":"Street1","addr:housenumber":"B01"},"geometry":{"type":"Point","coordinates":[29.75017275,-2.5941328500000003]}}
,{"type":"Feature","properties":{"osm_id":245550099,"timestamp":1384125805,"name":"Groupe Scolaire Rambura-Fille","amenity":"school","building":"yes"},"geometry":{"type":"Point","coordinates":[29.5205124,-1.67967325]}}
,{"type":"Feature","properties":{"osm_id":245552334,"timestamp":1384127222,"name":"Parish of Rambura","amenity":"place_of_worship","building":"yes"},"geometry":{"type":"Point","coordinates":[29.5231346,-1.68101795]}}
,{"type":"Feature","properties":{"osm_id":245552335,"timestamp":1384127115,"name":"Groupe Scolaire St Raphael Rambura","amenity":"school","building":"yes"},"geometry":{"type":"Point","coordinates":[29.52193835,-1.6788731]}}
,{"type":"Feature","properties":{"osm_id":245553179,"timestamp":1384127594,"name":"Groupe Scolaire Rambura Garcons","amenity":"school","building":"yes"},"geometry":{"type":"Point","coordinates":[29.5258435,-1.6821869]}}
,{"type":"Feature","properties":{"osm_id":247095896,"timestamp":1384895401,"name":"United Christian Church (UCC)","amenity":"place_of_worship","building":"yes"},"geometry":{"type":"Point","coordinates":[30.11370165,-1.96998805]}}
,{"type":"Feature","properties":{"osm_id":260588308,"timestamp":1391857985,"name":"Rest Hut","building":"yes"},"geometry":{"type":"Point","coordinates":[29.4864732,-1.4738182499999999]}}
,{"type":"Feature","properties":{"osm_id":260588323,"timestamp":1391857987,"name":"Tracker Hut","building":"yes","historic":"ruins"},"geometry":{"type":"Point","coordinates":[29.48556385,-1.47375275]}}
,{"type":"Feature","properties":{"osm_id":260588324,"timestamp":1581236486,"name":"Virunga Lodge","tourism":"hotel","building":"yes"},"geometry":{"type":"Point","coordinates":[29.7413825,-1.446941]}}
,{"type":"Feature","properties":{"osm_id":261593763,"timestamp":1528291278,"name":"Iposita","amenity":"post_office","building":"yes","addr:city":"Gisenyi"},"geometry":{"type":"Point","coordinates":[29.25654285,-1.69902355]}}
,{"type":"Feature","properties":{"osm_id":261808346,"timestamp":1392535530,"name":"Craft Shop","shop":"department_store","building":"yes"},"geometry":{"type":"Point","coordinates":[29.636088700000002,-1.56079725]}}
,{"type":"Feature","properties":{"osm_id":262440403,"timestamp":1392836094,"name":"Chez John","amenity":"restaurant","building":"yes"},"geometry":{"type":"Point","coordinates":[30.0699664,-1.9574106]}}
,{"type":"Feature","properties":{"osm_id":262441808,"timestamp":1392836804,"name":"Nyamata Church - Genocide Memorial","amenity":"place_of_worship","building":"yes","historic":"memorial"},"geometry":{"type":"Point","coordinates":[30.09377285,-2.14897085]}}
,{"type":"Feature","properties":{"osm_id":262676419,"timestamp":1550595496,"name":"Presidental Palace Museum","name:en":"Rwanda Art Museum (former Presidential Palace)","tourism":"museum","building":"yes"},"geometry":{"type":"Point","coordinates":[30.173022500000002,-1.97528515]}}
,{"type":"Feature","properties":{"osm_id":262729128,"timestamp":1393004006,"name":"Rwanda National Police","amenity":"police","building":"yes"},"geometry":{"type":"Point","coordinates":[29.637337600000002,-1.51310905]}}
,{"type":"Feature","properties":{"osm_id":262746734,"timestamp":1393008626,"name":"Border Control","amenity":"police","building":"yes"},"geometry":{"type":"Point","coordinates":[29.74072075,-1.3416942]}}
,{"type":"Feature","properties":{"osm_id":262746783,"timestamp":1532346614,"name":"Uganda Police","amenity":"police","building":"yes"},"geometry":{"type":"Point","coordinates":[29.739761899999998,-1.3404280499999999]}}
,{"type":"Feature","properties":{"osm_id":275847161,"timestamp":1398036314,"name":"Libyan Embaasy","building":"office"},"geometry":{"type":"Point","coordinates":[30.086259249999998,-1.94236005]}}
,{"type":"Feature","properties":{"osm_id":275880667,"timestamp":1589195247,"name":"Inema Arts Center","amenity":"arts_centre","building":"yes"},"geometry":{"type":"Point","coordinates":[30.0908302,-1.9442699]}}
,{"type":"Feature","properties":{"osm_id":304384502,"timestamp":1411308735,"name":"Manor Hotel","building":"hotel"},"geometry":{"type":"Point","coordinates":[30.097530149999997,-1.93241895]}}
,{"type":"Feature","properties":{"osm_id":306137038,"timestamp":1430998269,"name":"Church Pentecontist","building":"yes"},"geometry":{"type":"Point","coordinates":[30.5020295,-1.80469025]}}
,{"type":"Feature","properties":{"osm_id":306137601,"timestamp":1574924410,"name":"Creamery - Milk Production","building":"yes"},"geometry":{"type":"Point","coordinates":[30.486414449999998,-1.78110085]}}
,{"type":"Feature","properties":{"osm_id":306141441,"timestamp":1426657695,"name":"cows' Farm","building":"yes"},"geometry":{"type":"Point","coordinates":[30.5176008,-1.82245365]}}
,{"type":"Feature","properties":{"osm_id":306833356,"timestamp":1412774564,"name":"Rz Manna","shop":"bakery","building":"yes"},"geometry":{"type":"Point","coordinates":[30.1036155,-1.9501658499999999]}}
,{"type":"Feature","properties":{"osm_id":306837588,"timestamp":1412776623,"name":"Kobil","amenity":"fuel","building":"yes"},"geometry":{"type":"Point","coordinates":[30.0972816,-1.9256073]}}
,{"type":"Feature","properties":{"osm_id":307168956,"timestamp":1430906505,"name":"Rutobwe Primary School","amenity":"school","building":"yes"},"geometry":{"type":"Point","coordinates":[29.601165100000003,-2.7836429999999996]}}
,{"type":"Feature","properties":{"osm_id":307168989,"timestamp":1446135688,"name":"Rutobwe Primary School","amenity":"school","building":"yes"},"geometry":{"type":"Point","coordinates":[29.60083145,-2.78334835]}}
,{"type":"Feature","properties":{"osm_id":307243413,"timestamp":1433276666,"name":"Cow house","building":"house"},"geometry":{"type":"Point","coordinates":[29.598355849999997,-2.7718274999999997]}}
,{"type":"Feature","properties":{"osm_id":307243599,"timestamp":1433261765,"name":"center of shops","building":"commercial","addr:street":"Rutobwe"},"geometry":{"type":"Point","coordinates":[29.60695185,-2.7671286000000004]}}
,{"type":"Feature","properties":{"osm_id":307243610,"timestamp":1433261731,"name":"boucher","building":"commercial","addr:street":"KIbumba"},"geometry":{"type":"Point","coordinates":[29.604208999999997,-2.7658566]}}
,{"type":"Feature","properties":{"osm_id":307243646,"timestamp":1433261731,"name":"boucher","building":"commercial","addr:street":"Kibumba"},"geometry":{"type":"Point","coordinates":[29.60425755,-2.765959]}}
,{"type":"Feature","properties":{"osm_id":307243665,"timestamp":1433261766,"name":"cow house","building":"house"},"geometry":{"type":"Point","coordinates":[29.5986149,-2.7714637499999997]}}
,{"type":"Feature","properties":{"osm_id":307243676,"timestamp":1433261706,"name":"Center of shops","building":"commercial","addr:street":"Rutobwe"},"geometry":{"type":"Point","coordinates":[29.606719,-2.7675362]}}
,{"type":"Feature","properties":{"osm_id":307243684,"timestamp":1433261730,"name":"Toilet","building":"house"},"geometry":{"type":"Point","coordinates":[29.599071549999998,-2.77130435]}}
,{"type":"Feature","properties":{"osm_id":307243694,"timestamp":1433261728,"name":"New center market","building":"construction","addr:street":"Rutobwe"},"geometry":{"type":"Point","coordinates":[29.60637585,-2.76757415]}}
,{"type":"Feature","properties":{"osm_id":307243733,"timestamp":1433261706,"name":"Dispensaire Umushumba","amenity":"clinic","building":"commercial","addr:street":"Rutobwe"},"geometry":{"type":"Point","coordinates":[29.60580505,-2.7679189500000003]}}
,{"type":"Feature","properties":{"osm_id":307243741,"timestamp":1433276668,"name":"Toilet,bathing room","building":"house"},"geometry":{"type":"Point","coordinates":[29.5980705,-2.77182435]}}
,{"type":"Feature","properties":{"osm_id":307243747,"timestamp":1433261730,"name":"Viro center market","building":"commercial","addr:street":"Kibumba"},"geometry":{"type":"Point","coordinates":[29.605475149999997,-2.76759515]}}
,{"type":"Feature","properties":{"osm_id":307387818,"timestamp":1433261769,"name":"house","building":"house","addr:street":"Saburunduru","addr:housenumber":"092"},"geometry":{"type":"Point","coordinates":[29.60797445,-2.7563515499999998]}}
,{"type":"Feature","properties":{"osm_id":307387855,"timestamp":1433261767,"name":"house","building":"house","addr:street":"Saburunduru","addr:housenumber":"089"},"geometry":{"type":"Point","coordinates":[29.605756900000003,-2.75654115]}}
,{"type":"Feature","properties":{"osm_id":307387889,"timestamp":1433261767,"name":"house","building":"house","addr:street":"Saburunduru","addr:housenumber":"095"},"geometry":{"type":"Point","coordinates":[29.607733349999997,-2.7563523500000002]}}
,{"type":"Feature","properties":{"osm_id":307391336,"timestamp":1433276712,"name":"x","building":"house"},"geometry":{"type":"Point","coordinates":[29.59568575,-2.77080605]}}
,{"type":"Feature","properties":{"osm_id":309319342,"timestamp":1414100519,"name":"Centre Saint-André","building":"yes"},"geometry":{"type":"Point","coordinates":[29.75175505,-2.0994007]}}
,{"type":"Feature","properties":{"osm_id":309411988,"timestamp":1433275111,"name":"convent","amenity":"place_of_worship","building":"yes"},"geometry":{"type":"Point","coordinates":[29.61043035,-2.7410910499999996]}}
,{"type":"Feature","properties":{"osm_id":309411989,"timestamp":1433275071,"name":"Cyahinda primary school","amenity":"school","building":"yes"},"geometry":{"type":"Point","coordinates":[29.609197100000003,-2.73960355]}}
,{"type":"Feature","properties":{"osm_id":309412005,"timestamp":1433275066,"name":"Cyahinda Secondary School","amenity":"school","building":"yes"},"geometry":{"type":"Point","coordinates":[29.610952949999998,-2.7409324]}}
,{"type":"Feature","properties":{"osm_id":309412007,"timestamp":1433275067,"name":"Cyahinda Secondary School","amenity":"school","building":"yes"},"geometry":{"type":"Point","coordinates":[29.61321255,-2.74317275]}}
,{"type":"Feature","properties":{"osm_id":309412012,"timestamp":1433275068,"name":"Cyahinda Secondary School","amenity":"school","building":"yes"},"geometry":{"type":"Point","coordinates":[29.6128842,-2.74248715]}}
,{"type":"Feature","properties":{"osm_id":309412013,"timestamp":1433275068,"name":"Cyahinda Secondary School","amenity":"school","building":"yes"},"geometry":{"type":"Point","coordinates":[29.61129125,-2.74092615]}}
,{"type":"Feature","properties":{"osm_id":309412018,"timestamp":1433275071,"name":"Cyahinda primary school","amenity":"school","building":"yes"},"geometry":{"type":"Point","coordinates":[29.60909375,-2.740004]}}
,{"type":"Feature","properties":{"osm_id":309412022,"timestamp":1433275068,"name":"Cyahinda Secondary School","amenity":"school","building":"yes"},"geometry":{"type":"Point","coordinates":[29.6135822,-2.7428145]}}
,{"type":"Feature","properties":{"osm_id":309412036,"timestamp":1433275068,"name":"Cyahinda Secondary School","amenity":"school","building":"yes"},"geometry":{"type":"Point","coordinates":[29.6114962,-2.74155025]}}
,{"type":"Feature","properties":{"osm_id":309412040,"timestamp":1433275110,"name":"convent","amenity":"place_of_worship","building":"yes"},"geometry":{"type":"Point","coordinates":[29.610338,-2.74102]}}
,{"type":"Feature","properties":{"osm_id":309412051,"timestamp":1433275111,"name":"convent","amenity":"place_of_worship","building":"yes"},"geometry":{"type":"Point","coordinates":[29.6095871,-2.740452]}}
,{"type":"Feature","properties":{"osm_id":309412053,"timestamp":1433275067,"name":"Cyahinda Secondary School","amenity":"school","building":"yes"},"geometry":{"type":"Point","coordinates":[29.6121018,-2.740156]}}
,{"type":"Feature","properties":{"osm_id":309412056,"timestamp":1433275111,"name":"convent","amenity":"place_of_worship","building":"yes"},"geometry":{"type":"Point","coordinates":[29.609698700000003,-2.74053835]}}
,{"type":"Feature","properties":{"osm_id":309412058,"timestamp":1433275112,"name":"convent","amenity":"place_of_worship","building":"yes"},"geometry":{"type":"Point","coordinates":[29.6098821,-2.74128685]}}
,{"type":"Feature","properties":{"osm_id":309412063,"timestamp":1433275067,"name":"Cyahinda Secondary School","amenity":"school","building":"yes"},"geometry":{"type":"Point","coordinates":[29.610742899999998,-2.7411066]}}
,{"type":"Feature","properties":{"osm_id":309412067,"timestamp":1433275111,"name":"convent","amenity":"place_of_worship","building":"yes"},"geometry":{"type":"Point","coordinates":[29.61052955,-2.74108]}}
,{"type":"Feature","properties":{"osm_id":309412078,"timestamp":1433275071,"name":"Cyahinda primary school","amenity":"school","building":"yes"},"geometry":{"type":"Point","coordinates":[29.60889425,-2.7396758500000002]}}
,{"type":"Feature","properties":{"osm_id":309412091,"timestamp":1433275069,"name":"Cyahinda Secondary School","amenity":"school","building":"yes"},"geometry":{"type":"Point","coordinates":[29.61226735,-2.74204945]}}
,{"type":"Feature","properties":{"osm_id":309412094,"timestamp":1433275069,"name":"Cyahinda Secondary School","amenity":"school","building":"yes"},"geometry":{"type":"Point","coordinates":[29.611266649999997,-2.74075975]}}
,{"type":"Feature","properties":{"osm_id":309412106,"timestamp":1433275068,"name":"Cyahinda Secondary School","amenity":"toilets","building":"yes"},"geometry":{"type":"Point","coordinates":[29.611343050000002,-2.74165555]}}
,{"type":"Feature","properties":{"osm_id":309412122,"timestamp":1433275110,"name":"convent","building":"yes"},"geometry":{"type":"Point","coordinates":[29.609118000000002,-2.7413664]}}
,{"type":"Feature","properties":{"osm_id":309412124,"timestamp":1433275071,"name":"Cyahinda primary school","amenity":"school","building":"yes"},"geometry":{"type":"Point","coordinates":[29.6092612,-2.7396667]}}
,{"type":"Feature","properties":{"osm_id":309412126,"timestamp":1433275110,"name":"convent","amenity":"place_of_worship","building":"yes"},"geometry":{"type":"Point","coordinates":[29.6105121,-2.74146075]}}
,{"type":"Feature","properties":{"osm_id":309412128,"timestamp":1433275110,"name":"convent","amenity":"place_of_worship","building":"yes"},"geometry":{"type":"Point","coordinates":[29.6098867,-2.7401455500000003]}}
,{"type":"Feature","properties":{"osm_id":309412131,"timestamp":1433275065,"name":"Cyahinda Secondary School","amenity":"school","building":"yes"},"geometry":{"type":"Point","coordinates":[29.6137378,-2.7432401]}}
,{"type":"Feature","properties":{"osm_id":309412138,"timestamp":1433275067,"name":"Cyahinda Secondary School","amenity":"school","building":"yes"},"geometry":{"type":"Point","coordinates":[29.61345085,-2.7424846]}}
,{"type":"Feature","properties":{"osm_id":309412142,"timestamp":1433275068,"name":"Cyahinda Secondary School","amenity":"school","building":"yes"},"geometry":{"type":"Point","coordinates":[29.61358645,-2.7431145]}}
,{"type":"Feature","properties":{"osm_id":309412148,"timestamp":1433275069,"name":"Cyahinda Secondary School","amenity":"school","building":"yes"},"geometry":{"type":"Point","coordinates":[29.6128449,-2.7429049]}}
,{"type":"Feature","properties":{"osm_id":309412155,"timestamp":1433275110,"name":"convent","amenity":"place_of_worship","building":"yes"},"geometry":{"type":"Point","coordinates":[29.610215850000003,-2.7409717000000002]}}
,{"type":"Feature","properties":{"osm_id":309412164,"timestamp":1433275110,"name":"convent","amenity":"place_of_worship","building":"yes"},"geometry":{"type":"Point","coordinates":[29.60980045,-2.7403617000000002]}}
,{"type":"Feature","properties":{"osm_id":309412167,"timestamp":1433275111,"name":"convent","amenity":"place_of_worship","building":"yes"},"geometry":{"type":"Point","coordinates":[29.60949325,-2.7406206]}}
,{"type":"Feature","properties":{"osm_id":309412171,"timestamp":1433275067,"name":"Cyahinda Secondary School","amenity":"school","building":"yes"},"geometry":{"type":"Point","coordinates":[29.6108857,-2.74127525]}}
,{"type":"Feature","properties":{"osm_id":309412172,"timestamp":1433275112,"name":"convent","amenity":"place_of_worship","building":"yes"},"geometry":{"type":"Point","coordinates":[29.61022225,-2.74138895]}}
,{"type":"Feature","properties":{"osm_id":309412179,"timestamp":1433275066,"name":"Cyahinda Secondary School","amenity":"school","building":"yes"},"geometry":{"type":"Point","coordinates":[29.610786750000003,-2.7411404499999996]}}
,{"type":"Feature","properties":{"osm_id":309412182,"timestamp":1433275066,"name":"Cyahinda Secondary School","amenity":"school","building":"yes"},"geometry":{"type":"Point","coordinates":[29.612727149999998,-2.7426603]}}
,{"type":"Feature","properties":{"osm_id":309412183,"timestamp":1433275067,"name":"Cyahinda Secondary School","amenity":"school","building":"yes"},"geometry":{"type":"Point","coordinates":[29.61167785,-2.74065555]}}
,{"type":"Feature","properties":{"osm_id":309412189,"timestamp":1433275071,"name":"Cyahinda primary school","amenity":"school","building":"yes"},"geometry":{"type":"Point","coordinates":[29.6089294,-2.7398386]}}
,{"type":"Feature","properties":{"osm_id":309412193,"timestamp":1433275066,"name":"Cyahinda Secondary School","amenity":"school","building":"yes"},"geometry":{"type":"Point","coordinates":[29.61101555,-2.7409317499999997]}}
,{"type":"Feature","properties":{"osm_id":309412196,"timestamp":1433275066,"name":"Cyahinda Secondary School","amenity":"school","building":"yes"},"geometry":{"type":"Point","coordinates":[29.61235715,-2.74013595]}}
,{"type":"Feature","properties":{"osm_id":309412200,"timestamp":1433275068,"name":"Cyahinda Secondary School","amenity":"school","building":"yes"},"geometry":{"type":"Point","coordinates":[29.6122091,-2.7420761999999996]}}
,{"type":"Feature","properties":{"osm_id":309412205,"timestamp":1433275069,"name":"Cyahinda Secondary School","amenity":"school","building":"yes"},"geometry":{"type":"Point","coordinates":[29.6111035,-2.7407819]}}
,{"type":"Feature","properties":{"osm_id":309412212,"timestamp":1433275067,"name":"Cyahinda Secondary School","amenity":"school","building":"yes"},"geometry":{"type":"Point","coordinates":[29.613749900000002,-2.74315075]}}
,{"type":"Feature","properties":{"osm_id":309412220,"timestamp":1433275066,"name":"Cyahinda Secondary School","amenity":"toilets","building":"yes"},"geometry":{"type":"Point","coordinates":[29.6112699,-2.741643]}}
,{"type":"Feature","properties":{"osm_id":309412227,"timestamp":1433275067,"name":"Cyahinda Secondary School","amenity":"school","building":"yes"},"geometry":{"type":"Point","coordinates":[29.61228755,-2.74197635]}}
,{"type":"Feature","properties":{"osm_id":309412236,"timestamp":1433275070,"name":"Cyahinda Secondary School","amenity":"school","building":"yes"},"geometry":{"type":"Point","coordinates":[29.6109367,-2.74107185]}}
,{"type":"Feature","properties":{"osm_id":309412237,"timestamp":1433275070,"name":"Cyahinda Secondary School","amenity":"school","building":"yes"},"geometry":{"type":"Point","coordinates":[29.6120871,-2.7409014]}}
,{"type":"Feature","properties":{"osm_id":309412240,"timestamp":1433275069,"name":"Cyahinda Secondary School","amenity":"school","building":"yes"},"geometry":{"type":"Point","coordinates":[29.61113945,-2.74111615]}}
,{"type":"Feature","properties":{"osm_id":309412241,"timestamp":1433275070,"name":"Cyahinda Secondary School","amenity":"school","building":"yes"},"geometry":{"type":"Point","coordinates":[29.6111773,-2.7414825]}}
,{"type":"Feature","properties":{"osm_id":309412245,"timestamp":1433275112,"name":"convent","amenity":"place_of_worship","building":"yes"},"geometry":{"type":"Point","coordinates":[29.610566300000002,-2.7412373]}}
,{"type":"Feature","properties":{"osm_id":309412247,"timestamp":1433275070,"name":"Cyahinda Secondary School","amenity":"school","building":"yes"},"geometry":{"type":"Point","coordinates":[29.61189885,-2.74152395]}}
,{"type":"Feature","properties":{"osm_id":309412250,"timestamp":1433275069,"name":"Cyahinda Secondary School","amenity":"school","building":"yes"},"geometry":{"type":"Point","coordinates":[29.6113051,-2.74112905]}}
,{"type":"Feature","properties":{"osm_id":309412253,"timestamp":1433275069,"name":"Cyahinda Secondary School","amenity":"school","building":"yes"},"geometry":{"type":"Point","coordinates":[29.6122158,-2.74061865]}}
,{"type":"Feature","properties":{"osm_id":309412254,"timestamp":1433275070,"name":"Cyahinda Secondary School","amenity":"school","building":"yes"},"geometry":{"type":"Point","coordinates":[29.6105291,-2.7417155500000003]}}
,{"type":"Feature","properties":{"osm_id":309412256,"timestamp":1433275070,"name":"Cyahinda Secondary School","amenity":"school","building":"yes"},"geometry":{"type":"Point","coordinates":[29.611955299999998,-2.7405155]}}
,{"type":"Feature","properties":{"osm_id":309412257,"timestamp":1433275070,"name":"Cyahinda Secondary School","amenity":"school","building":"yes"},"geometry":{"type":"Point","coordinates":[29.6112484,-2.74082595]}}
,{"type":"Feature","properties":{"osm_id":309412258,"timestamp":1433275112,"name":"convent","amenity":"place_of_worship","building":"yes"},"geometry":{"type":"Point","coordinates":[29.6104513,-2.7413555]}}
,{"type":"Feature","properties":{"osm_id":309412260,"timestamp":1433275071,"name":"Cyahinda Secondary School","amenity":"school","building":"yes"},"geometry":{"type":"Point","coordinates":[29.611333000000002,-2.7410168500000003]}}
,{"type":"Feature","properties":{"osm_id":309412261,"timestamp":1433260133,"name":"cyahinda secondary school","amenity":"school","building":"yes"},"geometry":{"type":"Point","coordinates":[29.612347149999998,-2.741195]}}
,{"type":"Feature","properties":{"osm_id":309412262,"timestamp":1433275112,"name":"convent","amenity":"place_of_worship","building":"yes"},"geometry":{"type":"Point","coordinates":[29.6098226,-2.7409112]}}
,{"type":"Feature","properties":{"osm_id":309412265,"timestamp":1433275071,"name":"Cyahinda Secondary School","amenity":"school","building":"yes"},"geometry":{"type":"Point","coordinates":[29.6122459,-2.7423414]}}
,{"type":"Feature","properties":{"osm_id":309412268,"timestamp":1433275071,"name":"Cyahinda Secondary School","amenity":"school","building":"yes"},"geometry":{"type":"Point","coordinates":[29.61334645,-2.74279375]}}
,{"type":"Feature","properties":{"osm_id":310024752,"timestamp":1418911194,"name":"Prince House","building":"commercial","addr:city":"Remera / Kigali","addr:street":"KN 3 Rd"},"geometry":{"type":"Point","coordinates":[30.11609715,-1.9597457]}}
,{"type":"Feature","properties":{"osm_id":310024759,"timestamp":1538339916,"name":"Kingdom Hall of Jehovah's Witnesses, Remera","building":"yes"},"geometry":{"type":"Point","coordinates":[30.1132998,-1.9583848499999998]}}
,{"type":"Feature","properties":{"osm_id":312727991,"timestamp":1415955597,"name":"Restaurant","amenity":"restaurant","building":"yes"},"geometry":{"type":"Point","coordinates":[30.127772399999998,-1.94705365]}}
,{"type":"Feature","properties":{"osm_id":312817494,"timestamp":1433260002,"name":"Group Scolaire Muhambara","amenity":"school","building":"yes"},"geometry":{"type":"Point","coordinates":[29.590003099999997,-2.77230025]}}
,{"type":"Feature","properties":{"osm_id":312817496,"timestamp":1554196039,"name":"Group Scolaire Muhambara","amenity":"school","building":"yes"},"geometry":{"type":"Point","coordinates":[29.5904791,-2.7724107499999997]}}
,{"type":"Feature","properties":{"osm_id":312817497,"timestamp":1433260002,"name":"Group Scolaire Muhambara","amenity":"school","building":"yes"},"geometry":{"type":"Point","coordinates":[29.590036650000002,-2.7720739]}}
,{"type":"Feature","properties":{"osm_id":312817500,"timestamp":1433260003,"name":"Group Scolaire Muhambara","amenity":"school","building":"yes"},"geometry":{"type":"Point","coordinates":[29.59099545,-2.7724024]}}
,{"type":"Feature","properties":{"osm_id":314292385,"timestamp":1603480460,"building":"temple","name":"worship"},"geometry":{"type":"Point","coordinates":[29.57619825,-2.78716295]}}
,{"type":"Feature","properties":{"osm_id":314299296,"timestamp":1561613060,"name":"residential","building":"house"},"geometry":{"type":"Point","coordinates":[29.5565875,-2.77156085]}}
,{"type":"Feature","properties":{"osm_id":314299297,"timestamp":1416858672,"name":"Residential","building":"house"},"geometry":{"type":"Point","coordinates":[29.55586865,-2.7716211]}}
,{"type":"Feature","properties":{"osm_id":314299298,"timestamp":1416858672,"name":"Residential","building":"house"},"geometry":{"type":"Point","coordinates":[29.556264249999998,-2.7717590999999997]}}
,{"type":"Feature","properties":{"osm_id":314299922,"timestamp":1416858832,"name":"Residential","building":"house"},"geometry":{"type":"Point","coordinates":[29.5560799,-2.7716017]}}
,{"type":"Feature","properties":{"osm_id":314300659,"timestamp":1416858953,"name":"Residential","building":"house"},"geometry":{"type":"Point","coordinates":[29.5547998,-2.77069955]}}
,{"type":"Feature","properties":{"osm_id":314300661,"timestamp":1416858953,"name":"Residential","building":"house"},"geometry":{"type":"Point","coordinates":[29.554468550000003,-2.7710090000000003]}}
,{"type":"Feature","properties":{"osm_id":314301413,"timestamp":1416859197,"name":"Residential","building":"house"},"geometry":{"type":"Point","coordinates":[29.55529735,-2.76931845]}}
,{"type":"Feature","properties":{"osm_id":314301414,"timestamp":1416860884,"name":"Residential","building":"house"},"geometry":{"type":"Point","coordinates":[29.55628035,-2.7678208499999997]}}
,{"type":"Feature","properties":{"osm_id":314302328,"timestamp":1416859508,"name":"Residential","building":"house"},"geometry":{"type":"Point","coordinates":[29.555682249999997,-2.76825755]}}
,{"type":"Feature","properties":{"osm_id":314302330,"timestamp":1416859508,"name":"Residential","building":"house"},"geometry":{"type":"Point","coordinates":[29.55616105,-2.7678713999999998]}}
,{"type":"Feature","properties":{"osm_id":314304265,"timestamp":1416860739,"name":"Residential","building":"house"},"geometry":{"type":"Point","coordinates":[29.55602355,-2.76819255]}}
,{"type":"Feature","properties":{"osm_id":314304267,"timestamp":1416860963,"name":"Residential","building":"house"},"geometry":{"type":"Point","coordinates":[29.5565218,-2.7681503999999997]}}
,{"type":"Feature","properties":{"osm_id":314304268,"timestamp":1416859708,"name":"Residential","building":"house"},"geometry":{"type":"Point","coordinates":[29.556576749999998,-2.7678510000000003]}}
,{"type":"Feature","properties":{"osm_id":314304635,"timestamp":1416859818,"name":"Residential","building":"house"},"geometry":{"type":"Point","coordinates":[29.5564279,-2.7676895]}}
,{"type":"Feature","properties":{"osm_id":314304906,"timestamp":1433261767,"name":"house","building":"house"},"geometry":{"type":"Point","coordinates":[29.60020015,-2.75230655]}}
,{"type":"Feature","properties":{"osm_id":314305959,"timestamp":1433276711,"name":"house","building":"house","addr:street":"Saburunduru","addr:housenumber":"102"},"geometry":{"type":"Point","coordinates":[29.60331695,-2.75056235]}}
,{"type":"Feature","properties":{"osm_id":314306035,"timestamp":1433261769,"name":"house","building":"house","addr:street":"Saburunduru","addr:housenumber":"102"},"geometry":{"type":"Point","coordinates":[29.603071,-2.75049375]}}
,{"type":"Feature","properties":{"osm_id":314306489,"timestamp":1433261769,"name":"house","building":"house","addr:street":"Saburunduru","addr:housenumber":"104"},"geometry":{"type":"Point","coordinates":[29.602867,-2.75125545]}}
,{"type":"Feature","properties":{"osm_id":314306494,"timestamp":1433276711,"name":"house","building":"house"},"geometry":{"type":"Point","coordinates":[29.6026872,-2.75168515]}}
,{"type":"Feature","properties":{"osm_id":314306495,"timestamp":1433276712,"name":"house","building":"house","addr:street":"Saburunduru","addr:housenumber":"107"},"geometry":{"type":"Point","coordinates":[29.6025549,-2.7516001]}}
,{"type":"Feature","properties":{"osm_id":314306496,"timestamp":1433261770,"name":"house","building":"house","addr:street":"Saburunduru","addr:housenumber":"142"},"geometry":{"type":"Point","coordinates":[29.602477550000003,-2.75124375]}}
,{"type":"Feature","properties":{"osm_id":314306497,"timestamp":1433261767,"name":"house","building":"house"},"geometry":{"type":"Point","coordinates":[29.60225405,-2.7515511999999998]}}
,{"type":"Feature","properties":{"osm_id":314307673,"timestamp":1416860738,"name":"Residential","building":"house"},"geometry":{"type":"Point","coordinates":[29.55675425,-2.7681177]}}
,{"type":"Feature","properties":{"osm_id":314310100,"timestamp":1433261771,"name":"house","building":"house","addr:street":"Saburunduru","addr:housenumber":"86"},"geometry":{"type":"Point","coordinates":[29.60699915,-2.7551609]}}
,{"type":"Feature","properties":{"osm_id":314310362,"timestamp":1416861365,"name":"Residential","building":"house"},"geometry":{"type":"Point","coordinates":[29.554199099999998,-2.76779975]}}
,{"type":"Feature","properties":{"osm_id":314310364,"timestamp":1416861365,"name":"Residential, or a barn, or living quarters whilst farming","building":"house"},"geometry":{"type":"Point","coordinates":[29.55374845,-2.7679739000000003]}}
,{"type":"Feature","properties":{"osm_id":314310366,"timestamp":1416861365,"name":"res/barn","building":"house"},"geometry":{"type":"Point","coordinates":[29.553823549999997,-2.7682418]}}
,{"type":"Feature","properties":{"osm_id":314310520,"timestamp":1433261772,"name":"house","building":"house","addr:street":"Saburunduru","addr:housenumber":"97"},"geometry":{"type":"Point","coordinates":[29.6079998,-2.75573145]}}
,{"type":"Feature","properties":{"osm_id":314310522,"timestamp":1433261771,"name":"house","building":"house","addr:street":"Saburunduru","addr:housenumber":"091"},"geometry":{"type":"Point","coordinates":[29.607750850000002,-2.7555842999999998]}}
,{"type":"Feature","properties":{"osm_id":314310553,"timestamp":1433261771,"name":"house","building":"house","addr:street":"Saburunduru","addr:housenumber":"090"},"geometry":{"type":"Point","coordinates":[29.607561500000003,-2.75559475]}}
,{"type":"Feature","properties":{"osm_id":314310838,"timestamp":1433261766,"name":"house","building":"house","addr:street":"Saburunduru","addr:housenumber":"087"},"geometry":{"type":"Point","coordinates":[29.606959500000002,-2.75532875]}}
,{"type":"Feature","properties":{"osm_id":314310839,"timestamp":1433261770,"name":"house","building":"house","addr:street":"Saburunduru"},"geometry":{"type":"Point","coordinates":[29.606067850000002,-2.7547088000000004]}}
,{"type":"Feature","properties":{"osm_id":314310840,"timestamp":1433261772,"name":"house","building":"house"},"geometry":{"type":"Point","coordinates":[29.605587800000002,-2.75413805]}}
,{"type":"Feature","properties":{"osm_id":314310931,"timestamp":1433261768,"name":"house","building":"house","addr:street":"Saburunduru","addr:housenumber":"77"},"geometry":{"type":"Point","coordinates":[29.60505525,-2.75355255]}}
,{"type":"Feature","properties":{"osm_id":314311063,"timestamp":1433276712,"name":"house","building":"house"},"geometry":{"type":"Point","coordinates":[29.6052842,-2.7535659]}}
,{"type":"Feature","properties":{"osm_id":314311485,"timestamp":1433261772,"name":"house","building":"house","addr:street":"Saburunduru","addr:housenumber":"075"},"geometry":{"type":"Point","coordinates":[29.60481985,-2.75252255]}}
,{"type":"Feature","properties":{"osm_id":314311486,"timestamp":1433261768,"name":"house","building":"house"},"geometry":{"type":"Point","coordinates":[29.60535505,-2.7517258]}}
,{"type":"Feature","properties":{"osm_id":314311487,"timestamp":1433261772,"name":"house","building":"house"},"geometry":{"type":"Point","coordinates":[29.6051102,-2.75217025]}}
,{"type":"Feature","properties":{"osm_id":314311488,"timestamp":1433261770,"name":"house","building":"house","addr:street":"Saburunduru","addr:housenumber":"042"},"geometry":{"type":"Point","coordinates":[29.6081006,-2.75147445]}}
,{"type":"Feature","properties":{"osm_id":314311489,"timestamp":1433261768,"name":"house","building":"house","addr:street":"Saburunduru","addr:housenumber":"071"},"geometry":{"type":"Point","coordinates":[29.607525250000002,-2.7512819]}}
,{"type":"Feature","properties":{"osm_id":314311530,"timestamp":1433261772,"name":"house","building":"house","addr:street":"Saburunduru","addr:housenumber":"063"},"geometry":{"type":"Point","coordinates":[29.6061367,-2.75036255]}}
,{"type":"Feature","properties":{"osm_id":314311820,"timestamp":1433261769,"name":"house","building":"house","addr:street":"Saburunduru","addr:housenumber":"064"},"geometry":{"type":"Point","coordinates":[29.6063802,-2.75072215]}}
,{"type":"Feature","properties":{"osm_id":314311821,"timestamp":1433261767,"name":"house","building":"house","addr:street":"Saburuduru","addr:housenumber":"065"},"geometry":{"type":"Point","coordinates":[29.60651625,-2.75074195]}}
,{"type":"Feature","properties":{"osm_id":314312504,"timestamp":1433261769,"name":"house","building":"house","addr:street":"Saburunduru","addr:housenumber":"070"},"geometry":{"type":"Point","coordinates":[29.6073579,-2.75028015]}}
,{"type":"Feature","properties":{"osm_id":314313161,"timestamp":1433261767,"name":"house","building":"house"},"geometry":{"type":"Point","coordinates":[29.60721005,-2.75075675]}}
,{"type":"Feature","properties":{"osm_id":314313163,"timestamp":1433261766,"name":"house","building":"house","addr:street":"Saburunduru","addr:housenumber":"066"},"geometry":{"type":"Point","coordinates":[29.606733050000003,-2.7508163000000003]}}
,{"type":"Feature","properties":{"osm_id":314313165,"timestamp":1433261770,"name":"house","building":"house","addr:street":"Saburunduru","addr:housenumber":"063"},"geometry":{"type":"Point","coordinates":[29.606175200000003,-2.75043285]}}
,{"type":"Feature","properties":{"osm_id":314318996,"timestamp":1433261766,"name":"house","building":"house","addr:street":"Saburunduru","addr:housenumber":"062"},"geometry":{"type":"Point","coordinates":[29.6059977,-2.75062185]}}
,{"type":"Feature","properties":{"osm_id":314322045,"timestamp":1433260001,"name":"Group Scolaire Muhambara","amenity":"school","building":"yes"},"geometry":{"type":"Point","coordinates":[29.59129105,-2.77235195]}}
,{"type":"Feature","properties":{"osm_id":314322054,"timestamp":1433260001,"name":"Group Scolaire Muhambara","amenity":"school","building":"yes"},"geometry":{"type":"Point","coordinates":[29.59043305,-2.77259105]}}
,{"type":"Feature","properties":{"osm_id":314322058,"timestamp":1433260001,"name":"Group Scolaire Muhambara","amenity":"school","building":"yes"},"geometry":{"type":"Point","coordinates":[29.58967865,-2.7724812500000002]}}
,{"type":"Feature","properties":{"osm_id":314322059,"timestamp":1433260001,"name":"Group Scolaire Muhambara","amenity":"school","building":"yes"},"geometry":{"type":"Point","coordinates":[29.59126825,-2.77228665]}}
,{"type":"Feature","properties":{"osm_id":314322068,"timestamp":1433260001,"name":"Group Scolaire Muhambara","amenity":"school","building":"yes"},"geometry":{"type":"Point","coordinates":[29.5902124,-2.77254285]}}
,{"type":"Feature","properties":{"osm_id":314322137,"timestamp":1433260003,"name":"Group Scolaire Muhambara","amenity":"school","building":"yes"},"geometry":{"type":"Point","coordinates":[29.591349049999998,-2.7724789000000003]}}
,{"type":"Feature","properties":{"osm_id":314322145,"timestamp":1433260002,"name":"Group Scolaire Muhambara","amenity":"school","building":"yes"},"geometry":{"type":"Point","coordinates":[29.590963,-2.772726]}}
,{"type":"Feature","properties":{"osm_id":314406549,"timestamp":1416916669,"name":"Residential","building":"house"},"geometry":{"type":"Point","coordinates":[29.6368499,-2.8048184000000003]}}
,{"type":"Feature","properties":{"osm_id":314406552,"timestamp":1416916669,"name":"Residential","building":"house"},"geometry":{"type":"Point","coordinates":[29.6365482,-2.8048009499999997]}}
,{"type":"Feature","properties":{"osm_id":314406566,"timestamp":1416916843,"name":"Residential","building":"house"},"geometry":{"type":"Point","coordinates":[29.6375191,-2.8041687499999997]}}
,{"type":"Feature","properties":{"osm_id":314489328,"timestamp":1433260002,"name":"Group Scolaire Muhambara","amenity":"school","building":"yes"},"geometry":{"type":"Point","coordinates":[29.59074495,-2.7722243]}}
,{"type":"Feature","properties":{"osm_id":314489345,"timestamp":1433276668,"name":"Kitchen","building":"house"},"geometry":{"type":"Point","coordinates":[29.59569295,-2.7711338]}}
,{"type":"Feature","properties":{"osm_id":314489351,"timestamp":1433260002,"name":"Group Scolaire Muhambara","amenity":"school","building":"yes"},"geometry":{"type":"Point","coordinates":[29.591344499999998,-2.7722976]}}
,{"type":"Feature","properties":{"osm_id":314489377,"timestamp":1433276668,"name":"Toilet","building":"house"},"geometry":{"type":"Point","coordinates":[29.5956646,-2.77109555]}}
,{"type":"Feature","properties":{"osm_id":314489379,"timestamp":1433260002,"name":"Group Scolaire Muhambara","amenity":"school","building":"yes"},"geometry":{"type":"Point","coordinates":[29.59100515,-2.7722211999999997]}}
,{"type":"Feature","properties":{"osm_id":316891480,"timestamp":1586437795,"name":"Eglise Bima","amenity":"place_of_worship","building":"church"},"geometry":{"type":"Point","coordinates":[28.86876265,-2.5475345]}}
,{"type":"Feature","properties":{"osm_id":331591939,"timestamp":1425679336,"name":"Four Seasons Hotel","tourism":"hotel","building":"yes","addr:city":"Kigali"},"geometry":{"type":"Point","coordinates":[30.093373749999998,-1.9230532]}}
,{"type":"Feature","properties":{"osm_id":333038947,"timestamp":1436122449,"name":"RSSB Nyarugenge Plaza","building":"office","addr:city":"Kigali","addr:street":"KN 3 Rd"},"geometry":{"type":"Point","coordinates":[30.073964850000003,-1.95192865]}}
,{"type":"Feature","properties":{"osm_id":333763910,"timestamp":1426839276,"name":"Huye Tinnery","shop":"gift","building":"yes"},"geometry":{"type":"Point","coordinates":[29.72395045,-2.5642978000000003]}}
,{"type":"Feature","properties":{"osm_id":333763911,"timestamp":1426839276,"name":"Huye Tinnery","building":"yes","man_made":"works"},"geometry":{"type":"Point","coordinates":[29.7239448,-2.5641239]}}
,{"type":"Feature","properties":{"osm_id":333763912,"timestamp":1426839276,"name":"National Speciality Coffee Quality Laboratory & Training Centre","building":"industrial"},"geometry":{"type":"Point","coordinates":[29.6557544,-2.5263292]}}
,{"type":"Feature","properties":{"osm_id":333763913,"timestamp":1426839276,"name":"National Speciality Coffee Quality Laboratory & Training Centre","building":"industrial"},"geometry":{"type":"Point","coordinates":[29.65621465,-2.52636305]}}
,{"type":"Feature","properties":{"osm_id":333763914,"timestamp":1426839276,"name":"Cyarumbo Coffee Washing Station","building":"industrial"},"geometry":{"type":"Point","coordinates":[29.66902275,-2.5423057499999997]}}
,{"type":"Feature","properties":{"osm_id":333763915,"timestamp":1426839276,"name":"National Speciality Coffee Quality Laboratory & Training Centre","building":"industrial"},"geometry":{"type":"Point","coordinates":[29.6559651,-2.52631535]}}
,{"type":"Feature","properties":{"osm_id":333763916,"timestamp":1426839276,"name":"Cyarumbo Coffee Washing Station","building":"industrial"},"geometry":{"type":"Point","coordinates":[29.66910225,-2.5424896500000003]}}
,{"type":"Feature","properties":{"osm_id":333763917,"timestamp":1426839276,"name":"Cyarumbo Coffee Washing Station","building":"industrial"},"geometry":{"type":"Point","coordinates":[29.6692832,-2.5422127999999997]}}
,{"type":"Feature","properties":{"osm_id":333763918,"timestamp":1426839276,"name":"National Speciality Coffee Quality Laboratory & Training Centre","building":"industrial"},"geometry":{"type":"Point","coordinates":[29.656197849999998,-2.52694315]}}
,{"type":"Feature","properties":{"osm_id":333763919,"timestamp":1426839276,"name":"Cyarumbo Coffee Washing Station","building":"industrial"},"geometry":{"type":"Point","coordinates":[29.6693192,-2.54243445]}}
,{"type":"Feature","properties":{"osm_id":333763920,"timestamp":1426839276,"name":"National Speciality Coffee Quality Laboratory & Training Centre","building":"industrial"},"geometry":{"type":"Point","coordinates":[29.656052950000003,-2.5265209]}}
,{"type":"Feature","properties":{"osm_id":341264582,"timestamp":1430319526,"name":"anglican evangelist rwanda","building":"church"},"geometry":{"type":"Point","coordinates":[29.7394965,-2.606687]}}
,{"type":"Feature","properties":{"osm_id":341264618,"timestamp":1541964342,"name":"Our Lady of Wisdom","amenity":"place_of_worship","building":"cathedral"},"geometry":{"type":"Point","coordinates":[29.742832200000002,-2.6069259000000002]}}
,{"type":"Feature","properties":{"osm_id":341264658,"timestamp":1487847455,"name":"Mer du Verbe","tourism":"guest_house","building":"yes"},"geometry":{"type":"Point","coordinates":[29.742612649999998,-2.60466075]}}
,{"type":"Feature","properties":{"osm_id":341264682,"timestamp":1487847329,"name":"Mer du Verbe","office":"educational_institution","building":"yes"},"geometry":{"type":"Point","coordinates":[29.7425866,-2.6042456]}}
,{"type":"Feature","properties":{"osm_id":341264773,"timestamp":1430319263,"name":"Butare primary school","amenity":"school","building":"commercial"},"geometry":{"type":"Point","coordinates":[29.73799755,-2.6078954999999997]}}
,{"type":"Feature","properties":{"osm_id":341280345,"timestamp":1430622204,"name":"Restoration church","building":"church"},"geometry":{"type":"Point","coordinates":[29.74375275,-2.6019305]}}
,{"type":"Feature","properties":{"osm_id":341281899,"timestamp":1430319750,"name":"Huye market","building":"commercial"},"geometry":{"type":"Point","coordinates":[29.73849035,-2.6044514]}}
,{"type":"Feature","properties":{"osm_id":341899054,"timestamp":1490557087,"name":"Butaro Hospital","building":"hospital"},"geometry":{"type":"Point","coordinates":[29.839670400000003,-1.4097415]}}
,{"type":"Feature","properties":{"osm_id":341899060,"timestamp":1471540518,"name":"Butaro Hospital","building":"hospital"},"geometry":{"type":"Point","coordinates":[29.8398736,-1.4099206]}}
,{"type":"Feature","properties":{"osm_id":341899079,"timestamp":1490557135,"name":"Butaro Cancer Centre of Excellence Infusion Centre","building":"yes"},"geometry":{"type":"Point","coordinates":[29.83694475,-1.4085935]}}
,{"type":"Feature","properties":{"osm_id":341899081,"timestamp":1490557172,"name":"Butaro Health Centre","building":"yes"},"geometry":{"type":"Point","coordinates":[29.83696065,-1.4089861]}}
,{"type":"Feature","properties":{"osm_id":346374452,"timestamp":1544297411,"name":"Centre d'accueil de l'Eglise Presbyterienne","amenity":"place_of_worship","name:fr":"Centre d'accueil de l'Eglise Presbyterienne","building":"yes"},"geometry":{"type":"Point","coordinates":[29.2616125,-1.69744525]}}
,{"type":"Feature","properties":{"osm_id":352060521,"timestamp":1568662503,"name":"Wendy's","amenity":"fast_food","building":"yes"},"geometry":{"type":"Point","coordinates":[28.8813551,-2.4923256]}}
,{"type":"Feature","properties":{"osm_id":352843620,"timestamp":1446375015,"name":"Kimihurura Assemblies of God","amenity":"place_of_worship","building":"yes"},"geometry":{"type":"Point","coordinates":[30.0772126,-1.95040835]}}
,{"type":"Feature","properties":{"osm_id":352843621,"timestamp":1433950347,"name":"Apostolic. Original Building","amenity":"place_of_worship","building":"yes"},"geometry":{"type":"Point","coordinates":[30.0775761,-1.95061215]}}
,{"type":"Feature","properties":{"osm_id":352844790,"timestamp":1433951063,"name":"AEBR Kacyiru","amenity":"place_of_worship","building":"yes"},"geometry":{"type":"Point","coordinates":[30.088612050000002,-1.9422766]}}
,{"type":"Feature","properties":{"osm_id":352845608,"timestamp":1433951492,"name":"White Dove School","building":"school"},"geometry":{"type":"Point","coordinates":[30.088508750000003,-1.9417029499999998]}}
,{"type":"Feature","properties":{"osm_id":352845609,"timestamp":1433951492,"name":"White Dove School","building":"school"},"geometry":{"type":"Point","coordinates":[30.088162750000002,-1.94152065]}}
,{"type":"Feature","properties":{"osm_id":352845610,"timestamp":1433951493,"name":"AEBR Head Office","building":"yes","addr:city":"Kigali","addr:street":"KG 569 St","addr:housenumber":"1"},"geometry":{"type":"Point","coordinates":[30.088034,-1.94079555]}}
,{"type":"Feature","properties":{"osm_id":352846209,"timestamp":1433951848,"name":"MINAGRI (Ministry of Agriculture)","building":"commercial"},"geometry":{"type":"Point","coordinates":[30.0887542,-1.9408987500000001]}}
,{"type":"Feature","properties":{"osm_id":352855338,"timestamp":1551024064,"name":"Kigali International Community School (KICS)","building":"school"},"geometry":{"type":"Point","coordinates":[30.0910318,-1.9271238]}}
,{"type":"Feature","properties":{"osm_id":352856656,"timestamp":1433955527,"name":"Christ Church of Rwanda","amenity":"place_of_worship","building":"yes"},"geometry":{"type":"Point","coordinates":[30.091893749999997,-1.92630245]}}
,{"type":"Feature","properties":{"osm_id":353038121,"timestamp":1434042857,"name":"Kobil Gas Station","building":"commercial"},"geometry":{"type":"Point","coordinates":[30.12368035,-1.961862]}}
,{"type":"Feature","properties":{"osm_id":353040190,"timestamp":1434044030,"name":"Kobil","amenity":"fuel","building":"yes"},"geometry":{"type":"Point","coordinates":[30.1236287,-1.96194725]}}
,{"type":"Feature","properties":{"osm_id":353040296,"timestamp":1434044115,"name":"Engen","amenity":"fuel","building":"yes"},"geometry":{"type":"Point","coordinates":[30.15867035,-1.9641986999999999]}}
,{"type":"Feature","properties":{"osm_id":353046320,"timestamp":1434048500,"name":"SteelRwa","building":"commercial"},"geometry":{"type":"Point","coordinates":[30.3808919,-1.94925825]}}
,{"type":"Feature","properties":{"osm_id":353258238,"timestamp":1436090911,"name":"Nkanka Parish","amenity":"place_of_worship","building":"yes"},"geometry":{"type":"Point","coordinates":[28.929720000000003,-2.427991]}}
,{"type":"Feature","properties":{"osm_id":353449349,"timestamp":1434206344,"name":"Sector Office","building":"public"},"geometry":{"type":"Point","coordinates":[30.504025900000002,-2.33508375]}}
,{"type":"Feature","properties":{"osm_id":356648729,"timestamp":1435347463,"name":"Adventist Medical Clinic","amenity":"doctors","building":"yes"},"geometry":{"type":"Point","coordinates":[30.1046573,-1.964286]}}
,{"type":"Feature","properties":{"osm_id":358347271,"timestamp":1610553072,"amenity":"place_of_worship","building":"yes","name":"Paroisse St Pierre Claver de Nguba"},"geometry":{"type":"Point","coordinates":[28.877369,-2.4987731]}}
,{"type":"Feature","properties":{"osm_id":359829595,"timestamp":1509394628,"name":"Presbyterian Church, Kiyovu Diocese","amenity":"place_of_worship","building":"yes"},"geometry":{"type":"Point","coordinates":[30.06728455,-1.9488172000000001]}}
,{"type":"Feature","properties":{"osm_id":359830167,"timestamp":1436537252,"name":"Consolate of the Democratic Republic of Congo","building":"yes"},"geometry":{"type":"Point","coordinates":[30.07268135,-1.95361795]}}
,{"type":"Feature","properties":{"osm_id":359830173,"timestamp":1436537253,"name":"Convenience Store","building":"yes"},"geometry":{"type":"Point","coordinates":[30.07380225,-1.95247205]}}
,{"type":"Feature","properties":{"osm_id":359831430,"timestamp":1436538066,"name":"Hyundai","building":"yes"},"geometry":{"type":"Point","coordinates":[30.07475395,-1.9510372]}}
,{"type":"Feature","properties":{"osm_id":360297332,"timestamp":1586437795,"name":"Eglise Nazareen","amenity":"place_of_worship","building":"church"},"geometry":{"type":"Point","coordinates":[28.886984599999998,-2.4984686]}}
,{"type":"Feature","properties":{"osm_id":361500054,"timestamp":1586437795,"name":"Eglise Catholique Saint Jean Baptiste","amenity":"place_of_worship","building":"church"},"geometry":{"type":"Point","coordinates":[28.85756885,-2.5332129500000002]}}
,{"type":"Feature","properties":{"osm_id":361748438,"timestamp":1437579401,"name":"Gatua Borderpost","office":"administrative","building":"yes"},"geometry":{"type":"Point","coordinates":[30.013266,-1.4260494000000001]}}
,{"type":"Feature","properties":{"osm_id":364516269,"timestamp":1552555513,"name":"Maison allemande","building":"yes"},"geometry":{"type":"Point","coordinates":[28.8903958,-2.4915227]}}
,{"type":"Feature","properties":{"osm_id":365152281,"timestamp":1439313936,"name":"kibagabaga","building":"yes","addr:street":"harae"},"geometry":{"type":"Point","coordinates":[30.1458197,-1.9633642]}}
,{"type":"Feature","properties":{"osm_id":369024469,"timestamp":1568662736,"name":"Pères Xavériens","amenity":"place_of_worship","building":"residential"},"geometry":{"type":"Point","coordinates":[28.879642500000003,-2.4931687]}}
,{"type":"Feature","properties":{"osm_id":369091043,"timestamp":1552555513,"name":"MONUSCO PakBat","building":"yes"},"geometry":{"type":"Point","coordinates":[28.8887382,-2.4929305499999996]}}
,{"type":"Feature","properties":{"osm_id":372884427,"timestamp":1594588915,"name":"Liquid Telecom","building":"yes"},"geometry":{"type":"Point","coordinates":[30.0625845,-1.94832145]}}
,{"type":"Feature","properties":{"osm_id":373891694,"timestamp":1444049856,"name":"AEBR Bugesera (Nyabagadwa Parish)","amenity":"place_of_worship","building":"yes"},"geometry":{"type":"Point","coordinates":[30.199026,-2.199256]}}
,{"type":"Feature","properties":{"osm_id":375802951,"timestamp":1445180476,"name":"Kimi Gourmand Creperie","amenity":"restaurant","building":"yes","addr:city":"Kigali","addr:street":"KG 676 St","addr:housenumber":"15"},"geometry":{"type":"Point","coordinates":[30.0824647,-1.9528468]}}
,{"type":"Feature","properties":{"osm_id":375862567,"timestamp":1544303775,"name":"Mosque","amenity":"place_of_worship","building":"yes","addr:city":"Gisenyi"},"geometry":{"type":"Point","coordinates":[29.26268855,-1.6935091500000001]}}
,{"type":"Feature","properties":{"osm_id":376192250,"timestamp":1445424418,"name":"La Benevolencys Grands Lacs","building":"house","addr:city":"Kigali","addr:street":"KG 676 St","addr:housenumber":"24"},"geometry":{"type":"Point","coordinates":[30.08234245,-1.95683765]}}
,{"type":"Feature","properties":{"osm_id":376233181,"timestamp":1445424304,"name":"Zenora Wellness Center","building":"house","addr:city":"Kigali","addr:street":"KG 28 Av","addr:housenumber":"92"},"geometry":{"type":"Point","coordinates":[30.08555745,-1.9612493500000001]}}
,{"type":"Feature","properties":{"osm_id":376233190,"timestamp":1445610492,"name":"Fresh & Easy Ltd. Grocery Store","building":"commercial","addr:city":"Kigali","addr:street":"KG 28 Av","addr:housenumber":"72"},"geometry":{"type":"Point","coordinates":[30.083527250000003,-1.9601207500000002]}}
,{"type":"Feature","properties":{"osm_id":376233191,"timestamp":1445610493,"name":"White Stone Apartments","building":"apartments","addr:city":"Kigali","addr:street":"KG 28 Av","addr:housenumber":"70"},"geometry":{"type":"Point","coordinates":[30.08327615,-1.960175]}}
,{"type":"Feature","properties":{"osm_id":376282733,"timestamp":1445451171,"name":"nkusi basile","building":"residential","addr:street":"kk358 st","addr:housenumber":"8"},"geometry":{"type":"Point","coordinates":[30.11701,-1.97588885]}}
,{"type":"Feature","properties":{"osm_id":376952345,"timestamp":1445851759,"name":"Macadamia Hotel","building":"yes"},"geometry":{"type":"Point","coordinates":[30.09518655,-2.00175335]}}
,{"type":"Feature","properties":{"osm_id":376952352,"timestamp":1445851760,"name":"Macadamia Hotel","building":"yes"},"geometry":{"type":"Point","coordinates":[30.095289,-2.0017716500000002]}}
,{"type":"Feature","properties":{"osm_id":377835989,"timestamp":1446375013,"name":"EGECOR","building":"commercial","addr:city":"Kigali","addr:street":"KG 28 Av","addr:housenumber":"4"},"geometry":{"type":"Point","coordinates":[30.078053099999998,-1.9517828]}}
,{"type":"Feature","properties":{"osm_id":377852259,"timestamp":1446384348,"name":"Kimihurura Ibiro","building":"yes"},"geometry":{"type":"Point","coordinates":[30.08172835,-1.95992655]}}
,{"type":"Feature","properties":{"osm_id":379866870,"timestamp":1447308964,"name":"AEBR Gikongoro, Musebeya Parish","amenity":"place_of_worship","building":"yes","addr:city":"Musebeya"},"geometry":{"type":"Point","coordinates":[29.45209275,-2.41459385]}}
,{"type":"Feature","properties":{"osm_id":382844160,"timestamp":1448531234,"name":"Ecolodge","tourism":"hotel","building":"yes"},"geometry":{"type":"Point","coordinates":[30.49500855,-1.92012875]}}
,{"type":"Feature","properties":{"osm_id":382899762,"timestamp":1448561348,"name":"AEBR Bumbogo","amenity":"place_of_worship","building":"yes"},"geometry":{"type":"Point","coordinates":[30.1569623,-1.87675085]}}
,{"type":"Feature","properties":{"osm_id":382899764,"timestamp":1488576593,"name":"AEBR Rubungo","amenity":"place_of_worship","building":"yes"},"geometry":{"type":"Point","coordinates":[30.142415200000002,-1.9341545500000001]}}
,{"type":"Feature","properties":{"osm_id":383927551,"timestamp":1449030218,"name":"Sake Market","amenity":"marketplace","building":"yes"},"geometry":{"type":"Point","coordinates":[30.392845100000002,-2.2299638]}}
,{"type":"Feature","properties":{"osm_id":385142768,"timestamp":1449681639,"name":"Geology and Mines Department","building":"Laboratories","addr:city":"Kigali, Muhima","addr:street":"Avenue de la Justice"},"geometry":{"type":"Point","coordinates":[30.0572098,-1.94138425]}}
,{"type":"Feature","properties":{"osm_id":391227318,"timestamp":1452701374,"name":"Nyabinyenga Parish","amenity":"place_of_worship","building":"church"},"geometry":{"type":"Point","coordinates":[29.681282099999997,-2.3166171]}}
,{"type":"Feature","properties":{"osm_id":391433552,"timestamp":1452809976,"name":"Cyabakamyi Sector Office","office":"administrative","building":"public"},"geometry":{"type":"Point","coordinates":[29.6500147,-2.29925935]}}
,{"type":"Feature","properties":{"osm_id":391433553,"timestamp":1452809976,"name":"Cyabakamyi Sector SACCO","office":"administrative","building":"public"},"geometry":{"type":"Point","coordinates":[29.65057805,-2.2997498]}}
,{"type":"Feature","properties":{"osm_id":391433555,"timestamp":1452809976,"name":"Karama Cell Office","office":"administrative","building":"public"},"geometry":{"type":"Point","coordinates":[29.6500615,-2.2995192500000003]}}
,{"type":"Feature","properties":{"osm_id":391434686,"timestamp":1452800715,"name":"Mucubira Catholic Church","amenity":"place_of_worship","building":"construction"},"geometry":{"type":"Point","coordinates":[29.6455217,-2.2946794]}}
,{"type":"Feature","properties":{"osm_id":391451975,"timestamp":1452809976,"name":"Rubona Cell Office","office":"government","building":"public"},"geometry":{"type":"Point","coordinates":[29.67212015,-2.28055345]}}
,{"type":"Feature","properties":{"osm_id":391471686,"timestamp":1452812857,"name":"Nyabinyenga Cell Office","office":"administrative","building":"public"},"geometry":{"type":"Point","coordinates":[29.67954885,-2.31222925]}}
,{"type":"Feature","properties":{"osm_id":391471687,"timestamp":1452812857,"name":"Nyarurama Cell Office","office":"administrative","building":"public"},"geometry":{"type":"Point","coordinates":[29.6544129,-2.3113837999999998]}}
,{"type":"Feature","properties":{"osm_id":394762610,"timestamp":1586437795,"name":"Eglise Anglicane","amenity":"place_of_worship","building":"church"},"geometry":{"type":"Point","coordinates":[28.877884549999997,-2.49808305]}}
,{"type":"Feature","properties":{"osm_id":394762637,"timestamp":1584645272,"name":"Karibu","tourism":"hotel","building":"yes"},"geometry":{"type":"Point","coordinates":[28.87715825,-2.49780455]}}
,{"type":"Feature","properties":{"osm_id":398846296,"timestamp":1455941351,"name":"AEBR Musanze","amenity":"place_of_worship","building":"yes"},"geometry":{"type":"Point","coordinates":[29.62914095,-1.5073778]}}
,{"type":"Feature","properties":{"osm_id":399936769,"timestamp":1456408273,"name":"Esri Rwanda Ltd.","building":"yes","addr:city":"Kigali","addr:street":"KG 5 Av","addr:postcode":"10000, P.O. 6867","addr:housenumber":"18"},"geometry":{"type":"Point","coordinates":[30.0901818,-1.9462536]}}
,{"type":"Feature","properties":{"osm_id":400567848,"timestamp":1456663286,"name":"AEBR Gikumbi","amenity":"place_of_worship","building":"house"},"geometry":{"type":"Point","coordinates":[29.8957307,-2.037424]}}
,{"type":"Feature","properties":{"osm_id":403602238,"timestamp":1593725856,"name":"Makuza Peace Plaza","name:en":"M. Peace Plaza","building":"commercial"},"geometry":{"type":"Point","coordinates":[30.05951735,-1.9467991]}}
,{"type":"Feature","properties":{"osm_id":404986359,"timestamp":1478118584,"name":"Akagera Game Lodge","tourism":"hotel","building":"yes"},"geometry":{"type":"Point","coordinates":[30.7149994,-1.8742702]}}
,{"type":"Feature","properties":{"osm_id":405246872,"timestamp":1458711553,"name":"Rusumo Primary School","building":"school"},"geometry":{"type":"Point","coordinates":[30.770253150000002,-2.3977183]}}
,{"type":"Feature","properties":{"osm_id":405248877,"timestamp":1458713082,"name":"Nyakahanga Primary School","building":"school"},"geometry":{"type":"Point","coordinates":[30.798103150000003,-2.3820501]}}
,{"type":"Feature","properties":{"osm_id":416547120,"timestamp":1462718988,"name":"Rusumo","amenity":"clinic","building":"yes"},"geometry":{"type":"Point","coordinates":[30.7697243,-2.3981928]}}
,{"type":"Feature","properties":{"osm_id":430028945,"timestamp":1468061340,"name":"Rwanda Housing Authority","building":"yes","addr:city":"Kigali","addr:street":"KG 546 Street"},"geometry":{"type":"Point","coordinates":[30.09175975,-1.9448883000000001]}}
,{"type":"Feature","properties":{"osm_id":432304426,"timestamp":1469076318,"name":"AEBR Kibuye","amenity":"place_of_worship","building":"yes","addr:city":"Bumba"},"geometry":{"type":"Point","coordinates":[29.3886423,-1.9893888]}}
,{"type":"Feature","properties":{"osm_id":435818659,"timestamp":1470406605,"name":"Kibogora Health Center","building":"yes"},"geometry":{"type":"Point","coordinates":[29.1373084,-2.3309693]}}
,{"type":"Feature","properties":{"osm_id":435818700,"timestamp":1470406729,"name":"Kibogora Health Center","building":"yes"},"geometry":{"type":"Point","coordinates":[29.13739315,-2.33068335]}}
,{"type":"Feature","properties":{"osm_id":436672067,"timestamp":1470904387,"name":"ADEPR Kabeza","amenity":"place_of_worship","building":"yes","addr:street":"KK 254 St"},"geometry":{"type":"Point","coordinates":[30.131985,-1.9718111]}}
,{"type":"Feature","properties":{"osm_id":436673356,"timestamp":1484599879,"name":"ADEPR","amenity":"place_of_worship","building":"yes"},"geometry":{"type":"Point","coordinates":[30.09364885,-1.94908255]}}
,{"type":"Feature","properties":{"osm_id":436748493,"timestamp":1470935350,"name":"amani's home","building":"yes","addr:city":"kigali","addr:street":"KK 186 St"},"geometry":{"type":"Point","coordinates":[30.1086151,-1.96511405]}}
,{"type":"Feature","properties":{"osm_id":436748555,"timestamp":1470935417,"name":"Talent Contractors Office","building":"yes"},"geometry":{"type":"Point","coordinates":[30.11898675,-1.9539849999999999]}}
,{"type":"Feature","properties":{"osm_id":436748564,"timestamp":1477595603,"name":"St Peters","amenity":"place_of_worship","building":"yes"},"geometry":{"type":"Point","coordinates":[30.12026545,-1.96173935]}}
,{"type":"Feature","properties":{"osm_id":436749715,"timestamp":1470935911,"name":"Miracle center church Remera","amenity":"place_of_worship","building":"yes"},"geometry":{"type":"Point","coordinates":[30.11913315,-1.9639620500000001]}}
,{"type":"Feature","properties":{"osm_id":436750744,"timestamp":1470936346,"name":"RMCC Office","building":"yes"},"geometry":{"type":"Point","coordinates":[30.1189296,-1.96381235]}}
,{"type":"Feature","properties":{"osm_id":436946128,"timestamp":1471095770,"name":"Nyarugenge Primary Court","amenity":"courthouse","building":"yes"},"geometry":{"type":"Point","coordinates":[30.0596212,-1.9577326]}}
,{"type":"Feature","properties":{"osm_id":443601361,"timestamp":1551024074,"name":"National Institute of Statistics of Rwanda","building":"commercial"},"geometry":{"type":"Point","coordinates":[30.05726765,-1.9415409000000001]}}
,{"type":"Feature","properties":{"osm_id":443762060,"timestamp":1480623314,"name":"Warehouse","building":"industrial","addr:street":"KN 118 St","addr:housenumber":"14"},"geometry":{"type":"Point","coordinates":[30.05381285,-1.9554778000000002]}}
,{"type":"Feature","properties":{"osm_id":443762063,"timestamp":1607664490,"addr:housenumber":"15","addr:street":"KN 118 St","amenity":"cafe","building":"yes","name":"Warehouse Cafeteria"},"geometry":{"type":"Point","coordinates":[30.05358725,-1.9553473000000001]}}
,{"type":"Feature","properties":{"osm_id":443762080,"timestamp":1563669416,"name":"KN Warehouse office","office":"company","building":"yes","addr:street":"KN 20 Ave","addr:housenumber":"7"},"geometry":{"type":"Point","coordinates":[30.05357335,-1.9556413]}}
,{"type":"Feature","properties":{"osm_id":444752981,"timestamp":1542015251,"name":"Light House Hotel","tourism":"hotel","building":"yes"},"geometry":{"type":"Point","coordinates":[29.742414,-2.61993965]}}
,{"type":"Feature","properties":{"osm_id":452846194,"timestamp":1542462234,"name":"Cimerwa School","building":"yes"},"geometry":{"type":"Point","coordinates":[29.02055635,-2.6084216]}}
,{"type":"Feature","properties":{"osm_id":454454248,"timestamp":1536032062,"name":"St. Jude Mushenyi Catholic church","amenity":"place_of_worship","building":"yes"},"geometry":{"type":"Point","coordinates":[29.98922755,-1.4468448]}}
,{"type":"Feature","properties":{"osm_id":454457530,"timestamp":1536035654,"name":"Muharangye Catholic church","amenity":"place_of_worship","building":"yes"},"geometry":{"type":"Point","coordinates":[30.00005205,-1.4230008]}}
,{"type":"Feature","properties":{"osm_id":454634582,"timestamp":1524252036,"name":"Convention Center","building":"yes"},"geometry":{"type":"Point","coordinates":[30.0939026,-1.9546387]}}
,{"type":"Feature","properties":{"osm_id":466490861,"timestamp":1484600876,"name":"Solace Ministries","tourism":"guest_house","building":"yes"},"geometry":{"type":"Point","coordinates":[30.0914499,-1.94438115]}}
,{"type":"Feature","properties":{"osm_id":472371264,"timestamp":1532337104,"name":"Kigali Heights","building":"commercial"},"geometry":{"type":"Point","coordinates":[30.09291285,-1.95268145]}}
,{"type":"Feature","properties":{"osm_id":472384480,"timestamp":1486320758,"name":"Mr Chips","amenity":"restaurant","building":"yes"},"geometry":{"type":"Point","coordinates":[30.102589899999998,-1.9403488]}}
,{"type":"Feature","properties":{"osm_id":472384481,"timestamp":1486320758,"name":"UNHCR","office":"ngo","building":"yes"},"geometry":{"type":"Point","coordinates":[30.10324875,-1.9419971]}}
,{"type":"Feature","properties":{"osm_id":472907834,"timestamp":1486461890,"name":"REsidance charles test","building":"apartments"},"geometry":{"type":"Point","coordinates":[30.05861395,-1.9460431]}}
,{"type":"Feature","properties":{"osm_id":473423695,"timestamp":1486584753,"name":"Kigali Convention Center","building":"yes"},"geometry":{"type":"Point","coordinates":[30.094254499999998,-1.95470745]}}
,{"type":"Feature","properties":{"osm_id":473424776,"timestamp":1486585433,"name":"Military Court","landuse":"military","building":"yes"},"geometry":{"type":"Point","coordinates":[30.09395035,-1.94485285]}}
,{"type":"Feature","properties":{"osm_id":475347658,"timestamp":1487357467,"name":"AEBR Murindi","amenity":"place_of_worship","building":"yes"},"geometry":{"type":"Point","coordinates":[30.687315599999998,-2.0844435]}}
,{"type":"Feature","properties":{"osm_id":475347659,"timestamp":1487357467,"name":"AEBR Murindi","amenity":"place_of_worship","building":"yes"},"geometry":{"type":"Point","coordinates":[30.68707355,-2.084271]}}
,{"type":"Feature","properties":{"osm_id":475355397,"timestamp":1487359828,"name":"Administration Building","building":"school"},"geometry":{"type":"Point","coordinates":[30.61602905,-2.1502832]}}
,{"type":"Feature","properties":{"osm_id":478504166,"timestamp":1488660235,"name":"AEBR Kagano","amenity":"place_of_worship","building":"yes"},"geometry":{"type":"Point","coordinates":[29.4188212,-1.97655705]}}
,{"type":"Feature","properties":{"osm_id":481433891,"timestamp":1489951016,"name":"AEBR Gitwe","amenity":"place_of_worship","building":"yes"},"geometry":{"type":"Point","coordinates":[30.1019943,-2.1787954000000003]}}
,{"type":"Feature","properties":{"osm_id":489723267,"timestamp":1493269371,"name":"AEBR Mahama","amenity":"place_of_worship","building":"yes"},"geometry":{"type":"Point","coordinates":[30.8241967,-2.29577965]}}
,{"type":"Feature","properties":{"osm_id":489723268,"timestamp":1493269372,"name":"AEDPR Mahama","amenity":"place_of_worship","building":"yes"},"geometry":{"type":"Point","coordinates":[30.82352615,-2.2958493]}}
,{"type":"Feature","properties":{"osm_id":491234006,"timestamp":1605041271,"building":"school","name":"CD1"},"geometry":{"type":"Point","coordinates":[29.52340045,-2.4833820500000003]}}
,{"type":"Feature","properties":{"osm_id":491234008,"timestamp":1494034301,"name":"Agaciro","building":"school"},"geometry":{"type":"Point","coordinates":[29.52489495,-2.4850627999999997]}}
,{"type":"Feature","properties":{"osm_id":491234011,"timestamp":1494034301,"name":"ECD2","building":"school"},"geometry":{"type":"Point","coordinates":[29.52554915,-2.48568665]}}
,{"type":"Feature","properties":{"osm_id":491234012,"timestamp":1494034302,"name":"Icyizere","building":"school"},"geometry":{"type":"Point","coordinates":[29.5253417,-2.48624095]}}
,{"type":"Feature","properties":{"osm_id":491234013,"timestamp":1494034301,"name":"Itorero","building":"school"},"geometry":{"type":"Point","coordinates":[29.52503665,-2.48566485]}}
,{"type":"Feature","properties":{"osm_id":491234014,"timestamp":1494034300,"name":"Ubumwe","building":"school"},"geometry":{"type":"Point","coordinates":[29.52484105,-2.48635685]}}
,{"type":"Feature","properties":{"osm_id":491234015,"timestamp":1494034301,"name":"Umuco","building":"school"},"geometry":{"type":"Point","coordinates":[29.52484685,-2.4861245500000004]}}
,{"type":"Feature","properties":{"osm_id":491234016,"timestamp":1494034301,"name":"Umubano","building":"school"},"geometry":{"type":"Point","coordinates":[29.52463525,-2.4860520499999996]}}
,{"type":"Feature","properties":{"osm_id":491234017,"timestamp":1605041271,"building":"school","name":"Urubohero"},"geometry":{"type":"Point","coordinates":[29.52413915,-2.48493315]}}
,{"type":"Feature","properties":{"osm_id":491234018,"timestamp":1605041271,"building":"school","name":"Umurava"},"geometry":{"type":"Point","coordinates":[29.5244364,-2.4846661]}}
,{"type":"Feature","properties":{"osm_id":491234035,"timestamp":1605041271,"building":"school","name":"CD2"},"geometry":{"type":"Point","coordinates":[29.52324255,-2.4836171499999997]}}
,{"type":"Feature","properties":{"osm_id":491234039,"timestamp":1494034301,"name":"Ubumenyi","amenity":"library","building":"yes"},"geometry":{"type":"Point","coordinates":[29.524989599999998,-2.48496585]}}
,{"type":"Feature","properties":{"osm_id":491234040,"timestamp":1494034302,"name":"School Kitchen","building":"school"},"geometry":{"type":"Point","coordinates":[29.525446000000002,-2.4858164499999997]}}
,{"type":"Feature","properties":{"osm_id":491234041,"timestamp":1494034301,"name":"ECD1","building":"school"},"geometry":{"type":"Point","coordinates":[29.5255161,-2.4861424999999997]}}
,{"type":"Feature","properties":{"osm_id":491234042,"timestamp":1494034302,"name":"Icyizere","building":"school"},"geometry":{"type":"Point","coordinates":[29.525340399999997,-2.4859697]}}
,{"type":"Feature","properties":{"osm_id":491234043,"timestamp":1494034301,"name":"Icyerekezo","building":"school"},"geometry":{"type":"Point","coordinates":[29.5251339,-2.4859967000000003]}}
,{"type":"Feature","properties":{"osm_id":491234045,"timestamp":1494034301,"name":"Ubworoherane","building":"school"},"geometry":{"type":"Point","coordinates":[29.5245158,-2.4856931500000004]}}
,{"type":"Feature","properties":{"osm_id":491234046,"timestamp":1605041271,"building":"school","name":"Isuku"},"geometry":{"type":"Point","coordinates":[29.52421755,-2.48476985]}}
,{"type":"Feature","properties":{"osm_id":492723927,"timestamp":1495007923,"name":"Umurenge Wa Kacyiru","building":"yes","addr:city":"Kigali","addr:street":"KG 513 St","addr:housenumber":"11"},"geometry":{"type":"Point","coordinates":[30.08035535,-1.9342095000000001]}}
,{"type":"Feature","properties":{"osm_id":493822817,"timestamp":1494912545,"name":"Centre Socio Culturel Twese Hamwe","building":"yes"},"geometry":{"type":"Point","coordinates":[30.0745912,-1.9305375]}}
,{"type":"Feature","properties":{"osm_id":494114644,"timestamp":1495007916,"name":"Dispensary","building":"yes","addr:city":"Kigali","addr:street":"KG 513 St","addr:housenumber":"4"},"geometry":{"type":"Point","coordinates":[30.079987600000003,-1.9351441]}}
,{"type":"Feature","properties":{"osm_id":506216467,"timestamp":1499605445,"name":"Campus Main Auditorium","amenity":"theatre","building":"yes"},"geometry":{"type":"Point","coordinates":[29.7419067,-2.6170047]}}
,{"type":"Feature","properties":{"osm_id":506216469,"timestamp":1499605445,"name":"Campus Head Office","office":"educational_institution","building":"yes"},"geometry":{"type":"Point","coordinates":[29.74189325,-2.6160870000000003]}}
,{"type":"Feature","properties":{"osm_id":506216470,"timestamp":1499605446,"name":"Campus Library","office":"educational_institution","amenity":"library","building":"yes"},"geometry":{"type":"Point","coordinates":[29.742544549999998,-2.61677965]}}
,{"type":"Feature","properties":{"osm_id":506231905,"timestamp":1499611082,"name":"Evangelical Restoration Church","building":"yes"},"geometry":{"type":"Point","coordinates":[30.1413632,-1.94859045]}}
,{"type":"Feature","properties":{"osm_id":506234715,"timestamp":1499612230,"name":"VietteA","tourism":"hostel","building":"yes"},"geometry":{"type":"Point","coordinates":[29.7425535,-2.6151698]}}
,{"type":"Feature","properties":{"osm_id":506280278,"timestamp":1499629476,"name":"VietteB","tourism":"hostel","building":"yes"},"geometry":{"type":"Point","coordinates":[29.7431636,-2.6152531]}}
,{"type":"Feature","properties":{"osm_id":506281551,"timestamp":1499630228,"name":"Happy Day Restaurent","amenity":"restaurant","building":"yes"},"geometry":{"type":"Point","coordinates":[29.74446095,-2.61548945]}}
,{"type":"Feature","properties":{"osm_id":506281553,"timestamp":1499630229,"name":"University Restaurent","amenity":"restaurant","building":"yes"},"geometry":{"type":"Point","coordinates":[29.74400155,-2.6154603]}}
,{"type":"Feature","properties":{"osm_id":506281555,"timestamp":1499630229,"name":"Student Office","office":"educational_institution","building":"yes"},"geometry":{"type":"Point","coordinates":[29.74359845,-2.6156101]}}
,{"type":"Feature","properties":{"osm_id":506281558,"timestamp":1499630229,"name":"VietteC","tourism":"hostel","building":"yes"},"geometry":{"type":"Point","coordinates":[29.7436747,-2.6153224]}}
,{"type":"Feature","properties":{"osm_id":506286094,"timestamp":1563813523,"name":"Seating palce","leisure":"stadium","name:de":"Tribüne","name:en":"tribune","name:fr":"tribune","building":"yes"},"geometry":{"type":"Point","coordinates":[29.7452385,-2.6154640000000002]}}
,{"type":"Feature","properties":{"osm_id":506289030,"timestamp":1499634641,"name":"Kitchen","building":"yes"},"geometry":{"type":"Point","coordinates":[29.3767788,-1.9456568]}}
,{"type":"Feature","properties":{"osm_id":506289031,"timestamp":1499634591,"name":"Bisogi","building":"residential"},"geometry":{"type":"Point","coordinates":[29.37671835,-1.9456196499999998]}}
,{"type":"Feature","properties":{"osm_id":506289033,"timestamp":1499635725,"name":"Habyarimana","building":"residential"},"geometry":{"type":"Point","coordinates":[29.37747605,-1.9457741]}}
,{"type":"Feature","properties":{"osm_id":506289035,"timestamp":1499634928,"name":"Tharcisse","building":"house"},"geometry":{"type":"Point","coordinates":[29.377202099999998,-1.9452181]}}
,{"type":"Feature","properties":{"osm_id":506289037,"timestamp":1499635072,"name":"Nzabonimpa","building":"residential"},"geometry":{"type":"Point","coordinates":[29.3774451,-1.9453994]}}
,{"type":"Feature","properties":{"osm_id":506289038,"timestamp":1499634420,"name":"Kichen","building":"yes"},"geometry":{"type":"Point","coordinates":[29.37672205,-1.9453469]}}
,{"type":"Feature","properties":{"osm_id":506289039,"timestamp":1499634532,"name":"Denys","building":"residential"},"geometry":{"type":"Point","coordinates":[29.376881,-1.9454071499999999]}}
,{"type":"Feature","properties":{"osm_id":506289040,"timestamp":1499634755,"name":"Kitchen","building":"yes"},"geometry":{"type":"Point","coordinates":[29.37680125,-1.94538955]}}
,{"type":"Feature","properties":{"osm_id":506289041,"timestamp":1499634508,"name":"Alex","building":"residential"},"geometry":{"type":"Point","coordinates":[29.376704699999998,-1.9454399]}}
,{"type":"Feature","properties":{"osm_id":506289042,"timestamp":1499636687,"name":"Denys2","building":"residential"},"geometry":{"type":"Point","coordinates":[29.37709635,-1.94559925]}}
,{"type":"Feature","properties":{"osm_id":506289043,"timestamp":1499634928,"name":"Kitchen","building":"yes"},"geometry":{"type":"Point","coordinates":[29.376999849999997,-1.9455523000000001]}}
,{"type":"Feature","properties":{"osm_id":506292792,"timestamp":1499635802,"name":"Mukerarugendo","building":"retail"},"geometry":{"type":"Point","coordinates":[29.37798665,-1.9457203]}}
,{"type":"Feature","properties":{"osm_id":506292793,"timestamp":1499635725,"name":"Gaporo","building":"service"},"geometry":{"type":"Point","coordinates":[29.37761745,-1.9455348]}}
,{"type":"Feature","properties":{"osm_id":506292795,"timestamp":1499635725,"name":"Cyprien","building":"residential"},"geometry":{"type":"Point","coordinates":[29.377755899999997,-1.9455844500000001]}}
,{"type":"Feature","properties":{"osm_id":506292796,"timestamp":1499635725,"name":"Nyiramisago","building":"residential"},"geometry":{"type":"Point","coordinates":[29.37767795,-1.945884]}}
,{"type":"Feature","properties":{"osm_id":506292797,"timestamp":1499635725,"name":"Basesakazi","building":"service"},"geometry":{"type":"Point","coordinates":[29.37765055,-1.94576345]}}
,{"type":"Feature","properties":{"osm_id":509293482,"timestamp":1500661128,"name":"Seventh Day Adventist","amenity":"place_of_worship","building":"yes"},"geometry":{"type":"Point","coordinates":[30.093607,-1.9496422999999998]}}
,{"type":"Feature","properties":{"osm_id":512621922,"timestamp":1529494724,"name":"Headmaster's Accomodation","building":"yes"},"geometry":{"type":"Point","coordinates":[30.24589625,-1.3786523000000002]}}
,{"type":"Feature","properties":{"osm_id":512621925,"timestamp":1529494724,"name":"Main Hall","building":"yes"},"geometry":{"type":"Point","coordinates":[30.2454346,-1.37898085]}}
,{"type":"Feature","properties":{"osm_id":512621926,"timestamp":1529494724,"name":"Dortaire for Gills","building":"yes"},"geometry":{"type":"Point","coordinates":[30.245653949999998,-1.378993]}}
,{"type":"Feature","properties":{"osm_id":512621927,"timestamp":1529494724,"name":"Dortaire for Gills","building":"yes"},"geometry":{"type":"Point","coordinates":[30.245589250000002,-1.37913445]}}
,{"type":"Feature","properties":{"osm_id":512621928,"timestamp":1529494724,"name":"Douche","building":"yes"},"geometry":{"type":"Point","coordinates":[30.2453578,-1.3785733]}}
,{"type":"Feature","properties":{"osm_id":512621929,"timestamp":1529494724,"name":"Douche","building":"yes"},"geometry":{"type":"Point","coordinates":[30.2454336,-1.3785733]}}
,{"type":"Feature","properties":{"osm_id":512621930,"timestamp":1529494724,"name":"Toilets","building":"yes"},"geometry":{"type":"Point","coordinates":[30.245519950000002,-1.3785813999999998]}}
,{"type":"Feature","properties":{"osm_id":512714643,"timestamp":1529494722,"name":"staff sopem","building":"yes"},"geometry":{"type":"Point","coordinates":[30.244681550000003,-1.37956515]}}
,{"type":"Feature","properties":{"osm_id":512714644,"timestamp":1529494723,"name":"Block O'Level","building":"yes"},"geometry":{"type":"Point","coordinates":[30.24480875,-1.3792157]}}
,{"type":"Feature","properties":{"osm_id":512714645,"timestamp":1529557563,"name":"Basketball Terain","building":"yes"},"geometry":{"type":"Point","coordinates":[30.2440601,-1.3798361]}}
,{"type":"Feature","properties":{"osm_id":512714646,"timestamp":1529557563,"name":"Basketball Terain","building":"yes"},"geometry":{"type":"Point","coordinates":[30.244130300000002,-1.3797310999999999]}}
,{"type":"Feature","properties":{"osm_id":512714647,"timestamp":1529494723,"name":"water Tank","building":"yes"},"geometry":{"type":"Point","coordinates":[30.2439307,-1.37952145]}}
,{"type":"Feature","properties":{"osm_id":512714648,"timestamp":1529494723,"name":"Block A'Level","building":"yes"},"geometry":{"type":"Point","coordinates":[30.24400225,-1.37918615]}}
,{"type":"Feature","properties":{"osm_id":512714649,"timestamp":1529494723,"name":"classes","building":"yes"},"geometry":{"type":"Point","coordinates":[30.24432135,-1.3790142]}}
,{"type":"Feature","properties":{"osm_id":512714650,"timestamp":1529494723,"name":"Nursing office","building":"yes"},"geometry":{"type":"Point","coordinates":[30.2442141,-1.3790125500000001]}}
,{"type":"Feature","properties":{"osm_id":512714653,"timestamp":1529494724,"name":"Stock&kitchen","building":"yes"},"geometry":{"type":"Point","coordinates":[30.24506495,-1.3788947999999999]}}
,{"type":"Feature","properties":{"osm_id":512714656,"timestamp":1529494724,"name":"cantine","building":"yes"},"geometry":{"type":"Point","coordinates":[30.24499735,-1.3787443]}}
,{"type":"Feature","properties":{"osm_id":512714658,"timestamp":1529494724,"name":"stocks","building":"yes"},"geometry":{"type":"Point","coordinates":[30.2452306,-1.3787204499999999]}}
,{"type":"Feature","properties":{"osm_id":512714659,"timestamp":1529494724,"name":"Metron Houses","building":"yes"},"geometry":{"type":"Point","coordinates":[30.2452739,-1.3787839499999999]}}
,{"type":"Feature","properties":{"osm_id":512743896,"timestamp":1529494723,"name":"Smart Library","building":"yes"},"geometry":{"type":"Point","coordinates":[30.243525599999998,-1.379608]}}
,{"type":"Feature","properties":{"osm_id":512743897,"timestamp":1529494723,"name":"Smart Library","building":"yes"},"geometry":{"type":"Point","coordinates":[30.24356615,-1.3797869999999999]}}
,{"type":"Feature","properties":{"osm_id":512746453,"timestamp":1529494722,"name":"Saloon de coffeure","building":"yes"},"geometry":{"type":"Point","coordinates":[30.244383499999998,-1.3800005]}}
,{"type":"Feature","properties":{"osm_id":512746454,"timestamp":1529494723,"name":"Toilet","building":"yes"},"geometry":{"type":"Point","coordinates":[30.2433779,-1.3799462]}}
,{"type":"Feature","properties":{"osm_id":512746455,"timestamp":1529494723,"name":"Toilet","building":"yes"},"geometry":{"type":"Point","coordinates":[30.2430577,-1.3797645]}}
,{"type":"Feature","properties":{"osm_id":512746456,"timestamp":1529494723,"name":"Dortoire for Boys","building":"yes"},"geometry":{"type":"Point","coordinates":[30.24313265,-1.37934885]}}
,{"type":"Feature","properties":{"osm_id":512746458,"timestamp":1529494723,"name":"Petron House","building":"yes"},"geometry":{"type":"Point","coordinates":[30.2432673,-1.37972355]}}
,{"type":"Feature","properties":{"osm_id":530254380,"timestamp":1509391768,"name":"providence house","building":"commercial","addr:city":"Nyamata","addr:street":"main loard"},"geometry":{"type":"Point","coordinates":[30.09167985,-2.14350815]}}
,{"type":"Feature","properties":{"osm_id":537335547,"timestamp":1509519232,"name":"Musanze Agricultural products markets","building":"commercial"},"geometry":{"type":"Point","coordinates":[29.641901150000002,-1.5066000000000002]}}
,{"type":"Feature","properties":{"osm_id":542645492,"timestamp":1511551934,"name":"Cogebanque","amenity":"bank","building":"yes"},"geometry":{"type":"Point","coordinates":[29.78813765,-2.23739795]}}
,{"type":"Feature","properties":{"osm_id":552176244,"timestamp":1515604643,"name":"Home INES","tourism":"hostel","building":"yes"},"geometry":{"type":"Point","coordinates":[29.612522249999998,-1.4984095499999999]}}
,{"type":"Feature","properties":{"osm_id":552176245,"timestamp":1515604643,"name":"INES Restaurant","amenity":"restaurant","building":"yes"},"geometry":{"type":"Point","coordinates":[29.6121845,-1.4986369499999999]}}
,{"type":"Feature","properties":{"osm_id":553121842,"timestamp":1568888955,"name":"5 Swiss Hotel","building":"hotel"},"geometry":{"type":"Point","coordinates":[30.0637903,-1.9477128499999998]}}
,{"type":"Feature","properties":{"osm_id":559392326,"timestamp":1526385160,"name":"Nyundo Cathedral","amenity":"place_of_worship","building":"yes","addr:city":"Nyundo"},"geometry":{"type":"Point","coordinates":[29.3253815,-1.7053124]}}
,{"type":"Feature","properties":{"osm_id":565742213,"timestamp":1519987408,"name":"Monmartse","amenity":"restaurant","building":"yes"},"geometry":{"type":"Point","coordinates":[30.10315495,-1.9527817500000002]}}
,{"type":"Feature","properties":{"osm_id":565748854,"timestamp":1519987790,"name":"Zuri","amenity":"restaurant","building":"yes"},"geometry":{"type":"Point","coordinates":[30.10281815,-1.95045655]}}
,{"type":"Feature","properties":{"osm_id":565848428,"timestamp":1525014916,"name":"Career Center","building":"commercial"},"geometry":{"type":"Point","coordinates":[30.093030149999997,-1.95148115]}}
,{"type":"Feature","properties":{"osm_id":565848432,"timestamp":1520004183,"name":"Dmall","building":"hotel"},"geometry":{"type":"Point","coordinates":[30.1040352,-1.9492038]}}
,{"type":"Feature","properties":{"osm_id":565849576,"timestamp":1520004718,"name":"Lemigo","building":"hotel"},"geometry":{"type":"Point","coordinates":[30.09787585,-1.9558436]}}
,{"type":"Feature","properties":{"osm_id":565868022,"timestamp":1520010784,"name":"Qiang Brother","amenity":"restaurant","building":"yes"},"geometry":{"type":"Point","coordinates":[30.0840691,-1.9308694]}}
,{"type":"Feature","properties":{"osm_id":566941573,"timestamp":1520326390,"bus":"yes","name":"Ngororero","amenity":"bus_station","building":"yes","public_transport":"station"},"geometry":{"type":"Point","coordinates":[29.6325583,-1.8535569]}}
,{"type":"Feature","properties":{"osm_id":569964233,"timestamp":1521116169,"name":"Ubumwe Grande","building":"hotel"},"geometry":{"type":"Point","coordinates":[30.0611895,-1.9471346500000002]}}
,{"type":"Feature","properties":{"osm_id":572119723,"timestamp":1521734517,"bus":"yes","name":"Zindiro","amenity":"bus_station","building":"yes","public_transport":"station"},"geometry":{"type":"Point","coordinates":[30.1377228,-1.92858335]}}
,{"type":"Feature","properties":{"osm_id":573033949,"timestamp":1522051551,"bus":"yes","name":"Kinyinya Bus Station","amenity":"bus_station","building":"yes","public_transport":"station"},"geometry":{"type":"Point","coordinates":[30.10950855,-1.9133692]}}
,{"type":"Feature","properties":{"osm_id":584431611,"timestamp":1581444740,"name":"Groupe scolaire Saint-Dominique Savio","building":"school"},"geometry":{"type":"Point","coordinates":[29.2823726,-1.7255235]}}
,{"type":"Feature","properties":{"osm_id":586333279,"timestamp":1525697346,"name":"ISKR","building":"yes"},"geometry":{"type":"Point","coordinates":[30.10265205,-1.9425511000000002]}}
,{"type":"Feature","properties":{"osm_id":587160640,"timestamp":1554462982,"name":"Kimihurura Sector Office","amenity":"townhall","building":"yes"},"geometry":{"type":"Point","coordinates":[30.097557000000002,-1.9565865]}}
,{"type":"Feature","properties":{"osm_id":588426304,"timestamp":1549711148,"name":"National Bank of Rwanda","amenity":"bank","building":"yes"},"geometry":{"type":"Point","coordinates":[29.63449715,-1.503616]}}
,{"type":"Feature","properties":{"osm_id":588426351,"timestamp":1589197008,"name":"University of Kigali","amenity":"university","building":"university"},"geometry":{"type":"Point","coordinates":[29.63573565,-1.50501935]}}
,{"type":"Feature","properties":{"osm_id":589455708,"timestamp":1526736037,"name":"Rufrabu","tourism":"hotel","building":"no","addr:city":"Ngororero"},"geometry":{"type":"Point","coordinates":[29.633269650000003,-1.85176675]}}
,{"type":"Feature","properties":{"osm_id":590267988,"timestamp":1550154539,"name":"Go Nudge","building":"yes","addr:street":"KG 603 St","addr:housenumber":"15"},"geometry":{"type":"Point","coordinates":[30.10005095,-1.95633935]}}
,{"type":"Feature","properties":{"osm_id":599704116,"timestamp":1529488730,"name":"salon de cofeure","building":"yes"},"geometry":{"type":"Point","coordinates":[30.244383499999998,-1.3800005]}}
,{"type":"Feature","properties":{"osm_id":599764870,"timestamp":1529604034,"name":"Irnoire for boys","building":"yes"},"geometry":{"type":"Point","coordinates":[30.24350825,-1.37931085]}}
,{"type":"Feature","properties":{"osm_id":599764872,"timestamp":1529494717,"name":"Classes","building":"yes"},"geometry":{"type":"Point","coordinates":[30.24453975,-1.37891235]}}
,{"type":"Feature","properties":{"osm_id":599764873,"timestamp":1529494717,"name":"Water Tanks","building":"yes"},"geometry":{"type":"Point","coordinates":[30.2447673,-1.37884525]}}
,{"type":"Feature","properties":{"osm_id":599764875,"timestamp":1529494718,"name":"Generator house","building":"yes"},"geometry":{"type":"Point","coordinates":[30.24477225,-1.3783951]}}
,{"type":"Feature","properties":{"osm_id":599764876,"timestamp":1529494718,"name":"gatekeeper house","building":"yes"},"geometry":{"type":"Point","coordinates":[30.24454395,-1.3799068]}}
,{"type":"Feature","properties":{"osm_id":599764904,"timestamp":1529494719,"name":"Ketchen","building":"yes"},"geometry":{"type":"Point","coordinates":[30.245835550000002,-1.37855365]}}
,{"type":"Feature","properties":{"osm_id":600412384,"timestamp":1529604034,"name":"Biology&Chemestry Labaratory","building":"house"},"geometry":{"type":"Point","coordinates":[30.244488500000003,-1.37863545]}}
,{"type":"Feature","properties":{"osm_id":600412385,"timestamp":1529604034,"name":"Physics Labaratory","building":"house"},"geometry":{"type":"Point","coordinates":[30.24463445,-1.3786113000000002]}}
,{"type":"Feature","properties":{"osm_id":602698413,"timestamp":1611157740,"addr:city":"RUKOMO","addr:housenumber":"RUKOMO","addr:postcode":"123","addr:street":"Gatunda-Rukomo-Nyagatare","amenity":"marketplace","building":"yes","name":"RUKOMO Market"},"geometry":{"type":"Point","coordinates":[30.2494398,-1.3762753499999998]}}
,{"type":"Feature","properties":{"osm_id":610173729,"timestamp":1603723449,"amenity":"studio","building":"yes","name":"Rwanda Broadcasting Agency"},"geometry":{"type":"Point","coordinates":[30.082753349999997,-1.938431]}}
,{"type":"Feature","properties":{"osm_id":610191867,"timestamp":1600220015,"building":"industrial","name":"Ntaruka Hydro Power Station"},"geometry":{"type":"Point","coordinates":[29.7503764,-1.4774083999999998]}}
,{"type":"Feature","properties":{"osm_id":614213774,"timestamp":1533474263,"name":"Great Wall Restaurant","building":"yes"},"geometry":{"type":"Point","coordinates":[30.098719600000003,-1.9552707]}}
,{"type":"Feature","properties":{"osm_id":614213800,"timestamp":1533474265,"name":"Hotel Beausejour","building":"yes"},"geometry":{"type":"Point","coordinates":[30.1047287,-1.95837705]}}
,{"type":"Feature","properties":{"osm_id":614213801,"timestamp":1533474265,"name":"Sol E Luna","building":"yes"},"geometry":{"type":"Point","coordinates":[30.10510635,-1.9588369]}}
,{"type":"Feature","properties":{"osm_id":615660914,"timestamp":1533868448,"name":"建筑物 R","building":"yes"},"geometry":{"type":"Point","coordinates":[29.9968079,-1.46714925]}}
,{"type":"Feature","properties":{"osm_id":615660916,"timestamp":1533868448,"name":"建筑物","building":"yes"},"geometry":{"type":"Point","coordinates":[29.9967638,-1.4672237]}}
,{"type":"Feature","properties":{"osm_id":615660919,"timestamp":1533868448,"name":"建筑物","building":"yes"},"geometry":{"type":"Point","coordinates":[29.99660445,-1.4674515000000001]}}
,{"type":"Feature","properties":{"osm_id":621974434,"timestamp":1557252889,"name":"Seven Day adventist , Mujyejuru Parish","amenity":"place_of_worship","building":"yes"},"geometry":{"type":"Point","coordinates":[29.79332375,-2.23890805]}}
,{"type":"Feature","properties":{"osm_id":622959191,"timestamp":1536126933,"name":"建筑物 R","building":"yes"},"geometry":{"type":"Point","coordinates":[29.996830600000003,-1.46711195]}}
,{"type":"Feature","properties":{"osm_id":625319614,"timestamp":1536919583,"bus":"yes","name":"Musanze Bus Park","amenity":"bus_station","building":"yes","public_transport":"station"},"geometry":{"type":"Point","coordinates":[29.6416486,-1.5116298]}}
,{"type":"Feature","properties":{"osm_id":625725386,"timestamp":1553590704,"name":"Agro P","building":"industrial"},"geometry":{"type":"Point","coordinates":[29.61367135,-1.5040678]}}
,{"type":"Feature","properties":{"osm_id":625725387,"timestamp":1553590704,"name":"Zamura feed","building":"industrial"},"geometry":{"type":"Point","coordinates":[29.6141027,-1.5038939500000001]}}
,{"type":"Feature","properties":{"osm_id":626204564,"timestamp":1537190782,"name":"Mukura Hospital","building":"hospital"},"geometry":{"type":"Point","coordinates":[29.72821405,-2.66489495]}}
,{"type":"Feature","properties":{"osm_id":626206525,"timestamp":1537190241,"name":"Chatoric","amenity":"place_of_worship","building":"yes"},"geometry":{"type":"Point","coordinates":[29.72453385,-2.6640339500000003]}}
,{"type":"Feature","properties":{"osm_id":626206526,"timestamp":1537190241,"name":"Chatoric","amenity":"place_of_worship","building":"yes"},"geometry":{"type":"Point","coordinates":[29.724289,-2.66419025]}}
,{"type":"Feature","properties":{"osm_id":626209571,"timestamp":1537191199,"name":"Ntagengerwa","building":"yes","addr:city":"Kigali","addr:street":"KG 501 St"},"geometry":{"type":"Point","coordinates":[30.093921700000003,-1.9497023]}}
,{"type":"Feature","properties":{"osm_id":636812717,"timestamp":1540204222,"name":"Mushaka Commercial Center","building":"commercial"},"geometry":{"type":"Point","coordinates":[28.9524095,-2.6391937]}}
,{"type":"Feature","properties":{"osm_id":636812718,"timestamp":1604707048,"addr:city":"Rwimbogo","addr:housenumber":"2","addr:street":"Market way","building":"commercial","name":"Mushaka Commercial Center"},"geometry":{"type":"Point","coordinates":[28.95224455,-2.6384100000000004]}}
,{"type":"Feature","properties":{"osm_id":636812719,"timestamp":1540204223,"name":"Gishoma School","building":"school","addr:housenumber":"Gishoma"},"geometry":{"type":"Point","coordinates":[28.94487115,-2.6325742500000002]}}
,{"type":"Feature","properties":{"osm_id":636812720,"timestamp":1540204223,"name":"Gishoma Modern Market","amenity":"marketplace","building":"yes","addr:housenumber":"Gishoma"},"geometry":{"type":"Point","coordinates":[28.94712955,-2.6333272]}}
,{"type":"Feature","properties":{"osm_id":637280538,"timestamp":1559321077,"name":"Bethele rubengera","building":"apartments"},"geometry":{"type":"Point","coordinates":[29.410924299999998,-2.04116465]}}
,{"type":"Feature","properties":{"osm_id":637667678,"timestamp":1579164953,"name":"ROUND DESIGNS","building":"commercial"},"geometry":{"type":"Point","coordinates":[30.06937775,-1.94796415]}}
,{"type":"Feature","properties":{"osm_id":638003728,"timestamp":1540500142,"name":"Buidling","building":"yes"},"geometry":{"type":"Point","coordinates":[29.4004121,-2.0112033]}}
,{"type":"Feature","properties":{"osm_id":640006564,"timestamp":1541077563,"name":"office of land registrar north province zone","office":"government","building":"yes"},"geometry":{"type":"Point","coordinates":[29.6299501,-1.49769975]}}
,{"type":"Feature","properties":{"osm_id":640007427,"timestamp":1541077700,"name":"cell office","office":"administrative","building":"service"},"geometry":{"type":"Point","coordinates":[29.62965605,-1.4978543000000002]}}
,{"type":"Feature","properties":{"osm_id":640658421,"timestamp":1578403951,"name":"Nyarurenzi Health Center","building":"yes"},"geometry":{"type":"Point","coordinates":[30.05203615,-2.05062845]}}
,{"type":"Feature","properties":{"osm_id":642672658,"timestamp":1541789716,"name":"Moucecore Guesthouse","building":"yes"},"geometry":{"type":"Point","coordinates":[30.0775449,-1.9413032000000001]}}
,{"type":"Feature","properties":{"osm_id":660036984,"timestamp":1553679115,"name":"karongi reference hospital","building":"hospital"},"geometry":{"type":"Point","coordinates":[29.347170849999998,-2.06798375]}}
,{"type":"Feature","properties":{"osm_id":660036989,"timestamp":1553679115,"name":"adiventist church","building":"church"},"geometry":{"type":"Point","coordinates":[29.35195605,-2.06779155]}}
,{"type":"Feature","properties":{"osm_id":667480383,"timestamp":1548945543,"name":"warehouse","building":"commercial"},"geometry":{"type":"Point","coordinates":[29.6215927,-2.79136445]}}
,{"type":"Feature","properties":{"osm_id":670465143,"timestamp":1550152593,"name":"Sorwathe Tea Factory Guest House","tourism":"guest_house","building":"yes"},"geometry":{"type":"Point","coordinates":[29.978543700000003,-1.6747605]}}
,{"type":"Feature","properties":{"osm_id":670465144,"timestamp":1550152593,"name":"Sorwathe Tea Factory","building":"yes","man_made":"works"},"geometry":{"type":"Point","coordinates":[29.9794648,-1.6738205]}}
,{"type":"Feature","properties":{"osm_id":679406458,"timestamp":1553590703,"name":"Ruhengeri cell","office":"yes","building":"yes"},"geometry":{"type":"Point","coordinates":[29.62960215,-1.49932045]}}
,{"type":"Feature","properties":{"osm_id":679406459,"timestamp":1553590703,"name":"ADPR Bukane","amenity":"place_of_worship","building":"church"},"geometry":{"type":"Point","coordinates":[29.62149955,-1.4997713]}}
,{"type":"Feature","properties":{"osm_id":679406460,"timestamp":1553590703,"name":"Primary school Bukane","building":"school"},"geometry":{"type":"Point","coordinates":[29.6214624,-1.50023835]}}
,{"type":"Feature","properties":{"osm_id":679406461,"timestamp":1553590703,"name":"Kimonyi sector office","office":"government","building":"service"},"geometry":{"type":"Point","coordinates":[29.60668735,-1.50706385]}}
,{"type":"Feature","properties":{"osm_id":679406462,"timestamp":1553590703,"name":"North province headquarter","office":"government","building":"yes"},"geometry":{"type":"Point","coordinates":[29.6337324,-1.50115715]}}
,{"type":"Feature","properties":{"osm_id":679406463,"timestamp":1553590703,"name":"Fatima hotel","tourism":"hotel","building":"yes"},"geometry":{"type":"Point","coordinates":[29.63343875,-1.50041455]}}
,{"type":"Feature","properties":{"osm_id":681826343,"timestamp":1554458300,"name":"Musanze YEGO center","building":"civic"},"geometry":{"type":"Point","coordinates":[29.640902949999997,-1.5102608]}}
,{"type":"Feature","properties":{"osm_id":681826344,"timestamp":1554458300,"name":"RRA Musanze  office","building":"office"},"geometry":{"type":"Point","coordinates":[29.64122305,-1.5072013499999999]}}
,{"type":"Feature","properties":{"osm_id":690228138,"timestamp":1562598138,"name":"Centre Scolaire Amizero","building":"school","addr:housenumber":"Ruhango Town"},"geometry":{"type":"Point","coordinates":[29.791187700000002,-2.23842945]}}
,{"type":"Feature","properties":{"osm_id":690228776,"timestamp":1557931155,"name":"Bank of Kigali-ruhango branch","amenity":"bank","building":"yes","addr:street":"kigali-huye main road","addr:housenumber":"ruhango"},"geometry":{"type":"Point","coordinates":[29.7890969,-2.2386717999999997]}}
,{"type":"Feature","properties":{"osm_id":690510624,"timestamp":1558021065,"name":"RESIDENTIAL HOUSE","building":"house"},"geometry":{"type":"Point","coordinates":[29.79335435,-2.24178305]}}
,{"type":"Feature","properties":{"osm_id":690511091,"timestamp":1558021303,"name":"RESIDENTIAL HOUSE","building":"yes"},"geometry":{"type":"Point","coordinates":[29.79289975,-2.2413797]}}
,{"type":"Feature","properties":{"osm_id":690520894,"timestamp":1558024502,"name":"church","amenity":"place_of_worship","building":"yes"},"geometry":{"type":"Point","coordinates":[29.7946929,-2.24791175]}}
,{"type":"Feature","properties":{"osm_id":690521064,"timestamp":1558024578,"name":"living water international","building":"yes"},"geometry":{"type":"Point","coordinates":[29.795264250000002,-2.24856035]}}
,{"type":"Feature","properties":{"osm_id":690555168,"timestamp":1581456421,"name":"Chapelle de Muhihi","amenity":"place_of_worship","building":"chapel","addr:city":"Byumba"},"geometry":{"type":"Point","coordinates":[30.05939095,-1.63132505]}}
,{"type":"Feature","properties":{"osm_id":690555369,"timestamp":1572039226,"name":"école maternelle de Muhihi","building":"kindergarten","addr:city":"Kisaro"},"geometry":{"type":"Point","coordinates":[30.05919575,-1.63140725]}}
,{"type":"Feature","properties":{"osm_id":690555595,"timestamp":1581455537,"name":"école élémentaire de Muhihi trois classes","building":"school","addr:city":"Kisaro"},"geometry":{"type":"Point","coordinates":[30.059068500000002,-1.6318058]}}
,{"type":"Feature","properties":{"osm_id":690555678,"timestamp":1572039226,"name":"Cantine scolaire de Muhihi","amenity":"restaurant","building":"yes","addr:city":"Kisaro"},"geometry":{"type":"Point","coordinates":[30.05895675,-1.6315941999999999]}}
,{"type":"Feature","properties":{"osm_id":690559594,"timestamp":1581455419,"name":"école élémentaire de Muhihi trois classes","building":"school","addr:city":"Kisaro"},"geometry":{"type":"Point","coordinates":[30.059441049999997,-1.6322211]}}
,{"type":"Feature","properties":{"osm_id":690562583,"timestamp":1558043322,"name":"ateliers professionnels couture menuiserie de Muhihi","building":"school","addr:city":"Kisaro"},"geometry":{"type":"Point","coordinates":[30.0598175,-1.63239385]}}
,{"type":"Feature","properties":{"osm_id":690820882,"timestamp":1598864353,"addr:city":"byumba","amenity":"place_of_worship","building":"cathedral","name":"Cathédrale de Byumba"},"geometry":{"type":"Point","coordinates":[30.055697199999997,-1.5731720500000002]}}
,{"type":"Feature","properties":{"osm_id":691079821,"timestamp":1558291604,"name":"Pôle santé de Muhihi","building":"yes","addr:city":"Kisaro"},"geometry":{"type":"Point","coordinates":[30.060163799999998,-1.6326108000000001]}}
,{"type":"Feature","properties":{"osm_id":697005696,"timestamp":1560455666,"name":"Rugezi Hydro Power Plant","building":"industrial"},"geometry":{"type":"Point","coordinates":[29.8282365,-1.42173695]}}
,{"type":"Feature","properties":{"osm_id":697005711,"timestamp":1560455666,"name":"Mukungwa II Hydro Power Plant","building":"industrial"},"geometry":{"type":"Point","coordinates":[29.6550698,-1.5817857]}}
,{"type":"Feature","properties":{"osm_id":697005718,"timestamp":1600220015,"building":"industrial","name":"Mukungwa Hydro Power Plant"},"geometry":{"type":"Point","coordinates":[29.683223050000002,-1.53678135]}}
,{"type":"Feature","properties":{"osm_id":697185217,"timestamp":1600220015,"building":"industrial","name":"Rukarara I Hydro Power Plant"},"geometry":{"type":"Point","coordinates":[29.495814600000003,-2.44109385]}}
,{"type":"Feature","properties":{"osm_id":697629020,"timestamp":1560714265,"name":"Keya Hydro Power Plant","building":"industrial"},"geometry":{"type":"Point","coordinates":[29.31274525,-1.70473485]}}
,{"type":"Feature","properties":{"osm_id":697636443,"timestamp":1600220015,"building":"industrial","name":"Cyimbili Hydro Power Plant"},"geometry":{"type":"Point","coordinates":[29.298384249999998,-1.8277108499999999]}}
,{"type":"Feature","properties":{"osm_id":697636447,"timestamp":1600220015,"building":"industrial","name":"Gashashi Hydro Power Plant"},"geometry":{"type":"Point","coordinates":[29.29280305,-1.80677325]}}
,{"type":"Feature","properties":{"osm_id":697636983,"timestamp":1600220015,"building":"industrial","name":"Nkora Hydro Power Plant"},"geometry":{"type":"Point","coordinates":[29.29918,-1.8496842500000001]}}
,{"type":"Feature","properties":{"osm_id":697814220,"timestamp":1600220015,"building":"industrial","name":"Gaseke Hydro Power Plant"},"geometry":{"type":"Point","coordinates":[29.6477082,-1.62547125]}}
,{"type":"Feature","properties":{"osm_id":697814222,"timestamp":1560786017,"name":"Giciye II Hydro Power Plant","building":"industrial"},"geometry":{"type":"Point","coordinates":[29.5905953,-1.669028]}}
,{"type":"Feature","properties":{"osm_id":697814228,"timestamp":1600220015,"building":"industrial","name":"Giciye I Hydro Power Plant"},"geometry":{"type":"Point","coordinates":[29.57373815,-1.68758945]}}
,{"type":"Feature","properties":{"osm_id":697817600,"timestamp":1564927193,"name":"Nyabarongo Hydro Power Plant","building":"industrial"},"geometry":{"type":"Point","coordinates":[29.639155199999998,-1.97843005]}}
,{"type":"Feature","properties":{"osm_id":700084115,"timestamp":1561629936,"name":"Fat Mama's restaurant and hotel","building":"yes"},"geometry":{"type":"Point","coordinates":[30.09400335,-1.957618]}}
,{"type":"Feature","properties":{"osm_id":700084131,"timestamp":1561629936,"name":"The Hut Restaurant","building":"yes"},"geometry":{"type":"Point","coordinates":[30.09329995,-1.9583858]}}
,{"type":"Feature","properties":{"osm_id":700086645,"timestamp":1561630584,"name":"Ameki Color","building":"yes"},"geometry":{"type":"Point","coordinates":[30.08772795,-1.965452]}}
,{"type":"Feature","properties":{"osm_id":700086646,"timestamp":1561630584,"name":"TVS","building":"yes"},"geometry":{"type":"Point","coordinates":[30.088676200000002,-1.96589565]}}
,{"type":"Feature","properties":{"osm_id":700086647,"timestamp":1561630584,"name":"TVS","building":"yes"},"geometry":{"type":"Point","coordinates":[30.08871125,-1.96562835]}}
,{"type":"Feature","properties":{"osm_id":700086648,"timestamp":1561630584,"name":"TVS Warehouse","building":"yes"},"geometry":{"type":"Point","coordinates":[30.0893315,-1.9655610499999998]}}
,{"type":"Feature","properties":{"osm_id":713663360,"timestamp":1597397108,"name":"Nsabimana And Nkuriyingoma Bar","shop":"alcohol","building":"yes","addr:district":"Kisoro"},"geometry":{"type":"Point","coordinates":[29.77756905,-1.3589718]}}
,{"type":"Feature","properties":{"osm_id":713663361,"timestamp":1597397108,"name":"Gad and Family Shop","shop":"convenience","building":"yes","addr:district":"Kisoro"},"geometry":{"type":"Point","coordinates":[29.7775344,-1.3591180500000002]}}
,{"type":"Feature","properties":{"osm_id":713663363,"timestamp":1597397108,"name":"Epaphra's Shop","shop":"beverages","building":"yes","addr:district":"Kisoro"},"geometry":{"type":"Point","coordinates":[29.777383049999997,-1.359025]}}
,{"type":"Feature","properties":{"osm_id":715821982,"timestamp":1566315756,"name":"Kigali Arena","leisure":"stadium","building":"yes"},"geometry":{"type":"Point","coordinates":[30.1154062,-1.9530636000000001]}}
,{"type":"Feature","properties":{"osm_id":719450817,"timestamp":1579538709,"name":"School of Architectur and Built Environment","building":"school","addr:city":"Kigali","addr:street":"KN 7 Avenue","addr:postcode":"250"},"geometry":{"type":"Point","coordinates":[30.0632868,-1.96085385]}}
,{"type":"Feature","properties":{"osm_id":719990314,"timestamp":1567103053,"name":"Emeraude Kivu Resort","tourism":"hotel","building":"yes"},"geometry":{"type":"Point","coordinates":[28.894226850000003,-2.480468]}}
,{"type":"Feature","properties":{"osm_id":721514996,"timestamp":1568800719,"name":"Kinunu Wonders Guest House","tourism":"guest_house","building":"yes"},"geometry":{"type":"Point","coordinates":[29.2799205,-1.90438]}}
,{"type":"Feature","properties":{"osm_id":725809308,"timestamp":1568802311,"name":"Cyimbiri Guest House","tourism":"guest_house","building":"yes"},"geometry":{"type":"Point","coordinates":[29.290634349999998,-1.829451]}}
,{"type":"Feature","properties":{"osm_id":730953164,"timestamp":1586437795,"name":"Eglise Méthodiste Bya'Ene","amenity":"place_of_worship","building":"church"},"geometry":{"type":"Point","coordinates":[28.8710058,-2.5069689]}}
,{"type":"Feature","properties":{"osm_id":734977805,"timestamp":1571171003,"name":"Building","building":"yes"},"geometry":{"type":"Point","coordinates":[30.138343,-1.3224532500000001]}}
,{"type":"Feature","properties":{"osm_id":737691777,"timestamp":1571773443,"name":"#msftcosine","building":"yes"},"geometry":{"type":"Point","coordinates":[30.148578999999998,-1.3222760999999998]}}
,{"type":"Feature","properties":{"osm_id":743268318,"timestamp":1575700701,"name":"UNHCR Field Office Kibuye","building":"yes"},"geometry":{"type":"Point","coordinates":[29.3342736,-2.0720720999999998]}}
,{"type":"Feature","properties":{"osm_id":748612859,"timestamp":1574414923,"name":"Computer Lab","building":"yes"},"geometry":{"type":"Point","coordinates":[30.075349600000003,-1.5977344]}}
,{"type":"Feature","properties":{"osm_id":748612860,"timestamp":1574414923,"name":"Women Center","building":"yes"},"geometry":{"type":"Point","coordinates":[30.0755611,-1.59792015]}}
,{"type":"Feature","properties":{"osm_id":748612861,"timestamp":1574414923,"name":"Youth Center","building":"yes"},"geometry":{"type":"Point","coordinates":[30.075943449999997,-1.5974048]}}
,{"type":"Feature","properties":{"osm_id":748612862,"timestamp":1574414923,"name":"World Vision/ ADRA","building":"yes"},"geometry":{"type":"Point","coordinates":[30.07603945,-1.5975483000000001]}}
,{"type":"Feature","properties":{"osm_id":748612863,"timestamp":1574414923,"name":"WFP","building":"yes"},"geometry":{"type":"Point","coordinates":[30.0761183,-1.5976031]}}
,{"type":"Feature","properties":{"osm_id":748612864,"timestamp":1574414923,"name":"Rubb hall","building":"yes"},"geometry":{"type":"Point","coordinates":[30.075722650000003,-1.5982045]}}
,{"type":"Feature","properties":{"osm_id":748612865,"timestamp":1574414923,"name":"UNHCR","building":"yes"},"geometry":{"type":"Point","coordinates":[30.0757751,-1.59825635]}}
,{"type":"Feature","properties":{"osm_id":748613714,"timestamp":1574415236,"name":"Hospital","building":"yes"},"geometry":{"type":"Point","coordinates":[30.0756959,-1.5985538]}}
,{"type":"Feature","properties":{"osm_id":748613715,"timestamp":1574415236,"name":"Hospital","building":"yes"},"geometry":{"type":"Point","coordinates":[30.0755427,-1.59849215]}}
,{"type":"Feature","properties":{"osm_id":748613716,"timestamp":1574415236,"name":"Hospital","building":"yes"},"geometry":{"type":"Point","coordinates":[30.075528,-1.59867015]}}
,{"type":"Feature","properties":{"osm_id":748613717,"timestamp":1574415236,"name":"PLAN","building":"yes"},"geometry":{"type":"Point","coordinates":[30.0754447,-1.59841055]}}
,{"type":"Feature","properties":{"osm_id":748613718,"timestamp":1574415236,"name":"ARC/DISTR","building":"yes"},"geometry":{"type":"Point","coordinates":[30.07513435,-1.59836155]}}
,{"type":"Feature","properties":{"osm_id":748613719,"timestamp":1574415236,"name":"ARC/DISTR","building":"yes"},"geometry":{"type":"Point","coordinates":[30.07519155,-1.5983239999999999]}}
,{"type":"Feature","properties":{"osm_id":748613720,"timestamp":1574415236,"name":"ARC/DISTR","building":"yes"},"geometry":{"type":"Point","coordinates":[30.075238900000002,-1.5982929499999998]}}
,{"type":"Feature","properties":{"osm_id":748613721,"timestamp":1574415236,"name":"ARC/DISTR","building":"yes"},"geometry":{"type":"Point","coordinates":[30.0753124,-1.5981444]}}
,{"type":"Feature","properties":{"osm_id":748613722,"timestamp":1574415236,"name":"ARC/DISTR","building":"yes"},"geometry":{"type":"Point","coordinates":[30.075124549999998,-1.59828235]}}
,{"type":"Feature","properties":{"osm_id":748613723,"timestamp":1574415236,"name":"ARC/DISTR","building":"yes"},"geometry":{"type":"Point","coordinates":[30.075075499999997,-1.59819115]}}
,{"type":"Feature","properties":{"osm_id":748613724,"timestamp":1574415236,"name":"ARC/DISTR","building":"yes"},"geometry":{"type":"Point","coordinates":[30.0750077,-1.5981334]}}
,{"type":"Feature","properties":{"osm_id":748613725,"timestamp":1574415236,"name":"ARC/DISTR","building":"yes"},"geometry":{"type":"Point","coordinates":[30.0749962,-1.59803655]}}
,{"type":"Feature","properties":{"osm_id":748613726,"timestamp":1574415236,"name":"ARC/DISTR","building":"yes"},"geometry":{"type":"Point","coordinates":[30.07514885,-1.598027]}}
,{"type":"Feature","properties":{"osm_id":748613727,"timestamp":1574415236,"name":"ARC/DISTR","building":"yes"},"geometry":{"type":"Point","coordinates":[30.0752193,-1.5979917499999998]}}
,{"type":"Feature","properties":{"osm_id":748617323,"timestamp":1574416200,"name":"Water Tank","building":"yes"},"geometry":{"type":"Point","coordinates":[30.077031650000002,-1.5970480500000002]}}
,{"type":"Feature","properties":{"osm_id":748617324,"timestamp":1574416200,"name":"Unkwon Building","building":"yes"},"geometry":{"type":"Point","coordinates":[30.074901850000003,-1.59776875]}}
,{"type":"Feature","properties":{"osm_id":748617360,"timestamp":1574416207,"name":"Library","building":"yes"},"geometry":{"type":"Point","coordinates":[30.07635095,-1.59908495]}}
,{"type":"Feature","properties":{"osm_id":748619479,"timestamp":1574416732,"name":"MINEMA Immigration Police Station","building":"yes"},"geometry":{"type":"Point","coordinates":[30.076930400000002,-1.60066115]}}
,{"type":"Feature","properties":{"osm_id":758309355,"timestamp":1577174514,"name":"RESIDENTIAL HOUSE","building":"house"},"geometry":{"type":"Point","coordinates":[29.7790136,-2.2530096]}}
,{"type":"Feature","properties":{"osm_id":762615812,"timestamp":1578825611,"name":"Parking","building":"yes","addr:city":"Kigali"},"geometry":{"type":"Point","coordinates":[30.06377675,-1.9566762500000001]}}
,{"type":"Feature","properties":{"osm_id":765165567,"timestamp":1579534152,"name":"CST Library","amenity":"library","building":"yes","addr:city":"Kigali","addr:street":"KN 3 Avenue","addr:postcode":"250","addr:housenumber":"CST"},"geometry":{"type":"Point","coordinates":[30.063069,-1.95862495]}}
,{"type":"Feature","properties":{"osm_id":765165568,"timestamp":1579534152,"name":"Afrcan Center of Excelence in Energy for Sustainable Development","building":"yes","addr:city":"Kigali","addr:street":"KN 3 Avenue","addr:postcode":"250","addr:housenumber":"123"},"geometry":{"type":"Point","coordinates":[30.0628465,-1.959139]}}
,{"type":"Feature","properties":{"osm_id":765168412,"timestamp":1579536662,"name":"Dusaidi Hostel","tourism":"hostel","building":"yes","addr:city":"Kigali","addr:street":"KN 7 Avenue","addr:postcode":"250"},"geometry":{"type":"Point","coordinates":[30.0640323,-1.9551983499999999]}}
,{"type":"Feature","properties":{"osm_id":765168529,"timestamp":1579534935,"name":"IKAZE BLOCK","building":"yes"},"geometry":{"type":"Point","coordinates":[30.06343735,-1.954727]}}
,{"type":"Feature","properties":{"osm_id":765168530,"timestamp":1579534935,"name":"Ikaze gate house","building":"yes"},"geometry":{"type":"Point","coordinates":[30.063338299999998,-1.9545069499999999]}}
,{"type":"Feature","properties":{"osm_id":765172393,"timestamp":1579535634,"name":"Muhabura Block","building":"yes","addr:city":"Kigali","addr:postcode":"+250"},"geometry":{"type":"Point","coordinates":[30.06465025,-1.9627753000000001]}}
,{"type":"Feature","properties":{"osm_id":765176768,"timestamp":1579537545,"name":"Karisimbi Block","building":"yes","addr:city":"Kigali","addr:postcode":"+250"},"geometry":{"type":"Point","coordinates":[30.0645407,-1.9617637]}}
,{"type":"Feature","properties":{"osm_id":765178815,"timestamp":1579536662,"name":"Restaurent","building":"yes","addr:city":"Kigali","addr:street":"KN 7 Avenue","addr:postcode":"250"},"geometry":{"type":"Point","coordinates":[30.06387905,-1.9577082]}}
,{"type":"Feature","properties":{"osm_id":765179793,"timestamp":1579540328,"name":"Agaciro Block","building":"school","addr:housenumber":"UR_CST"},"geometry":{"type":"Point","coordinates":[30.06437375,-1.9579773999999999]}}
,{"type":"Feature","properties":{"osm_id":765182415,"timestamp":1579537446,"name":"home","building":"residential"},"geometry":{"type":"Point","coordinates":[30.063854550000002,-1.9548320000000001]}}
,{"type":"Feature","properties":{"osm_id":765182416,"timestamp":1579537446,"name":"MUHAZI BLOCK","building":"yes"},"geometry":{"type":"Point","coordinates":[30.063762599999997,-1.9559719]}}
,{"type":"Feature","properties":{"osm_id":765182417,"timestamp":1579537446,"name":"MEGA PRINT HOUSE","building":"yes"},"geometry":{"type":"Point","coordinates":[30.06370105,-1.95565715]}}
,{"type":"Feature","properties":{"osm_id":765184836,"timestamp":1579538328,"name":"Einstien BLOCK","building":"school","addr:housenumber":"UR_CST"},"geometry":{"type":"Point","coordinates":[30.0642707,-1.9585759500000002]}}
,{"type":"Feature","properties":{"osm_id":765186362,"timestamp":1579538644,"name":"Adiministration Block","building":"yes","addr:city":"Kigali city","addr:housenumber":"NYARUGENGE CAMPUS"},"geometry":{"type":"Point","coordinates":[30.063622799999997,-1.9568643]}}
,{"type":"Feature","properties":{"osm_id":765186436,"timestamp":1579538709,"name":"school of mining and geology","building":"school","addr:city":"Kigali","addr:street":"KN 7 Avenue","addr:postcode":"250"},"geometry":{"type":"Point","coordinates":[30.06396575,-1.96039415]}}
,{"type":"Feature","properties":{"osm_id":765187478,"timestamp":1579538968,"name":"Camp Kigali Block","building":"school","addr:housenumber":"UR_CST"},"geometry":{"type":"Point","coordinates":[30.06310275,-1.95968205]}}
,{"type":"Feature","properties":{"osm_id":765191663,"timestamp":1579539519,"name":"Lecturer Hostel","tourism":"hostel","building":"yes","addr:city":"Kigali","addr:street":"KN 7 Avenue","addr:postcode":"+250"},"geometry":{"type":"Point","coordinates":[30.063645299999997,-1.9634023]}}
,{"type":"Feature","properties":{"osm_id":765196478,"timestamp":1579540706,"name":"mosque building","building":"mosque","addr:housenumber":"UR_CST"},"geometry":{"type":"Point","coordinates":[30.0643203,-1.9575049]}}
,{"type":"Feature","properties":{"osm_id":765197953,"timestamp":1579541313,"name":"URSU Student","office":"government","building":"yes","addr:city":"Kigali city","addr:postcode":"250"},"geometry":{"type":"Point","coordinates":[30.0636014,-1.9581821]}}
,{"type":"Feature","properties":{"osm_id":765199635,"timestamp":1579541686,"name":"Center of Languages","building":"yes","addr:city":"Kigali","addr:postcode":"250"},"geometry":{"type":"Point","coordinates":[30.06426895,-1.9568666000000001]}}
,{"type":"Feature","properties":{"osm_id":765200420,"timestamp":1579541959,"name":"Security office","office":"yes","building":"yes"},"geometry":{"type":"Point","coordinates":[30.06348115,-1.9563693]}}
,{"type":"Feature","properties":{"osm_id":765200446,"timestamp":1579684927,"name":"Hostel","building":"yes","addr:city":"Kigali city","addr:postcode":"250"},"geometry":{"type":"Point","coordinates":[30.063507,-1.95539525]}}
,{"type":"Feature","properties":{"osm_id":765200872,"timestamp":1579542084,"name":"Muhabura Cantine","shop":"coffee","building":"yes"},"geometry":{"type":"Point","coordinates":[30.0642514,-1.9623051999999999]}}
,{"type":"Feature","properties":{"osm_id":765202004,"timestamp":1579542321,"name":"Electricity control chamber","craft":"electrician","building":"yes"},"geometry":{"type":"Point","coordinates":[30.0646627,-1.96152235]}}
,{"type":"Feature","properties":{"osm_id":765202414,"timestamp":1579542413,"name":"Printing shop","shop":"printer_ink","building":"yes"},"geometry":{"type":"Point","coordinates":[30.06304805,-1.96174695]}}
,{"type":"Feature","properties":{"osm_id":765202641,"timestamp":1579542464,"name":"workshop","building":"yes","addr:city":"Kigali city","addr:street":"KN 7 Avenue","addr:postcode":"250"},"geometry":{"type":"Point","coordinates":[30.064097500000003,-1.9568665]}}
,{"type":"Feature","properties":{"osm_id":765433765,"timestamp":1579618264,"name":"Clinic store","building":"yes","addr:city":"Kigali city","addr:postcode":"250"},"geometry":{"type":"Point","coordinates":[30.0633392,-1.95498575]}}
,{"type":"Feature","properties":{"osm_id":765437032,"timestamp":1579684927,"name":"Ikaze Canteen and Checking Point","building":"house","addr:city":"Kigali city","addr:street":"KN 73 Street","addr:postcode":"+250"},"geometry":{"type":"Point","coordinates":[30.063338299999998,-1.9545069499999999]}}
,{"type":"Feature","properties":{"osm_id":765437462,"timestamp":1579619100,"name":"ikaze block","building":"yes","addr:city":"Kigali city","addr:postcode":"250"},"geometry":{"type":"Point","coordinates":[30.06343735,-1.954727]}}
,{"type":"Feature","properties":{"osm_id":765438243,"timestamp":1579619221,"name":"CMHs clinic store","building":"yes","addr:city":"Kigali city","addr:postcode":"250"},"geometry":{"type":"Point","coordinates":[30.0633392,-1.95498575]}}
,{"type":"Feature","properties":{"osm_id":765438639,"timestamp":1579619329,"name":"home","building":"house","addr:city":"Kigali city","addr:postcode":"250"},"geometry":{"type":"Point","coordinates":[30.063854550000002,-1.9548320000000001]}}
,{"type":"Feature","properties":{"osm_id":765439161,"timestamp":1579619517,"name":"DUSAID Hostel","building":"yes","addr:city":"Kigali city","addr:postcode":"250"},"geometry":{"type":"Point","coordinates":[30.0640323,-1.9551983499999999]}}
,{"type":"Feature","properties":{"osm_id":769455666,"timestamp":1580760213,"name":"Shangi Parish","amenity":"place_of_worship","building":"yes"},"geometry":{"type":"Point","coordinates":[29.006075,-2.40922955]}}
,{"type":"Feature","properties":{"osm_id":769629887,"timestamp":1581325291,"name":"Nkenke dispensary","amenity":"clinic","building":"yes"},"geometry":{"type":"Point","coordinates":[29.74613305,-1.45492885]}}
,{"type":"Feature","properties":{"osm_id":771659312,"timestamp":1581432046,"name":"Bralirwa Brewery medical centre","building":"yes"},"geometry":{"type":"Point","coordinates":[29.2805121,-1.73709575]}}
,{"type":"Feature","properties":{"osm_id":781338549,"timestamp":1584201228,"name":"Martyrs Secondary School","building":"school"},"geometry":{"type":"Point","coordinates":[30.1190127,-1.9630459500000002]}}
,{"type":"Feature","properties":{"osm_id":781368525,"timestamp":1584210675,"name":"Groupe Scolaire Remera Protestant","building":"school"},"geometry":{"type":"Point","coordinates":[30.119506299999998,-1.9616818999999999]}}
,{"type":"Feature","properties":{"osm_id":781719533,"timestamp":1587071126,"name":"Marriott","tourism":"hotel","building":"yes"},"geometry":{"type":"Point","coordinates":[30.0623524,-1.95373775]}}
,{"type":"Feature","properties":{"osm_id":788563798,"timestamp":1586183656,"name":"CDS CAMAKOMBE","building":"hospital"},"geometry":{"type":"Point","coordinates":[29.0561912,-2.70514955]}}
,{"type":"Feature","properties":{"osm_id":789208208,"timestamp":1586334587,"name":"CDS IZERE","amenity":"hospital","building":"hospital"},"geometry":{"type":"Point","coordinates":[29.4797804,-2.80919725]}}
,{"type":"Feature","properties":{"osm_id":821911303,"timestamp":1593622813,"name":"Recreation Building(GYM)","building":"yes"},"geometry":{"type":"Point","coordinates":[30.059811850000003,-1.9663937]}}
,{"type":"Feature","properties":{"osm_id":822333965,"timestamp":1593725856,"name":"2000 Hotel","building":"commercial","addr:city":"Kigali","addr:street":"KN 82 Street"},"geometry":{"type":"Point","coordinates":[30.0582815,-1.94384165]}}
,{"type":"Feature","properties":{"osm_id":822333966,"timestamp":1593725856,"name":"2000 building","building":"retail"},"geometry":{"type":"Point","coordinates":[30.05860335,-1.94350925]}}
,{"type":"Feature","properties":{"osm_id":822662891,"timestamp":1593808951,"name":"4G Square","building":"retail"},"geometry":{"type":"Point","coordinates":[30.05998125,-1.9465534500000001]}}
,{"type":"Feature","properties":{"osm_id":823746110,"timestamp":1610000832,"addr:district":"Kisoro","amenity":"toilets","building":"yes","name":"Katarara Primary School"},"geometry":{"type":"Point","coordinates":[29.739291899999998,-1.33657645]}}
,{"type":"Feature","properties":{"osm_id":831204392,"timestamp":1595935728,"name":"inzu","building":"house"},"geometry":{"type":"Point","coordinates":[30.141780699999998,-1.9645117]}}
,{"type":"Feature","properties":{"osm_id":831204396,"timestamp":1595935728,"name":"restourant","building":"house"},"geometry":{"type":"Point","coordinates":[30.14159955,-1.9640474]}}
,{"type":"Feature","properties":{"osm_id":837051126,"timestamp":1597397108,"name":"Fabian And Family Bar","shop":"beverages","building":"yes","addr:district":"Kisoro"},"geometry":{"type":"Point","coordinates":[29.777434149999998,-1.35895195]}}
,{"type":"Feature","properties":{"osm_id":842977123,"timestamp":1598945633,"addr:city":"Kigali","addr:street":"KK 505 Street","building":"house","name":"Kevin Kubwimana 's Home"},"geometry":{"type":"Point","coordinates":[30.098942200000003,-1.976019]}}
,{"type":"Feature","properties":{"osm_id":847588552,"timestamp":1600185860,"addr:city":"Kigali","addr:street":"KN 41 Street","building":"yes","name":"La cantine"},"geometry":{"type":"Point","coordinates":[30.0694226,-1.9602741]}}
,{"type":"Feature","properties":{"osm_id":847727069,"timestamp":1600196776,"addr:city":"kigali","addr:street":"KG 669 Street","amenity":"restaurant","building":"yes","name":"Le Manoire 707"},"geometry":{"type":"Point","coordinates":[30.0631701,-1.92129685]}}
,{"type":"Feature","properties":{"osm_id":847819745,"timestamp":1600220015,"building":"industrial","name":"Rukarara II Hydro Power Plant"},"geometry":{"type":"Point","coordinates":[29.512355200000002,-2.44134955]}}
,{"type":"Feature","properties":{"osm_id":848358192,"timestamp":1600334688,"addr:city":"kigali","building":"yes","leisure":"sports_hall","name":"The Gymnasium"},"geometry":{"type":"Point","coordinates":[30.070152,-1.96308715]}}
,{"type":"Feature","properties":{"osm_id":861322402,"timestamp":1603268927,"building":"yes","name":"The Kiosk cafe"},"geometry":{"type":"Point","coordinates":[30.384294150000002,-1.7662563]}}
,{"type":"Feature","properties":{"osm_id":867883302,"timestamp":1604706328,"building":"school","name":"Butambamo Secondary School"},"geometry":{"type":"Point","coordinates":[28.94336475,-2.6476247500000003]}}
,{"type":"Feature","properties":{"osm_id":874784296,"timestamp":1605802183,"building":"yes","name":"House","shop":"clothes"},"geometry":{"type":"Point","coordinates":[30.04862435,-1.9490497]}}
,{"type":"Feature","properties":{"osm_id":874784298,"timestamp":1605802183,"building":"yes","name":"House","shop":"clothes"},"geometry":{"type":"Point","coordinates":[30.048438,-1.9486165500000001]}}
,{"type":"Feature","properties":{"osm_id":874798631,"timestamp":1605804290,"addr:city":"Kigali","building":"yes","name":"Mpazi"},"geometry":{"type":"Point","coordinates":[30.05530515,-1.95061735]}}
,{"type":"Feature","properties":{"osm_id":874861087,"timestamp":1605815275,"building":"yes","name":"Mpazi"},"geometry":{"type":"Point","coordinates":[30.0552273,-1.95075]}}
,{"type":"Feature","properties":{"osm_id":874861426,"timestamp":1605815395,"building":"yes","name":"mpazi"},"geometry":{"type":"Point","coordinates":[30.05524585,-1.9504522]}}
,{"type":"Feature","properties":{"osm_id":874866067,"timestamp":1605815876,"building":"yes","name":"Kigali"},"geometry":{"type":"Point","coordinates":[30.05605735,-1.95028755]}}
,{"type":"Feature","properties":{"osm_id":874871415,"timestamp":1605817105,"building":"yes","name":"Mpazi"},"geometry":{"type":"Point","coordinates":[30.05612105,-1.9500441]}}
,{"type":"Feature","properties":{"osm_id":894995898,"timestamp":1610555929,"building":"yes","name":"Opthalmology"},"geometry":{"type":"Point","coordinates":[29.637245,-1.5070869500000001]}}
,{"type":"Feature","properties":{"osm_id":894995899,"timestamp":1610555929,"building":"yes","name":"Accident and Emergency"},"geometry":{"type":"Point","coordinates":[29.637532450000002,-1.50740585]}}
,{"type":"Feature","properties":{"osm_id":894995900,"timestamp":1610555929,"building":"yes","name":"Mental Health"},"geometry":{"type":"Point","coordinates":[29.63780535,-1.5085502]}}
,{"type":"Feature","properties":{"osm_id":894995901,"timestamp":1610555929,"building":"yes","name":"Laboratory"},"geometry":{"type":"Point","coordinates":[29.6372377,-1.50839955]}}
,{"type":"Feature","properties":{"osm_id":894995902,"timestamp":1610555929,"building":"yes","name":"Secretary"},"geometry":{"type":"Point","coordinates":[29.638258800000003,-1.5081475]}}
,{"type":"Feature","properties":{"osm_id":894995903,"timestamp":1610555929,"building":"yes","name":"Internal medecine"},"geometry":{"type":"Point","coordinates":[29.63800535,-1.5078835]}}
,{"type":"Feature","properties":{"osm_id":894995904,"timestamp":1610555929,"building":"yes","name":"Pediatrics"},"geometry":{"type":"Point","coordinates":[29.638023699999998,-1.5088015499999998]}}
,{"type":"Feature","properties":{"osm_id":894995905,"timestamp":1610555929,"building":"yes","name":"IT Building"},"geometry":{"type":"Point","coordinates":[29.637112700000003,-1.50799735]}}
,{"type":"Feature","properties":{"osm_id":894995906,"timestamp":1610555929,"building":"yes","name":"Adolescent clinic"},"geometry":{"type":"Point","coordinates":[29.6369384,-1.5077945]}}
,{"type":"Feature","properties":{"osm_id":894995907,"timestamp":1610555929,"building":"yes","name":"Canteen"},"geometry":{"type":"Point","coordinates":[29.638250499999998,-1.5087233]}}
,{"type":"Feature","properties":{"osm_id":895163697,"timestamp":1610615872,"building":"yes","name":"Farmland"},"geometry":{"type":"Point","coordinates":[29.87662735,-2.7462135]}}
]}